%
(Header)
(Generated by gcodetools from Inkscape.)
(Using default header. To add your own header create file "header" in the output dir.)
M3
(Header end.)
G21 (All units in mm)

(Start cutting path id: path13547)
(Change tool to Default tool)

G00 Z5.000000
G00 X8.534217 Y27.411172

G01 Z-0.125000 F100.0(Penetrate)
G01 X8.534217 Y54.090574 Z-0.125000 F400.000000
G01 X12.345783 Y40.750873 Z-0.125000
G01 X16.157465 Y27.411172 Z-0.125000
G01 X12.345783 Y14.071269 Z-0.125000
G01 X8.534217 Y0.731367 Z-0.125000
G01 X8.534217 Y27.411172 Z-0.125000
G00 Z5.000000

(End cutting path id: path13547)


(Start cutting path id: path13547)
(Change tool to Default tool)

G00 Z5.000000
G00 X11.258796 Y18.178258

G01 Z-0.125000 F100.0(Penetrate)
G01 X11.664955 Y18.506817 Z-0.125000 F400.000000
G01 X12.008594 Y19.083307 Z-0.125000
G01 X12.283264 Y19.894627 Z-0.125000
G01 X12.482571 Y20.923641 Z-0.125000
G01 X12.599143 Y22.072590 Z-0.125000
G01 X12.633584 Y23.395898 Z-0.125000
G01 X12.596752 Y24.699350 Z-0.125000
G01 X12.483463 Y25.860494 Z-0.125000
G01 X12.289311 Y26.911480 Z-0.125000
G01 X12.009775 Y27.884458 Z-0.125000
G01 X11.694300 Y28.685094 Z-0.125000
G01 X11.144759 Y29.783550 Z-0.125000
G01 X10.601121 Y30.940562 Z-0.125000
G01 X10.380130 Y31.820213 Z-0.125000
G01 X10.337884 Y32.524801 Z-0.125000
G01 X10.390555 Y33.476413 Z-0.125000
G01 X10.539639 Y34.152479 Z-0.125000
G01 X10.679825 Y34.403938 Z-0.125000
G01 X10.847742 Y34.519034 Z-0.125000
G01 X11.023752 Y34.492528 Z-0.125000
G01 X11.188214 Y34.319581 Z-0.125000
G01 X11.427232 Y33.608139 Z-0.125000
G01 X11.621298 Y32.348528 Z-0.125000
G01 X11.658706 Y32.050104 Z-0.125000
G01 X12.121711 Y32.473502 Z-0.125000
G01 X12.576709 Y32.929655 Z-0.125000
G01 X12.574060 Y33.055837 Z-0.125000
G01 X12.441707 Y34.396177 Z-0.125000
G01 X12.145526 Y35.887392 Z-0.125000
G01 X11.953217 Y36.483938 Z-0.125000
G01 X11.741642 Y36.943820 Z-0.125000
G01 X11.326499 Y37.427286 Z-0.125000
G01 X10.919246 Y37.526358 Z-0.125000
G01 X10.526997 Y37.452986 Z-0.125000
G01 X10.077326 Y36.963675 Z-0.125000
G01 X9.730058 Y36.151953 Z-0.125000
G01 X9.483869 Y35.013586 Z-0.125000
G01 X9.337463 Y33.544141 Z-0.125000
G01 X9.317852 Y31.575205 Z-0.125000
G01 X9.403063 Y30.500434 Z-0.125000
G01 X9.568562 Y29.521912 Z-0.125000
G01 X9.821259 Y28.608599 Z-0.125000
G01 X10.168095 Y27.728947 Z-0.125000
G01 X10.623583 Y26.812106 Z-0.125000
G01 X11.165752 Y25.672228 Z-0.125000
G01 X11.439932 Y24.834503 Z-0.125000
G01 X11.573091 Y24.008670 Z-0.125000
G01 X11.602839 Y23.117731 Z-0.125000
G01 X11.554805 Y22.385024 Z-0.125000
G01 X11.453035 Y21.801479 Z-0.125000
G01 X11.301100 Y21.380198 Z-0.125000
G01 X11.102542 Y21.134282 Z-0.125000
G01 X10.813877 Y21.169557 Z-0.125000
G01 X10.556716 Y21.648286 Z-0.125000
G01 X10.349519 Y22.519068 Z-0.125000
G01 X10.210657 Y23.727480 Z-0.125000
G01 X10.175525 Y24.161864 Z-0.125000
G01 X9.811065 Y23.910909 Z-0.125000
G01 X9.323266 Y23.551106 Z-0.125000
G01 X9.180718 Y23.428149 Z-0.125000
G01 X9.249256 Y22.490848 Z-0.125000
G01 X9.429413 Y21.095984 Z-0.125000
G01 X9.642974 Y20.057898 Z-0.125000
G01 X9.895873 Y19.226422 Z-0.125000
G01 X10.273897 Y18.515888 Z-0.125000
G01 X10.710465 Y18.142983 Z-0.125000
G01 X11.258796 Y18.178258 Z-0.125000
G01 X11.258796 Y18.178258 Z-0.125000
G00 Z5.000000

(End cutting path id: path13547)


(Start cutting path id: path13552)
(Change tool to Default tool)

G00 Z5.000000
G00 X55.695451 Y13.936798

G01 Z-0.125000 F100.0(Penetrate)
G01 X55.170762 Y14.627175 Z-0.125000 F400.000000
G01 X54.735633 Y15.656190 Z-0.125000
G01 X54.370194 Y17.082298 Z-0.125000
G01 X54.054863 Y18.967985 Z-0.125000
G01 X53.863072 Y20.427352 Z-0.125000
G01 X53.830243 Y20.887939 Z-0.125000
G01 X53.847522 Y21.221538 Z-0.125000
G01 X53.920667 Y21.465437 Z-0.125000
G01 X54.056015 Y21.659953 Z-0.125000
G01 X54.537507 Y22.049990 Z-0.125000
G01 X55.253411 Y22.581127 Z-0.125000
G01 X55.355353 Y21.448304 Z-0.125000
G01 X55.472271 Y20.522090 Z-0.125000
G01 X55.643903 Y19.625103 Z-0.125000
G01 X55.846925 Y18.861153 Z-0.125000
G01 X56.058010 Y18.333040 Z-0.125000
G01 X56.258152 Y18.106273 Z-0.125000
G01 X56.495442 Y18.043787 Z-0.125000
G01 X56.737917 Y18.142556 Z-0.125000
G01 X56.953033 Y18.399558 Z-0.125000
G01 X57.118330 Y18.776494 Z-0.125000
G01 X57.250798 Y19.258246 Z-0.125000
G01 X57.412640 Y20.455572 Z-0.125000
G01 X57.427038 Y21.831287 Z-0.125000
G01 X57.283339 Y23.226151 Z-0.125000
G01 X57.118042 Y23.977000 Z-0.125000
G01 X56.843891 Y24.784288 Z-0.125000
G01 X55.762261 Y27.096900 Z-0.125000
G01 X55.213670 Y28.284349 Z-0.125000
G01 X54.765583 Y29.477845 Z-0.125000
G01 X54.424333 Y30.659650 Z-0.125000
G01 X54.195394 Y31.812429 Z-0.125000
G01 X54.059470 Y33.061457 Z-0.125000
G01 X54.033553 Y35.000661 Z-0.125000
G01 X54.061486 Y36.943695 Z-0.125000
G01 X54.190211 Y38.277887 Z-0.125000
G01 X54.479337 Y39.911108 Z-0.125000
G01 X54.862630 Y41.145523 Z-0.125000
G01 X55.349594 Y42.004211 Z-0.125000
G01 X55.950020 Y42.510353 Z-0.125000
G01 X56.388604 Y42.629985 Z-0.125000
G01 X56.808758 Y42.538372 Z-0.125000
G01 X57.205298 Y42.244281 Z-0.125000
G01 X57.572753 Y41.756582 Z-0.125000
G01 X57.906227 Y41.083943 Z-0.125000
G01 X58.199961 Y40.235132 Z-0.125000
G01 X58.448770 Y39.218917 Z-0.125000
G01 X58.647760 Y38.044167 Z-0.125000
G01 X58.815073 Y36.761678 Z-0.125000
G01 X58.835807 Y36.053965 Z-0.125000
G01 X58.673678 Y35.635002 Z-0.125000
G01 X58.292976 Y35.218659 Z-0.125000
G01 X57.611630 Y34.533019 Z-0.125000
G01 X57.514294 Y34.684197 Z-0.125000
G01 X57.413504 Y35.383040 Z-0.125000
G01 X57.278732 Y36.317417 Z-0.125000
G01 X57.103068 Y37.079453 Z-0.125000
G01 X56.896878 Y37.656951 Z-0.125000
G01 X56.670819 Y38.037313 Z-0.125000
G01 X56.435256 Y38.208346 Z-0.125000
G01 X56.199981 Y38.157449 Z-0.125000
G01 X55.975937 Y37.872328 Z-0.125000
G01 X55.773492 Y37.340688 Z-0.125000
G01 X55.637856 Y36.723883 Z-0.125000
G01 X55.550312 Y36.015566 Z-0.125000
G01 X55.515179 Y35.266532 Z-0.125000
G01 X55.536777 Y34.527778 Z-0.125000
G01 X55.650527 Y33.794366 Z-0.125000
G01 X55.887817 Y32.959060 Z-0.125000
G01 X56.236554 Y32.056429 Z-0.125000
G01 X56.685505 Y31.121044 Z-0.125000
G01 X57.689959 Y29.020483 Z-0.125000
G01 X58.062021 Y28.051133 Z-0.125000
G01 X58.357770 Y27.097706 Z-0.125000
G01 X58.584982 Y26.131783 Z-0.125000
G01 X58.751431 Y25.124941 Z-0.125000
G01 X58.864893 Y24.047549 Z-0.125000
G01 X58.933142 Y22.873404 Z-0.125000
G01 X58.954164 Y20.909104 Z-0.125000
G01 X58.863165 Y19.120171 Z-0.125000
G01 X58.667918 Y17.533815 Z-0.125000
G01 X58.375337 Y16.178256 Z-0.125000
G01 X57.993771 Y15.081716 Z-0.125000
G01 X57.530133 Y14.270396 Z-0.125000
G01 X56.992774 Y13.772518 Z-0.125000
G01 X56.388604 Y13.617310 Z-0.125000
G01 X55.695451 Y13.936798 Z-0.125000
G01 X55.695451 Y13.936798 Z-0.125000
G00 Z5.000000

(End cutting path id: path13552)


(Start cutting path id: path13552)
(Change tool to Default tool)

G00 Z5.000000
G00 X62.218926 Y13.902531

G01 Z-0.125000 F100.0(Penetrate)
G01 X61.691933 Y14.503210 Z-0.125000 F400.000000
G01 X61.258532 Y15.398180 Z-0.125000
G01 X60.912100 Y16.602561 Z-0.125000
G01 X60.646876 Y18.135501 Z-0.125000
G01 X60.477835 Y19.400353 Z-0.125000
G01 X60.460556 Y30.836931 Z-0.125000
G01 X60.442990 Y42.273609 Z-0.125000
G01 X61.198346 Y42.273609 Z-0.125000
G01 X61.953702 Y42.273609 Z-0.125000
G01 X61.953702 Y31.672136 Z-0.125000
G01 X61.970692 Y22.287843 Z-0.125000
G01 X62.011009 Y20.844602 Z-0.125000
G01 X62.089337 Y20.135075 Z-0.125000
G01 X62.246283 Y19.310654 Z-0.125000
G01 X62.447001 Y18.756337 Z-0.125000
G01 X62.705890 Y18.443903 Z-0.125000
G01 X63.037924 Y18.346142 Z-0.125000
G01 X63.451742 Y18.528563 Z-0.125000
G01 X63.772833 Y19.073809 Z-0.125000
G01 X63.998317 Y19.972812 Z-0.125000
G01 X64.126466 Y21.222546 Z-0.125000
G01 X64.179741 Y32.207204 Z-0.125000
G01 X64.182332 Y42.273609 Z-0.125000
G01 X64.938264 Y42.273609 Z-0.125000
G01 X65.694196 Y42.273609 Z-0.125000
G01 X65.674326 Y31.153194 Z-0.125000
G01 X65.640345 Y21.747635 Z-0.125000
G01 X65.606652 Y19.893191 Z-0.125000
G01 X65.552225 Y18.968993 Z-0.125000
G01 X65.341428 Y17.344339 Z-0.125000
G01 X65.047694 Y16.018008 Z-0.125000
G01 X64.667281 Y14.975891 Z-0.125000
G01 X64.196443 Y14.204886 Z-0.125000
G01 X63.769090 Y13.864233 Z-0.125000
G01 X63.230866 Y13.689875 Z-0.125000
G01 X62.681124 Y13.697938 Z-0.125000
G01 X62.218926 Y13.902531 Z-0.125000
G01 X62.218926 Y13.902531 Z-0.125000
G00 Z5.000000

(End cutting path id: path13552)


(Start cutting path id: path13552)
(Change tool to Default tool)

G00 Z5.000000
G00 X67.435287 Y28.172679

G01 Z-0.125000 F100.0(Penetrate)
G01 X67.435287 Y42.320777 Z-0.125000 F400.000000
G01 X68.926128 Y42.219387 Z-0.125000
G01 X70.105094 Y42.052185 Z-0.125000
G01 X70.887231 Y41.658720 Z-0.125000
G01 X71.175781 Y41.336813 Z-0.125000
G01 X71.420847 Y40.909888 Z-0.125000
G01 X71.854824 Y39.676682 Z-0.125000
G01 X72.071668 Y38.776068 Z-0.125000
G01 X72.238981 Y37.756728 Z-0.125000
G01 X72.360794 Y36.583994 Z-0.125000
G01 X72.442003 Y35.223094 Z-0.125000
G01 X72.469072 Y33.076575 Z-0.125000
G01 X72.371161 Y31.063193 Z-0.125000
G01 X72.156620 Y29.288974 Z-0.125000
G01 X71.834666 Y27.860044 Z-0.125000
G01 X71.409040 Y26.720569 Z-0.125000
G01 X70.926396 Y25.964278 Z-0.125000
G01 X70.344112 Y25.543803 Z-0.125000
G01 X69.618706 Y25.411170 Z-0.125000
G01 X68.941103 Y25.408147 Z-0.125000
G01 X68.941103 Y19.716818 Z-0.125000
G01 X68.941103 Y14.024481 Z-0.125000
G01 X68.188051 Y14.024481 Z-0.125000
G01 X67.435287 Y14.024481 Z-0.125000
G01 X67.435287 Y28.172679 Z-0.125000
G00 Z5.000000

(End cutting path id: path13552)


(Start cutting path id: path13552)
(Change tool to Default tool)

G00 Z5.000000
G00 X70.403147 Y30.141817

G01 Z-0.125000 F100.0(Penetrate)
G01 X70.599545 Y30.586178 Z-0.125000 F400.000000
G01 X70.753035 Y31.123462 Z-0.125000
G01 X70.892991 Y32.290452 Z-0.125000
G01 X70.941082 Y33.758083 Z-0.125000
G01 X70.896734 Y35.220272 Z-0.125000
G01 X70.759371 Y36.370833 Z-0.125000
G01 X70.604729 Y36.882418 Z-0.125000
G01 X70.385580 Y37.372233 Z-0.125000
G01 X70.059882 Y37.758038 Z-0.125000
G01 X69.530874 Y37.846527 Z-0.125000
G01 X68.941103 Y37.846527 Z-0.125000
G01 X68.941103 Y33.707993 Z-0.125000
G01 X68.941103 Y29.569459 Z-0.125000
G01 X69.558519 Y29.666514 Z-0.125000
G01 X70.080616 Y29.832205 Z-0.125000
G01 X70.403147 Y30.141817 Z-0.125000
G01 X70.403147 Y30.141817 Z-0.125000
G00 Z5.000000

(End cutting path id: path13552)


(Start cutting path id: path13552)
(Change tool to Default tool)

G00 Z5.000000
G00 X73.639687 Y28.149096

G01 Z-0.125000 F100.0(Penetrate)
G01 X73.639687 Y42.273609 Z-0.125000 F400.000000
G01 X74.839962 Y42.273609 Z-0.125000
G01 X76.002801 Y42.177864 Z-0.125000
G01 X76.832166 Y41.841947 Z-0.125000
G01 X77.433168 Y41.193295 Z-0.125000
G01 X77.911493 Y40.159241 Z-0.125000
G01 X78.159151 Y39.287551 Z-0.125000
G01 X78.361308 Y38.198368 Z-0.125000
G01 X78.515086 Y36.942284 Z-0.125000
G01 X78.617605 Y35.569694 Z-0.125000
G01 X78.666561 Y34.131391 Z-0.125000
G01 X78.658785 Y32.677668 Z-0.125000
G01 X78.591688 Y31.259119 Z-0.125000
G01 X78.462963 Y29.926338 Z-0.125000
G01 X78.198315 Y28.471708 Z-0.125000
G01 X77.811566 Y27.224796 Z-0.125000
G01 X77.330649 Y26.257462 Z-0.125000
G01 X76.784075 Y25.641464 Z-0.125000
G01 X75.804963 Y25.408147 Z-0.125000
G01 X75.145503 Y25.408147 Z-0.125000
G01 X75.145503 Y19.716818 Z-0.125000
G01 X75.145503 Y14.024481 Z-0.125000
G01 X74.392451 Y14.024481 Z-0.125000
G01 X73.639687 Y14.024481 Z-0.125000
G01 X73.639687 Y28.149096 Z-0.125000
G00 Z5.000000

(End cutting path id: path13552)


(Start cutting path id: path13552)
(Change tool to Default tool)

G00 Z5.000000
G00 X76.627993 Y30.187271

G01 Z-0.125000 F100.0(Penetrate)
G01 X76.834758 Y30.724959 Z-0.125000 F400.000000
G01 X76.999767 Y31.435291 Z-0.125000
G01 X77.110061 Y32.419860 Z-0.125000
G01 X77.120428 Y33.983842 Z-0.125000
G01 X77.087023 Y35.264214 Z-0.125000
G01 X77.002071 Y36.161100 Z-0.125000
G01 X76.843973 Y36.816505 Z-0.125000
G01 X76.589980 Y37.372233 Z-0.125000
G01 X76.263994 Y37.758038 Z-0.125000
G01 X75.734985 Y37.846527 Z-0.125000
G01 X75.145503 Y37.846527 Z-0.125000
G01 X75.145503 Y33.707993 Z-0.125000
G01 X75.145503 Y29.569459 Z-0.125000
G01 X75.769542 Y29.666615 Z-0.125000
G01 X76.308054 Y29.835531 Z-0.125000
G01 X76.627993 Y30.187271 Z-0.125000
G01 X76.627993 Y30.187271 Z-0.125000
G00 Z5.000000

(End cutting path id: path13552)


(Start cutting path id: path13552)
(Change tool to Default tool)

G00 Z5.000000
G00 X80.024646 Y28.149096

G01 Z-0.125000 F100.0(Penetrate)
G01 X80.024646 Y42.273609 Z-0.125000 F400.000000
G01 X80.777410 Y42.273609 Z-0.125000
G01 X81.530462 Y42.273609 Z-0.125000
G01 X81.530462 Y30.468058 Z-0.125000
G01 X81.530462 Y18.662607 Z-0.125000
G01 X82.795532 Y18.662607 Z-0.125000
G01 X84.060314 Y18.662607 Z-0.125000
G01 X84.060314 Y16.343544 Z-0.125000
G01 X84.060314 Y14.024481 Z-0.125000
G01 X82.042480 Y14.024481 Z-0.125000
G01 X80.024646 Y14.024481 Z-0.125000
G01 X80.024646 Y28.149096 Z-0.125000
G00 Z5.000000

(End cutting path id: path13552)


(Start cutting path id: path13552)
(Change tool to Default tool)

G00 Z5.000000
G00 X85.746977 Y19.753100

G01 Z-0.125000 F100.0(Penetrate)
G01 X85.746977 Y25.481720 Z-0.125000 F400.000000
G01 X84.686081 Y33.614162 Z-0.125000
G01 X83.595524 Y42.010157 Z-0.125000
G01 X83.619714 Y42.136844 Z-0.125000
G01 X83.742390 Y42.217976 Z-0.125000
G01 X84.372190 Y42.273609 Z-0.125000
G01 X85.179093 Y42.273609 Z-0.125000
G01 X85.839129 Y36.667746 Z-0.125000
G01 X86.538906 Y30.975913 Z-0.125000
G01 X87.228316 Y36.581776 Z-0.125000
G01 X87.877985 Y42.273609 Z-0.125000
G01 X88.679993 Y42.273609 Z-0.125000
G01 X89.481712 Y42.188043 Z-0.125000
G01 X88.367253 Y33.647220 Z-0.125000
G01 X87.253081 Y25.192467 Z-0.125000
G01 X87.253081 Y19.607970 Z-0.125000
G01 X87.253081 Y14.024481 Z-0.125000
G01 X86.500029 Y14.024481 Z-0.125000
G01 X85.746977 Y14.024481 Z-0.125000
G01 X85.746977 Y19.753100 Z-0.125000
G00 Z5.000000

(End cutting path id: path13552)


(Footer)
M5
G00 X0.0000 Y0.0000
M2
(Using default footer. To add your own footer create file "footer" in the output dir.)
(end)
%