%
(Header)
(Generated by gcodetools from Inkscape.)
(Using default header. To add your own header create file "header" in the output dir.)
M3
(Header end.)
G21 (All units in mm)

(Start cutting path id: path13545)
(Change tool to Default tool)

G00 Z5.000000
G00 X19.271923 Y13.987190

G01 Z-0.125000 F100.0(Penetrate)
G01 X18.837370 Y14.576783 Z-0.125000 F400.000000
G01 X18.480282 Y15.377016 Z-0.125000
G01 X18.191157 Y16.413085 Z-0.125000
G01 X17.960777 Y17.714220 Z-0.125000
G01 X17.804983 Y19.092959 Z-0.125000
G01 X17.719743 Y20.935308 Z-0.125000
G01 X17.687778 Y23.959866 Z-0.125000
G01 X17.691810 Y28.886943 Z-0.125000
G01 X17.727806 Y35.575741 Z-0.125000
G01 X17.770427 Y36.827692 Z-0.125000
G01 X17.846164 Y37.645865 Z-0.125000
G01 X18.008581 Y38.823235 Z-0.125000
G01 X18.205843 Y39.833705 Z-0.125000
G01 X18.439678 Y40.680602 Z-0.125000
G01 X18.711526 Y41.366847 Z-0.125000
G01 X19.023113 Y41.895666 Z-0.125000
G01 X19.375594 Y42.270183 Z-0.125000
G01 X19.770694 Y42.493623 Z-0.125000
G01 X20.210142 Y42.569010 Z-0.125000
G01 X20.884001 Y42.377317 Z-0.125000
G01 X21.460237 Y41.803649 Z-0.125000
G01 X21.929347 Y40.861914 Z-0.125000
G01 X22.281827 Y39.565819 Z-0.125000
G01 X22.476498 Y38.418180 Z-0.125000
G01 X22.607814 Y37.205434 Z-0.125000
G01 X22.687295 Y35.781241 Z-0.125000
G01 X22.726459 Y33.999161 Z-0.125000
G01 X22.754968 Y31.522168 Z-0.125000
G01 X22.002780 Y31.522168 Z-0.125000
G01 X21.250592 Y31.522168 Z-0.125000
G01 X21.221219 Y33.478707 Z-0.125000
G01 X21.147786 Y35.575136 Z-0.125000
G01 X21.077232 Y36.316410 Z-0.125000
G01 X20.977881 Y36.879294 Z-0.125000
G01 X20.845413 Y37.283240 Z-0.125000
G01 X20.674644 Y37.548103 Z-0.125000
G01 X20.199775 Y37.738385 Z-0.125000
G01 X19.794596 Y37.654431 Z-0.125000
G01 X19.567096 Y37.300575 Z-0.125000
G01 X19.365515 Y36.638619 Z-0.125000
G01 X19.261268 Y35.439580 Z-0.125000
G01 X19.222103 Y32.856864 Z-0.125000
G01 X19.216056 Y28.043674 Z-0.125000
G01 X19.223255 Y23.130406 Z-0.125000
G01 X19.269043 Y20.499917 Z-0.125000
G01 X19.317999 Y19.778297 Z-0.125000
G01 X19.390280 Y19.312670 Z-0.125000
G01 X19.623827 Y18.729125 Z-0.125000
G01 X19.860542 Y18.470107 Z-0.125000
G01 X20.168098 Y18.364283 Z-0.125000
G01 X20.481702 Y18.417699 Z-0.125000
G01 X20.736559 Y18.634387 Z-0.125000
G01 X20.952539 Y19.119163 Z-0.125000
G01 X21.098254 Y19.883113 Z-0.125000
G01 X21.185222 Y21.016944 Z-0.125000
G01 X21.224963 Y22.614386 Z-0.125000
G01 X21.247713 Y24.776225 Z-0.125000
G01 X21.993853 Y24.776225 Z-0.125000
G01 X22.739994 Y24.776225 Z-0.125000
G01 X22.739418 Y22.720211 Z-0.125000
G01 X22.717244 Y21.144941 Z-0.125000
G01 X22.651586 Y19.710771 Z-0.125000
G01 X22.543020 Y18.421730 Z-0.125000
G01 X22.391545 Y17.279836 Z-0.125000
G01 X22.198027 Y16.286096 Z-0.125000
G01 X21.962464 Y15.442526 Z-0.125000
G01 X21.685433 Y14.752149 Z-0.125000
G01 X21.366934 Y14.215972 Z-0.125000
G01 X20.909631 Y13.829966 Z-0.125000
G01 X20.334547 Y13.654600 Z-0.125000
G01 X19.751976 Y13.702977 Z-0.125000
G01 X19.271923 Y13.987190 Z-0.125000
G01 X19.271923 Y13.987190 Z-0.125000
G00 Z5.000000

(End cutting path id: path13545)


(Start cutting path id: path13545)
(Change tool to Default tool)

G00 Z5.000000
G00 X28.358079 Y13.858186

G01 Z-0.125000 F100.0(Penetrate)
G01 X28.257000 Y14.150462 Z-0.125000 F400.000000
G01 X28.100054 Y15.067606 Z-0.125000
G01 X27.272417 Y21.086486 Z-0.125000
G01 X26.695605 Y24.934457 Z-0.125000
G01 X26.525700 Y25.320464 Z-0.125000
G01 X26.193090 Y25.408147 Z-0.125000
G01 X25.812100 Y25.408147 Z-0.125000
G01 X25.812100 Y19.716818 Z-0.125000
G01 X25.812100 Y14.024481 Z-0.125000
G01 X25.029099 Y14.024481 Z-0.125000
G01 X24.245810 Y14.024481 Z-0.125000
G01 X24.245810 Y28.043674 Z-0.125000
G01 X24.245810 Y42.062868 Z-0.125000
G01 X25.709006 Y42.062868 Z-0.125000
G01 X26.936063 Y41.994032 Z-0.125000
G01 X27.526698 Y41.739650 Z-0.125000
G01 X28.054266 Y41.060561 Z-0.125000
G01 X28.491411 Y40.074985 Z-0.125000
G01 X28.832660 Y38.798039 Z-0.125000
G01 X29.073118 Y37.245143 Z-0.125000
G01 X29.175925 Y35.754231 Z-0.125000
G01 X29.216817 Y33.904524 Z-0.125000
G01 X29.194067 Y32.047862 Z-0.125000
G01 X29.105947 Y30.535987 Z-0.125000
G01 X28.974919 Y29.477039 Z-0.125000
G01 X28.807030 Y28.555360 Z-0.125000
G01 X28.606312 Y27.789696 Z-0.125000
G01 X28.376509 Y27.198491 Z-0.125000
G01 X28.104949 Y26.641251 Z-0.125000
G01 X28.230506 Y26.182982 Z-0.125000
G01 X29.167862 Y19.928466 Z-0.125000
G01 X30.028616 Y13.698945 Z-0.125000
G01 X29.785566 Y13.608239 Z-0.125000
G01 X29.241295 Y13.622349 Z-0.125000
G01 X28.358079 Y13.858186 Z-0.125000
G01 X28.358079 Y13.858186 Z-0.125000
G00 Z5.000000

(End cutting path id: path13545)


(Start cutting path id: path13545)
(Change tool to Default tool)

G00 Z5.000000
G00 X32.331544 Y13.929743

G01 Z-0.125000 F100.0(Penetrate)
G01 X31.862147 Y14.507241 Z-0.125000 F400.000000
G01 X31.491812 Y15.286309 Z-0.125000
G01 X31.199518 Y16.323387 Z-0.125000
G01 X30.964820 Y17.674914 Z-0.125000
G01 X30.798083 Y19.147382 Z-0.125000
G01 X30.692972 Y20.559380 Z-0.125000
G01 X30.640849 Y23.670613 Z-0.125000
G01 X30.630482 Y28.478662 Z-0.125000
G01 X30.658703 Y33.200541 Z-0.125000
G01 X30.722057 Y36.050942 Z-0.125000
G01 X30.829184 Y37.426959 Z-0.125000
G01 X30.973747 Y38.630332 Z-0.125000
G01 X31.157762 Y39.665898 Z-0.125000
G01 X31.382382 Y40.538596 Z-0.125000
G01 X31.649334 Y41.253464 Z-0.125000
G01 X31.960346 Y41.815441 Z-0.125000
G01 X32.316569 Y42.229466 Z-0.125000
G01 X32.719733 Y42.500476 Z-0.125000
G01 X33.424693 Y42.589873 Z-0.125000
G01 X34.083866 Y42.213239 Z-0.125000
G01 X34.654630 Y41.411797 Z-0.125000
G01 X34.893073 Y40.864635 Z-0.125000
G01 X35.093791 Y40.226565 Z-0.125000
G01 X35.292781 Y39.395391 Z-0.125000
G01 X35.448575 Y38.527229 Z-0.125000
G01 X35.565780 Y37.525830 Z-0.125000
G01 X35.649293 Y36.295043 Z-0.125000
G01 X35.733093 Y32.760312 Z-0.125000
G01 X35.738277 Y27.153441 Z-0.125000
G01 X35.699976 Y21.034078 Z-0.125000
G01 X35.655628 Y19.782328 Z-0.125000
G01 X35.577587 Y18.851075 Z-0.125000
G01 X35.422945 Y17.591262 Z-0.125000
G01 X35.227699 Y16.509839 Z-0.125000
G01 X34.990408 Y15.603782 Z-0.125000
G01 X34.709921 Y14.871075 Z-0.125000
G01 X34.385663 Y14.307687 Z-0.125000
G01 X34.015904 Y13.913617 Z-0.125000
G01 X33.599494 Y13.683828 Z-0.125000
G01 X33.135856 Y13.617310 Z-0.125000
G01 X32.331544 Y13.929743 Z-0.125000
G01 X32.331544 Y13.929743 Z-0.125000
G00 Z5.000000

(End cutting path id: path13545)


(Start cutting path id: path13545)
(Change tool to Default tool)

G00 Z5.000000
G00 X33.690493 Y18.660591

G01 Z-0.125000 F100.0(Penetrate)
G01 X33.920873 Y19.183665 Z-0.125000 F400.000000
G01 X34.069755 Y20.027236 Z-0.125000
G01 X34.136565 Y20.728699 Z-0.125000
G01 X34.170546 Y21.919978 Z-0.125000
G01 X34.172562 Y28.450644 Z-0.125000
G01 X34.139733 Y34.956820 Z-0.125000
G01 X34.100280 Y36.021311 Z-0.125000
G01 X34.030015 Y36.513847 Z-0.125000
G01 X33.858958 Y37.148793 Z-0.125000
G01 X33.653921 Y37.562415 Z-0.125000
G01 X33.403383 Y37.769628 Z-0.125000
G01 X33.096979 Y37.785452 Z-0.125000
G01 X32.795470 Y37.648283 Z-0.125000
G01 X32.572002 Y37.364574 Z-0.125000
G01 X32.406129 Y36.895016 Z-0.125000
G01 X32.277693 Y36.200406 Z-0.125000
G01 X32.217794 Y35.573423 Z-0.125000
G01 X32.184389 Y34.381640 Z-0.125000
G01 X32.166823 Y28.043674 Z-0.125000
G01 X32.172582 Y23.433769 Z-0.125000
G01 X32.208291 Y20.936316 Z-0.125000
G01 X32.303035 Y19.735967 Z-0.125000
G01 X32.485610 Y19.018378 Z-0.125000
G01 X32.728372 Y18.523523 Z-0.125000
G01 X33.036792 Y18.290710 Z-0.125000
G01 X33.370554 Y18.332032 Z-0.125000
G01 X33.690493 Y18.660591 Z-0.125000
G01 X33.690493 Y18.660591 Z-0.125000
G00 Z5.000000

(End cutting path id: path13545)


(Start cutting path id: path13545)
(Change tool to Default tool)

G00 Z5.000000
G00 X38.169641 Y15.026284

G01 Z-0.125000 F100.0(Penetrate)
G01 X37.348051 Y28.781521 Z-0.125000 F400.000000
G01 X36.556699 Y41.904736 Z-0.125000
G01 X36.560154 Y42.104391 Z-0.125000
G01 X36.643667 Y42.215456 Z-0.125000
G01 X37.241789 Y42.273609 Z-0.125000
G01 X37.957980 Y42.273609 Z-0.125000
G01 X38.494764 Y33.103182 Z-0.125000
G01 X39.064088 Y23.932654 Z-0.125000
G01 X39.631973 Y32.839730 Z-0.125000
G01 X40.194386 Y42.010157 Z-0.125000
G01 X40.381857 Y42.213441 Z-0.125000
G01 X40.952910 Y42.273307 Z-0.125000
G01 X41.684364 Y42.273005 Z-0.125000
G01 X42.219419 Y33.366433 Z-0.125000
G01 X42.795367 Y24.068714 Z-0.125000
G01 X42.851522 Y24.593804 Z-0.125000
G01 X42.975063 Y26.384350 Z-0.125000
G01 X43.374483 Y32.975185 Z-0.125000
G01 X43.912994 Y42.273005 Z-0.125000
G01 X44.620835 Y42.273307 Z-0.125000
G01 X45.328387 Y42.115478 Z-0.125000
G01 X43.611774 Y14.499178 Z-0.125000
G01 X43.578657 Y14.231090 Z-0.125000
G01 X43.482473 Y14.088983 Z-0.125000
G01 X42.835972 Y14.024481 Z-0.125000
G01 X42.092423 Y14.024481 Z-0.125000
G01 X41.969170 Y16.079487 Z-0.125000
G01 X41.408197 Y25.676839 Z-0.125000
G01 X41.086818 Y30.955051 Z-0.125000
G01 X40.929584 Y33.055309 Z-0.125000
G01 X40.298057 Y23.458965 Z-0.125000
G01 X39.707134 Y14.024481 Z-0.125000
G01 X38.968769 Y14.024481 Z-0.125000
G01 X38.230692 Y14.024481 Z-0.125000
G01 X38.169641 Y15.026284 Z-0.125000
G00 Z5.000000

(End cutting path id: path13545)


(Start cutting path id: path13545)
(Change tool to Default tool)

G00 Z5.000000
G00 X46.473083 Y19.927458

G01 Z-0.125000 F100.0(Penetrate)
G01 X46.473083 Y25.830133 Z-0.125000 F400.000000
G01 X47.254645 Y25.830133 Z-0.125000
G01 X48.036494 Y25.830133 Z-0.125000
G01 X48.052909 Y22.249545 Z-0.125000
G01 X48.069323 Y18.669662 Z-0.125000
G01 X49.745332 Y22.375526 Z-0.125000
G01 X51.457913 Y25.951479 Z-0.125000
G01 X51.425084 Y23.230183 Z-0.125000
G01 X51.299816 Y20.425336 Z-0.125000
G01 X51.084699 Y18.238302 Z-0.125000
G01 X50.767064 Y16.578373 Z-0.125000
G01 X50.334239 Y15.353835 Z-0.125000
G01 X49.939426 Y14.682607 Z-0.125000
G01 X49.465709 Y14.277451 Z-0.125000
G01 X48.800489 Y14.077897 Z-0.125000
G01 X47.831457 Y14.024481 Z-0.125000
G01 X46.473083 Y14.024481 Z-0.125000
G01 X46.473083 Y19.927458 Z-0.125000
G00 Z5.000000

(End cutting path id: path13545)


(Start cutting path id: path13545)
(Change tool to Default tool)

G00 Z5.000000
G00 X49.736117 Y34.374383

G01 Z-0.125000 F100.0(Penetrate)
G01 X48.064716 Y38.057370 Z-0.125000 F400.000000
G01 X48.039086 Y34.473556 Z-0.125000
G01 X48.039086 Y30.889742 Z-0.125000
G01 X47.256085 Y30.889742 Z-0.125000
G01 X46.473083 Y30.889742 Z-0.125000
G01 X46.473083 Y36.476255 Z-0.125000
G01 X46.473083 Y42.062868 Z-0.125000
G01 X47.855647 Y42.062868 Z-0.125000
G01 X48.933245 Y41.995443 Z-0.125000
G01 X49.557285 Y41.827636 Z-0.125000
G01 X49.903142 Y41.490409 Z-0.125000
G01 X50.214154 Y41.014502 Z-0.125000
G01 X50.490321 Y40.399915 Z-0.125000
G01 X50.731355 Y39.646648 Z-0.125000
G01 X50.937832 Y38.755003 Z-0.125000
G01 X51.109177 Y37.724981 Z-0.125000
G01 X51.245676 Y36.556782 Z-0.125000
G01 X51.347043 Y35.250306 Z-0.125000
G01 X51.442075 Y32.459166 Z-0.125000
G01 X51.432860 Y30.685148 Z-0.125000
G01 X49.736405 Y34.374383 Z-0.125000
G01 X49.736117 Y34.374383 Z-0.125000
G00 Z5.000000

(End cutting path id: path13545)


(Start cutting path id: path13545)
(Change tool to Default tool)

G00 Z5.000000
G00 X27.199559 Y30.382189

G01 Z-0.125000 F100.0(Penetrate)
G01 X27.425907 Y30.949004 Z-0.125000 F400.000000
G01 X27.562982 Y31.613479 Z-0.125000
G01 X27.630944 Y32.526994 Z-0.125000
G01 X27.649375 Y33.841130 Z-0.125000
G01 X27.625761 Y35.472436 Z-0.125000
G01 X27.522378 Y36.302703 Z-0.125000
G01 X27.346426 Y36.963953 Z-0.125000
G01 X27.129869 Y37.396522 Z-0.125000
G01 X26.832680 Y37.654532 Z-0.125000
G01 X26.414254 Y37.791801 Z-0.125000
G01 X25.812100 Y37.907906 Z-0.125000
G01 X25.812100 Y33.843549 Z-0.125000
G01 X25.812100 Y29.779293 Z-0.125000
G01 X26.407631 Y29.879675 Z-0.125000
G01 X26.913601 Y30.047683 Z-0.125000
G01 X27.199559 Y30.382189 Z-0.125000
G01 X27.199559 Y30.382189 Z-0.125000
G00 Z5.000000

(End cutting path id: path13545)


(Start cutting path id: path13544)
(Change tool to Default tool)

G00 Z5.000000
G00 X5.719041 Y18.202446

G01 Z-0.125000 F100.0(Penetrate)
G01 X6.022162 Y18.395954 Z-0.125000 F400.000000
G01 X6.288596 Y18.718466 Z-0.125000
G01 X6.518572 Y19.170990 Z-0.125000
G01 X6.712292 Y19.754535 Z-0.125000
G01 X6.869986 Y20.471117 Z-0.125000
G01 X6.991943 Y21.319727 Z-0.125000
G01 X7.129480 Y23.419078 Z-0.125000
G01 X7.142438 Y24.781087 Z-0.125000
G01 X7.142438 Y25.684221 Z-0.125000
G01 X6.625007 Y25.684221 Z-0.125000
G01 X6.107604 Y25.684221 Z-0.125000
G01 X6.101412 Y24.477321 Z-0.125000
G01 X6.063688 Y22.804290 Z-0.125000
G01 X5.932055 Y21.961727 Z-0.125000
G01 X5.730704 Y21.502147 Z-0.125000
G01 X5.428014 Y21.369111 Z-0.125000
G01 X5.134367 Y21.506179 Z-0.125000
G01 X4.936615 Y21.961727 Z-0.125000
G01 X4.792772 Y22.960506 Z-0.125000
G01 X4.770109 Y27.854021 Z-0.125000
G01 X4.792772 Y32.747032 Z-0.125000
G01 X4.936615 Y33.746416 Z-0.125000
G01 X5.134367 Y34.201561 Z-0.125000
G01 X5.428014 Y34.338528 Z-0.125000
G01 X5.730704 Y34.205593 Z-0.125000
G01 X5.932055 Y33.746517 Z-0.125000
G01 X6.063170 Y32.909296 Z-0.125000
G01 X6.101412 Y31.274664 Z-0.125000
G01 X6.107662 Y30.112311 Z-0.125000
G01 X6.625064 Y30.112311 Z-0.125000
G01 X7.142438 Y30.112311 Z-0.125000
G01 X7.142438 Y30.971100 Z-0.125000
G01 X7.129480 Y32.288460 Z-0.125000
G01 X7.070359 Y33.518945 Z-0.125000
G01 X6.967350 Y34.586459 Z-0.125000
G01 X6.820599 Y35.490702 Z-0.125000
G01 X6.630190 Y36.231371 Z-0.125000
G01 X6.396240 Y36.808164 Z-0.125000
G01 X6.118864 Y37.220475 Z-0.125000
G01 X5.798205 Y37.468205 Z-0.125000
G01 X5.434350 Y37.550848 Z-0.125000
G01 X5.070494 Y37.468205 Z-0.125000
G01 X4.749835 Y37.220475 Z-0.125000
G01 X4.472459 Y36.808164 Z-0.125000
G01 X4.238509 Y36.231371 Z-0.125000
G01 X4.048100 Y35.490702 Z-0.125000
G01 X3.901349 Y34.586459 Z-0.125000
G01 X3.798340 Y33.518945 Z-0.125000
G01 X3.739248 Y32.288460 Z-0.125000
G01 X3.739248 Y23.419078 Z-0.125000
G01 X3.864661 Y21.439661 Z-0.125000
G01 X3.974264 Y20.622294 Z-0.125000
G01 X4.114939 Y19.920831 Z-0.125000
G01 X4.286456 Y19.336278 Z-0.125000
G01 X4.488672 Y18.869643 Z-0.125000
G01 X4.984419 Y18.290129 Z-0.125000
G01 X5.174971 Y18.187329 Z-0.125000
G01 X5.719041 Y18.202446 Z-0.125000
G01 X5.719041 Y18.202446 Z-0.125000
G00 Z5.000000

(End cutting path id: path13544)


(Start cutting path id: path13544)
(Change tool to Default tool)

G00 Z5.000000
G00 X4.289307 Y14.082356

G01 Z-0.125000 F100.0(Penetrate)
G01 X0.480909 Y27.411172 Z-0.125000 F400.000000
G01 X4.292475 Y40.750873 Z-0.125000
G01 X8.104041 Y54.090574 Z-0.125000
G01 X8.104041 Y27.422258 Z-0.125000
G01 X8.100874 Y0.753539 Z-0.125000
G01 X4.289307 Y14.082356 Z-0.125000
G01 X4.289307 Y14.082356 Z-0.125000
G00 Z5.000000

(End cutting path id: path13544)


(Footer)
M5
G00 X0.0000 Y0.0000
M2
(Using default footer. To add your own footer create file "footer" in the output dir.)
(end)
%