%
(Header)
(Generated by gcodetools from Inkscape.)
(Using default header. To add your own header create file "header" in the output dir.)
M3
(Header end.)
G21 (All units in mm)

(Start cutting path id: path21)
(Change tool to Default tool)

G00 Z5.000000
G00 X21.611856 Y5.214150

G01 Z-0.125000 F100.0(Penetrate)
G01 X20.991252 Y5.649612 Z-0.125000 F400.000000
G01 X20.320741 Y6.386061 Z-0.125000
G01 X19.672160 Y7.332006 Z-0.125000
G01 X19.117280 Y8.395855 Z-0.125000
G01 X18.931210 Y8.901617 Z-0.125000
G01 X18.875310 Y9.234240 Z-0.125000
G01 X18.884310 Y9.344109 Z-0.125000
G01 X18.853210 Y9.314379 Z-0.125000
G01 X18.756310 Y9.360379 Z-0.125000
G01 X18.583040 Y9.746229 Z-0.125000
G01 X18.016850 Y11.512782 Z-0.125000
G01 X17.431450 Y13.734281 Z-0.125000
G01 X16.965670 Y16.238288 Z-0.125000
G01 X16.570760 Y18.866626 Z-0.125000
G01 X16.494760 Y19.630894 Z-0.125000
G01 X16.492760 Y20.083027 Z-0.125000
G01 X16.503360 Y20.285895 Z-0.125000
G01 X16.477660 Y20.304775 Z-0.125000
G01 X16.426060 Y20.370055 Z-0.125000
G01 X16.366360 Y20.793565 Z-0.125000
G01 X16.212080 Y22.815210 Z-0.125000
G01 X16.139680 Y24.954858 Z-0.125000
G01 X16.113380 Y27.845217 Z-0.125000
G01 X16.133980 Y30.650813 Z-0.125000
G01 X16.202380 Y32.536074 Z-0.125000
G01 X16.568400 Y36.589808 Z-0.125000
G01 X16.648500 Y37.271121 Z-0.125000
G01 X16.984140 Y39.453552 Z-0.125000
G01 X17.379450 Y41.521896 Z-0.125000
G01 X17.944320 Y43.675103 Z-0.125000
G01 X18.672680 Y45.980059 Z-0.125000
G01 X19.390240 Y47.707565 Z-0.125000
G01 X20.158735 Y48.982115 Z-0.125000
G01 X21.039892 Y49.928401 Z-0.125000
G01 X21.671260 Y50.230071 Z-0.125000
G01 X22.508707 Y50.346740 Z-0.125000
G01 X23.336217 Y50.272864 Z-0.125000
G01 X23.937693 Y50.002869 Z-0.125000
G01 X24.560953 Y49.323575 Z-0.125000
G01 X25.219501 Y48.411244 Z-0.125000
G01 X25.795424 Y47.445344 Z-0.125000
G01 X26.170778 Y46.605332 Z-0.125000
G01 X26.398384 Y45.908553 Z-0.125000
G01 X26.565405 Y45.544797 Z-0.125000
G01 X26.759692 Y45.022665 Z-0.125000
G01 X27.081457 Y43.855876 Z-0.125000
G01 X27.375528 Y42.643894 Z-0.125000
G01 X27.487161 Y41.986182 Z-0.125000
G01 X27.472891 Y41.845480 Z-0.125000
G01 X27.504581 Y41.871690 Z-0.125000
G01 X27.597651 Y41.706785 Z-0.125000
G01 X27.735265 Y41.124395 Z-0.125000
G01 X27.949965 Y40.174734 Z-0.125000
G01 X28.275442 Y38.034885 Z-0.125000
G01 X28.663445 Y34.736682 Z-0.125000
G01 X28.902415 Y31.213919 Z-0.125000
G01 X28.997485 Y27.685231 Z-0.125000
G01 X28.928965 Y24.954053 Z-0.125000
G01 X28.765369 Y21.970496 Z-0.125000
G01 X28.568655 Y19.636616 Z-0.125000
G01 X28.476725 Y18.995073 Z-0.125000
G01 X28.399065 Y18.854271 Z-0.125000
G01 X28.373375 Y18.846471 Z-0.125000
G01 X28.380775 Y18.676645 Z-0.125000
G01 X28.235167 Y17.148310 Z-0.125000
G01 X28.000195 Y15.614753 Z-0.125000
G01 X27.639316 Y13.868988 Z-0.125000
G01 X27.414051 Y12.871623 Z-0.125000
G01 X26.907564 Y11.136002 Z-0.125000
G01 X26.374267 Y9.488558 Z-0.125000
G01 X26.067748 Y8.755724 Z-0.125000
G01 X25.930334 Y8.474823 Z-0.125000
G01 X25.367915 Y7.352625 Z-0.125000
G01 X24.625742 Y6.294199 Z-0.125000
G01 X24.034859 Y5.638797 Z-0.125000
G01 X23.565173 Y5.324754 Z-0.125000
G01 X22.908652 Y5.132432 Z-0.125000
G01 X22.209590 Y5.087142 Z-0.125000
G01 X21.612226 Y5.214185 Z-0.125000
G01 X21.612226 Y5.214185 Z-0.125000
G00 Z5.000000

(End cutting path id: path21)


(Start cutting path id: path21)
(Change tool to Default tool)

G00 Z5.000000
G00 X20.903172 Y16.626884

G01 Z-0.125000 F100.0(Penetrate)
G01 X21.387761 Y17.158457 Z-0.125000 F400.000000
G01 X21.606430 Y17.482442 Z-0.125000
G01 X21.624100 Y20.716571 Z-0.125000
G01 X21.620800 Y23.085801 Z-0.125000
G01 X21.585680 Y24.147541 Z-0.125000
G01 X20.927816 Y24.344383 Z-0.125000
G01 X20.406625 Y24.277803 Z-0.125000
G01 X20.323655 Y24.138006 Z-0.125000
G01 X20.290475 Y23.876688 Z-0.125000
G01 X20.254875 Y20.141618 Z-0.125000
G01 X20.291135 Y16.547851 Z-0.125000
G01 X20.324225 Y16.345687 Z-0.125000
G01 X20.400795 Y16.286837 Z-0.125000
G01 X20.903114 Y16.626891 Z-0.125000
G01 X20.903200 Y16.626891 Z-0.125000
G00 Z5.000000

(End cutting path id: path21)


(Start cutting path id: path21)
(Change tool to Default tool)

G00 Z5.000000
G00 X24.123508 Y19.771738

G01 Z-0.125000 F100.0(Penetrate)
G01 X24.573837 Y20.187415 Z-0.125000 F400.000000
G01 X24.675905 Y20.312952 Z-0.125000
G01 X24.747995 Y20.618458 Z-0.125000
G01 X24.774745 Y20.997580 Z-0.125000
G01 X24.740795 Y21.343860 Z-0.125000
G01 X24.563438 Y21.575651 Z-0.125000
G01 X24.121075 Y21.642331 Z-0.125000
G01 X23.701524 Y21.619031 Z-0.125000
G01 X23.482284 Y21.474412 Z-0.125000
G01 X23.398404 Y21.096396 Z-0.125000
G01 X23.384904 Y20.373003 Z-0.125000
G01 X23.409774 Y19.484002 Z-0.125000
G01 X23.468444 Y19.372224 Z-0.125000
G01 X23.582447 Y19.356054 Z-0.125000
G01 X24.123509 Y19.771731 Z-0.125000
G01 X24.123509 Y19.771731 Z-0.125000
G00 Z5.000000

(End cutting path id: path21)


(Start cutting path id: path21)
(Change tool to Default tool)

G00 Z5.000000
G00 X23.962084 Y22.913766

G01 Z-0.125000 F100.0(Penetrate)
G01 X24.596193 Y23.512928 Z-0.125000 F400.000000
G01 X25.246176 Y24.138101 Z-0.125000
G01 X25.978470 Y24.785268 Z-0.125000
G01 X26.296067 Y25.162883 Z-0.125000
G01 X26.365617 Y25.388447 Z-0.125000
G01 X26.364703 Y25.615016 Z-0.125000
G01 X25.567656 Y25.799304 Z-0.125000
G01 X24.803014 Y25.799304 Z-0.125000
G01 X24.803014 Y27.524481 Z-0.125000
G01 X24.783974 Y28.853262 Z-0.125000
G01 X24.732094 Y29.499023 Z-0.125000
G01 X24.337696 Y29.691547 Z-0.125000
G01 X23.172603 Y29.748387 Z-0.125000
G01 X22.216243 Y29.755987 Z-0.125000
G01 X21.759062 Y29.924809 Z-0.125000
G01 X21.660622 Y30.138322 Z-0.125000
G01 X21.618542 Y30.474359 Z-0.125000
G01 X21.612242 Y31.623774 Z-0.125000
G01 X21.561822 Y32.951250 Z-0.125000
G01 X21.340241 Y32.874720 Z-0.125000
G01 X18.960840 Y30.581013 Z-0.125000
G01 X18.705370 Y30.193155 Z-0.125000
G01 X18.665670 Y29.972812 Z-0.125000
G01 X18.691370 Y29.755182 Z-0.125000
G01 X19.486100 Y29.495371 Z-0.125000
G01 X20.223675 Y29.436621 Z-0.125000
G01 X20.253225 Y27.669866 Z-0.125000
G01 X20.282775 Y25.903212 Z-0.125000
G01 X21.819054 Y25.799268 Z-0.125000
G01 X23.355362 Y25.695324 Z-0.125000
G01 X23.371522 Y24.344347 Z-0.125000
G01 X23.406582 Y22.892841 Z-0.125000
G01 X23.472762 Y22.473749 Z-0.125000
G01 X23.962091 Y22.913730 Z-0.125000
G01 X23.962091 Y22.913730 Z-0.125000
G00 Z5.000000

(End cutting path id: path21)


(Start cutting path id: path21)
(Change tool to Default tool)

G00 Z5.000000
G00 X24.745634 Y31.422311

G01 Z-0.125000 F100.0(Penetrate)
G01 X24.782494 Y32.789356 Z-0.125000 F400.000000
G01 X24.792824 Y35.383047 Z-0.125000
G01 X24.777774 Y37.938373 Z-0.125000
G01 X24.738514 Y39.190326 Z-0.125000
G01 X24.270113 Y38.923686 Z-0.125000
G01 X23.606454 Y38.205515 Z-0.125000
G01 X23.384872 Y37.875705 Z-0.125000
G01 X23.384872 Y34.574088 Z-0.125000
G01 X23.424272 Y31.134079 Z-0.125000
G01 X24.072171 Y30.995486 Z-0.125000
G01 X24.594219 Y31.063376 Z-0.125000
G01 X24.693289 Y31.191826 Z-0.125000
G01 X24.745589 Y31.422311 Z-0.125000
G01 X24.745618 Y31.422311 Z-0.125000
G00 Z5.000000

(End cutting path id: path21)


(Start cutting path id: path21)
(Change tool to Default tool)

G00 Z5.000000
G00 X21.600626 Y35.021802

G01 Z-0.125000 F100.0(Penetrate)
G01 X21.618556 Y36.242120 Z-0.125000 F400.000000
G01 X21.393834 Y36.102824 Z-0.125000
G01 X20.903192 Y35.680318 Z-0.125000
G01 X20.481842 Y35.277094 Z-0.125000
G01 X20.365555 Y35.079348 Z-0.125000
G01 X20.300435 Y34.750944 Z-0.125000
G01 X20.293935 Y34.365898 Z-0.125000
G01 X20.353435 Y33.998326 Z-0.125000
G01 X20.541840 Y33.760007 Z-0.125000
G01 X21.012925 Y33.742227 Z-0.125000
G01 X21.582738 Y33.801377 Z-0.125000
G01 X21.600668 Y35.021795 Z-0.125000
G00 Z5.000000

(End cutting path id: path21)


(Start cutting path id: path21)
(Change tool to Default tool)

G00 Z5.000000
G00 X32.897683 Y27.773812

G01 Z-0.125000 F100.0(Penetrate)
G01 X32.897683 Y38.685870 Z-0.125000 F400.000000
G01 X33.370481 Y38.685870 Z-0.125000
G01 X33.842993 Y38.685870 Z-0.125000
G01 X33.842993 Y34.528895 Z-0.125000
G01 X33.872973 Y30.874068 Z-0.125000
G01 X33.918373 Y30.379754 Z-0.125000
G01 X33.991463 Y30.582722 Z-0.125000
G01 X34.275542 Y31.252687 Z-0.125000
G01 X34.583888 Y31.625883 Z-0.125000
G01 X35.093517 Y31.717373 Z-0.125000
G01 X35.618277 Y31.631703 Z-0.125000
G01 X35.916630 Y31.099427 Z-0.125000
G01 X36.151602 Y30.323208 Z-0.125000
G01 X36.362591 Y29.332672 Z-0.125000
G01 X36.556450 Y28.189484 Z-0.125000
G01 X36.558750 Y22.525667 Z-0.125000
G01 X36.561050 Y16.861849 Z-0.125000
G01 X36.088537 Y16.861849 Z-0.125000
G01 X35.615739 Y16.861849 Z-0.125000
G01 X35.615739 Y21.649018 Z-0.125000
G01 X35.599179 Y25.191766 Z-0.125000
G01 X35.518099 Y27.206180 Z-0.125000
G01 X35.439009 Y27.800521 Z-0.125000
G01 X35.326520 Y28.204850 Z-0.125000
G01 X34.978202 Y28.700168 Z-0.125000
G01 X34.661290 Y28.808230 Z-0.125000
G01 X34.375499 Y28.535062 Z-0.125000
G01 X34.135103 Y27.904968 Z-0.125000
G01 X33.954092 Y26.942452 Z-0.125000
G01 X33.897272 Y26.351726 Z-0.125000
G01 X33.864152 Y25.457402 Z-0.125000
G01 X33.844452 Y21.486423 Z-0.125000
G01 X33.843052 Y16.861849 Z-0.125000
G01 X33.370254 Y16.861849 Z-0.125000
G01 X32.897456 Y16.861849 Z-0.125000
G01 X32.897742 Y27.773807 Z-0.125000
G00 Z5.000000

(End cutting path id: path21)


(Start cutting path id: path21)
(Change tool to Default tool)

G00 Z5.000000
G00 X39.801059 Y19.832345

G01 Z-0.125000 F100.0(Penetrate)
G01 X39.940386 Y20.383201 Z-0.125000 F400.000000
G01 X40.035176 Y20.988790 Z-0.125000
G01 X40.106836 Y22.490712 Z-0.125000
G01 X40.106836 Y23.567717 Z-0.125000
G01 X39.855590 Y23.434749 Z-0.125000
G01 X39.309132 Y23.184278 Z-0.125000
G01 X38.923699 Y22.913821 Z-0.125000
G01 X38.657036 Y22.445921 Z-0.125000
G01 X38.502292 Y21.761193 Z-0.125000
G01 X38.452332 Y20.840356 Z-0.125000
G01 X38.481172 Y20.355081 Z-0.125000
G01 X38.558542 Y19.888385 Z-0.125000
G01 X38.671032 Y19.501230 Z-0.125000
G01 X38.804934 Y19.254274 Z-0.125000
G01 X38.925132 Y18.944750 Z-0.125000
G01 X39.041904 Y18.882080 Z-0.125000
G01 X39.309994 Y19.093283 Z-0.125000
G01 X39.604351 Y19.452017 Z-0.125000
G01 X39.801065 Y19.832343 Z-0.125000
G01 X39.801065 Y19.832343 Z-0.125000
G00 Z5.000000

(End cutting path id: path21)


(Start cutting path id: path21)
(Change tool to Default tool)

G00 Z5.000000
G00 X38.340431 Y16.702866

G01 Z-0.125000 F100.0(Penetrate)
G01 X37.950144 Y17.451668 Z-0.125000 F400.000000
G01 X37.683767 Y18.509190 Z-0.125000
G01 X37.542156 Y19.871816 Z-0.125000
G01 X37.525596 Y21.535831 Z-0.125000
G01 X37.596116 Y22.738273 Z-0.125000
G01 X37.854784 Y23.737144 Z-0.125000
G01 X38.098321 Y24.389533 Z-0.125000
G01 X38.398673 Y24.854923 Z-0.125000
G01 X38.833784 Y25.221390 Z-0.125000
G01 X39.481312 Y25.576810 Z-0.125000
G01 X40.027770 Y26.035069 Z-0.125000
G01 X40.084590 Y26.423631 Z-0.125000
G01 X40.104580 Y27.026709 Z-0.125000
G01 X40.087450 Y27.654996 Z-0.125000
G01 X40.032920 Y28.119381 Z-0.125000
G01 X39.811652 Y28.743852 Z-0.125000
G01 X39.523577 Y29.083604 Z-0.125000
G01 X39.207807 Y29.114534 Z-0.125000
G01 X38.904600 Y28.812141 Z-0.125000
G01 X38.747571 Y28.428098 Z-0.125000
G01 X38.601963 Y27.873628 Z-0.125000
G01 X38.494328 Y27.273160 Z-0.125000
G01 X38.452358 Y26.751429 Z-0.125000
G01 X38.428948 Y26.495836 Z-0.125000
G01 X38.349008 Y26.525766 Z-0.125000
G01 X37.905903 Y26.907298 Z-0.125000
G01 X37.686634 Y27.095302 Z-0.125000
G01 X37.587274 Y27.350292 Z-0.125000
G01 X37.590674 Y27.798207 Z-0.125000
G01 X37.679754 Y28.564684 Z-0.125000
G01 X37.809659 Y29.356872 Z-0.125000
G01 X37.983532 Y30.097338 Z-0.125000
G01 X38.190239 Y30.748422 Z-0.125000
G01 X38.419785 Y31.271960 Z-0.125000
G01 X38.740694 Y31.643348 Z-0.125000
G01 X39.368237 Y31.716258 Z-0.125000
G01 X39.992924 Y31.631798 Z-0.125000
G01 X40.313547 Y31.266737 Z-0.125000
G01 X40.688414 Y30.335355 Z-0.125000
G01 X40.941372 Y28.985684 Z-0.125000
G01 X41.020742 Y28.303266 Z-0.125000
G01 X41.066132 Y27.340348 Z-0.125000
G01 X41.111242 Y22.421416 Z-0.125000
G01 X41.140932 Y16.861241 Z-0.125000
G01 X40.682980 Y16.861543 Z-0.125000
G01 X40.225031 Y16.861744 Z-0.125000
G01 X40.225031 Y17.693199 Z-0.125000
G01 X40.203051 Y18.524554 Z-0.125000
G01 X39.928109 Y17.711678 Z-0.125000
G01 X39.653738 Y17.018012 Z-0.125000
G01 X39.335684 Y16.563669 Z-0.125000
G01 X38.832337 Y16.294619 Z-0.125000
G01 X38.602219 Y16.411619 Z-0.125000
G01 X38.340410 Y16.702864 Z-0.125000
G01 X38.340410 Y16.702864 Z-0.125000
G00 Z5.000000

(End cutting path id: path21)


(Start cutting path id: path21)
(Change tool to Default tool)

G00 Z5.000000
G00 X43.504361 Y16.628745

G01 Z-0.125000 F100.0(Penetrate)
G01 X43.069249 Y17.225999 Z-0.125000 F400.000000
G01 X42.702374 Y18.076335 Z-0.125000
G01 X42.393171 Y19.211288 Z-0.125000
G01 X42.130506 Y20.662694 Z-0.125000
G01 X41.992892 Y21.956024 Z-0.125000
G01 X41.972902 Y24.240392 Z-0.125000
G01 X42.004592 Y26.582908 Z-0.125000
G01 X42.069122 Y27.248052 Z-0.125000
G01 X42.192460 Y28.040741 Z-0.125000
G01 X42.390316 Y29.103485 Z-0.125000
G01 X42.604446 Y29.974108 Z-0.125000
G01 X42.841701 Y30.675306 Z-0.125000
G01 X43.108364 Y31.229877 Z-0.125000
G01 X43.500078 Y31.608195 Z-0.125000
G01 X44.021127 Y31.754019 Z-0.125000
G01 X44.547029 Y31.660919 Z-0.125000
G01 X44.953875 Y31.322773 Z-0.125000
G01 X45.286489 Y30.569050 Z-0.125000
G01 X45.611681 Y29.447253 Z-0.125000
G01 X45.858643 Y28.244611 Z-0.125000
G01 X45.956573 Y27.248351 Z-0.125000
G01 X45.681916 Y26.760063 Z-0.125000
G01 X45.358438 Y26.542734 Z-0.125000
G01 X45.321888 Y26.562014 Z-0.125000
G01 X45.306468 Y26.450337 Z-0.125000
G01 X45.203686 Y26.175662 Z-0.125000
G01 X45.099761 Y26.305819 Z-0.125000
G01 X44.993839 Y26.835885 Z-0.125000
G01 X44.700053 Y28.085529 Z-0.125000
G01 X44.467366 Y28.514664 Z-0.125000
G01 X44.062232 Y28.605154 Z-0.125000
G01 X43.703351 Y28.533144 Z-0.125000
G01 X43.516059 Y28.327464 Z-0.125000
G01 X43.428119 Y28.176619 Z-0.125000
G01 X43.350179 Y28.203739 Z-0.125000
G01 X43.309639 Y28.254959 Z-0.125000
G01 X43.317339 Y28.141273 Z-0.125000
G01 X43.317054 Y27.909281 Z-0.125000
G01 X43.263094 Y27.655396 Z-0.125000
G01 X43.150605 Y27.196433 Z-0.125000
G01 X43.057815 Y26.563728 Z-0.125000
G01 X42.940472 Y24.972122 Z-0.125000
G01 X42.926202 Y23.270848 Z-0.125000
G01 X43.030697 Y21.850173 Z-0.125000
G01 X43.256818 Y20.690615 Z-0.125000
G01 X43.460098 Y20.190979 Z-0.125000
G01 X43.534048 Y19.994439 Z-0.125000
G01 X43.850103 Y19.552549 Z-0.125000
G01 X44.147886 Y19.407730 Z-0.125000
G01 X44.391137 Y19.564400 Z-0.125000
G01 X44.610121 Y19.985701 Z-0.125000
G01 X44.852230 Y20.672940 Z-0.125000
G01 X45.048372 Y21.401957 Z-0.125000
G01 X45.129452 Y21.948594 Z-0.125000
G01 X45.140872 Y22.174962 Z-0.125000
G01 X45.179132 Y22.249082 Z-0.125000
G01 X45.353576 Y21.939659 Z-0.125000
G01 X45.641937 Y21.514139 Z-0.125000
G01 X45.905174 Y21.212349 Z-0.125000
G01 X45.982834 Y20.927632 Z-0.125000
G01 X45.913454 Y20.234970 Z-0.125000
G01 X45.696755 Y19.011338 Z-0.125000
G01 X45.390692 Y17.955323 Z-0.125000
G01 X45.016108 Y17.124972 Z-0.125000
G01 X44.593845 Y16.578536 Z-0.125000
G01 X44.040248 Y16.274335 Z-0.125000
G01 X43.504354 Y16.628851 Z-0.125000
G01 X43.504354 Y16.628750 Z-0.125000
G00 Z5.000000

(End cutting path id: path21)


(Start cutting path id: path21)
(Change tool to Default tool)

G00 Z5.000000
G00 X52.160897 Y16.572210

G01 Z-0.125000 F100.0(Penetrate)
G01 X51.780888 Y17.089522 Z-0.125000 F400.000000
G01 X51.460550 Y17.850977 Z-0.125000
G01 X51.212160 Y18.819720 Z-0.125000
G01 X51.047994 Y19.958589 Z-0.125000
G01 X50.987184 Y20.719442 Z-0.125000
G01 X51.089967 Y20.810932 Z-0.125000
G01 X51.413159 Y21.122765 Z-0.125000
G01 X51.616440 Y21.371428 Z-0.125000
G01 X51.755481 Y21.383478 Z-0.125000
G01 X51.856265 Y21.133308 Z-0.125000
G01 X51.944485 Y20.595207 Z-0.125000
G01 X52.108651 Y19.799304 Z-0.125000
G01 X52.345050 Y19.271246 Z-0.125000
G01 X52.629129 Y19.045983 Z-0.125000
G01 X52.937190 Y19.158163 Z-0.125000
G01 X53.108779 Y19.420585 Z-0.125000
G01 X53.231832 Y19.811255 Z-0.125000
G01 X53.305782 Y20.286186 Z-0.125000
G01 X53.331192 Y20.801590 Z-0.125000
G01 X53.307492 Y21.313479 Z-0.125000
G01 X53.234692 Y21.777965 Z-0.125000
G01 X53.113066 Y22.151060 Z-0.125000
G01 X52.942048 Y22.388877 Z-0.125000
G01 X52.489807 Y22.807165 Z-0.125000
G01 X52.086387 Y23.097306 Z-0.125000
G01 X51.888531 Y23.328796 Z-0.125000
G01 X51.634145 Y23.906064 Z-0.125000
G01 X51.389466 Y24.652958 Z-0.125000
G01 X51.221018 Y25.393725 Z-0.125000
G01 X51.137078 Y26.107176 Z-0.125000
G01 X51.101388 Y26.871745 Z-0.125000
G01 X51.111388 Y27.662727 Z-0.125000
G01 X51.164778 Y28.455316 Z-0.125000
G01 X51.392612 Y29.947195 Z-0.125000
G01 X51.562488 Y30.597174 Z-0.125000
G01 X51.766054 Y31.150138 Z-0.125000
G01 X52.074686 Y31.623563 Z-0.125000
G01 X52.663114 Y31.715153 Z-0.125000
G01 X53.113071 Y31.668353 Z-0.125000
G01 X53.424844 Y31.465787 Z-0.125000
G01 X53.662385 Y31.033740 Z-0.125000
G01 X53.889362 Y30.298396 Z-0.125000
G01 X54.124619 Y29.113429 Z-0.125000
G01 X54.228829 Y28.037528 Z-0.125000
G01 X54.146889 Y27.777215 Z-0.125000
G01 X53.948177 Y27.529456 Z-0.125000
G01 X53.568168 Y27.151641 Z-0.125000
G01 X53.470238 Y27.189001 Z-0.125000
G01 X53.375448 Y27.647060 Z-0.125000
G01 X53.248113 Y28.367741 Z-0.125000
G01 X53.106787 Y28.821281 Z-0.125000
G01 X52.928632 Y29.057189 Z-0.125000
G01 X52.690805 Y29.124879 Z-0.125000
G01 X52.416148 Y29.018825 Z-0.125000
G01 X52.212582 Y28.710306 Z-0.125000
G01 X52.086103 Y28.213783 Z-0.125000
G01 X52.042703 Y27.543618 Z-0.125000
G01 X52.081533 Y26.927985 Z-0.125000
G01 X52.205157 Y26.435178 Z-0.125000
G01 X52.424997 Y26.036975 Z-0.125000
G01 X52.751616 Y25.704855 Z-0.125000
G01 X53.314919 Y25.161432 Z-0.125000
G01 X53.719481 Y24.539472 Z-0.125000
G01 X53.995851 Y23.776410 Z-0.125000
G01 X54.174863 Y22.809676 Z-0.125000
G01 X54.264793 Y21.826773 Z-0.125000
G01 X54.285063 Y20.848289 Z-0.125000
G01 X54.240233 Y19.900838 Z-0.125000
G01 X54.134596 Y19.011335 Z-0.125000
G01 X53.971858 Y18.206594 Z-0.125000
G01 X53.756872 Y17.513330 Z-0.125000
G01 X53.493635 Y16.958357 Z-0.125000
G01 X53.186430 Y16.568590 Z-0.125000
G01 X52.668808 Y16.271018 Z-0.125000
G01 X52.160893 Y16.572507 Z-0.125000
G01 X52.160893 Y16.572206 Z-0.125000
G00 Z5.000000

(End cutting path id: path21)


(Start cutting path id: path21)
(Change tool to Default tool)

G00 Z5.000000
G00 X56.379501 Y16.850724

G01 Z-0.125000 F100.0(Penetrate)
G01 X56.179932 Y17.104811 Z-0.125000 F400.000000
G01 X56.009771 Y17.515668 Z-0.125000
G01 X55.863592 Y18.100267 Z-0.125000
G01 X55.735970 Y18.875582 Z-0.125000
G01 X55.652320 Y19.570453 Z-0.125000
G01 X55.608070 Y20.392167 Z-0.125000
G01 X55.587800 Y24.227667 Z-0.125000
G01 X55.587800 Y28.501341 Z-0.125000
G01 X55.203794 Y28.501341 Z-0.125000
G01 X54.819789 Y28.501341 Z-0.125000
G01 X54.819789 Y30.060206 Z-0.125000
G01 X54.819789 Y31.619071 Z-0.125000
G01 X55.106151 Y31.619071 Z-0.125000
G01 X55.377096 Y31.799543 Z-0.125000
G01 X55.563817 Y32.360944 Z-0.125000
G01 X55.671453 Y33.333301 Z-0.125000
G01 X55.706003 Y34.746644 Z-0.125000
G01 X55.706003 Y35.983935 Z-0.125000
G01 X56.119702 Y35.983935 Z-0.125000
G01 X56.533400 Y35.983935 Z-0.125000
G01 X56.533400 Y33.801503 Z-0.125000
G01 X56.533400 Y31.619071 Z-0.125000
G01 X56.976505 Y31.619071 Z-0.125000
G01 X57.419611 Y31.619071 Z-0.125000
G01 X57.419611 Y30.069345 Z-0.125000
G01 X57.419611 Y28.519619 Z-0.125000
G01 X56.991351 Y28.458559 Z-0.125000
G01 X56.562807 Y28.397499 Z-0.125000
G01 X56.546537 Y24.867806 Z-0.125000
G01 X56.551637 Y22.078279 Z-0.125000
G01 X56.599317 Y20.753012 Z-0.125000
G01 X56.698677 Y20.234495 Z-0.125000
G01 X56.848853 Y19.851256 Z-0.125000
G01 X57.029864 Y19.638848 Z-0.125000
G01 X57.222009 Y19.632848 Z-0.125000
G01 X57.419580 Y19.745731 Z-0.125000
G01 X57.419580 Y18.328069 Z-0.125000
G01 X57.398740 Y17.114078 Z-0.125000
G01 X57.358770 Y16.892431 Z-0.125000
G01 X57.286540 Y16.785172 Z-0.125000
G01 X56.853998 Y16.683337 Z-0.125000
G01 X56.379487 Y16.850752 Z-0.125000
G01 X56.379487 Y16.850752 Z-0.125000
G00 Z5.000000

(End cutting path id: path21)


(Start cutting path id: path21)
(Change tool to Default tool)

G00 Z5.000000
G00 X59.487834 Y16.628046

G01 Z-0.125000 F100.0(Penetrate)
G01 X59.142372 Y17.117539 Z-0.125000 F400.000000
G01 X58.837452 Y17.755266 Z-0.125000
G01 X58.575071 Y18.532992 Z-0.125000
G01 X58.356374 Y19.442782 Z-0.125000
G01 X58.183357 Y20.476401 Z-0.125000
G01 X58.057449 Y21.626017 Z-0.125000
G01 X57.980359 Y22.883393 Z-0.125000
G01 X57.953519 Y24.240496 Z-0.125000
G01 X57.990349 Y25.581028 Z-0.125000
G01 X58.089709 Y26.972678 Z-0.125000
G01 X58.232177 Y28.203541 Z-0.125000
G01 X58.397770 Y29.061610 Z-0.125000
G01 X58.587346 Y29.837026 Z-0.125000
G01 X59.020459 Y31.027014 Z-0.125000
G01 X59.214032 Y31.413065 Z-0.125000
G01 X59.385336 Y31.617740 Z-0.125000
G01 X59.990037 Y31.716760 Z-0.125000
G01 X60.576467 Y31.636110 Z-0.125000
G01 X60.935348 Y31.244637 Z-0.125000
G01 X61.180598 Y30.760165 Z-0.125000
G01 X61.397297 Y30.149956 Z-0.125000
G01 X61.584589 Y29.422847 Z-0.125000
G01 X61.740760 Y28.587274 Z-0.125000
G01 X61.954890 Y26.625687 Z-0.125000
G01 X62.028550 Y24.334189 Z-0.125000
G01 X62.028550 Y23.305189 Z-0.125000
G01 X60.484818 Y23.305189 Z-0.125000
G01 X58.940802 Y23.305189 Z-0.125000
G01 X58.979342 Y22.458770 Z-0.125000
G01 X59.033302 Y21.760183 Z-0.125000
G01 X59.129802 Y21.109802 Z-0.125000
G01 X59.449854 Y19.955265 Z-0.125000
G01 X59.680828 Y19.558770 Z-0.125000
G01 X60.029717 Y19.390651 Z-0.125000
G01 X60.355479 Y19.430521 Z-0.125000
G01 X60.623855 Y19.703689 Z-0.125000
G01 X60.843123 Y20.224115 Z-0.125000
G01 X61.021565 Y21.005556 Z-0.125000
G01 X61.162319 Y21.629825 Z-0.125000
G01 X61.313352 Y21.625525 Z-0.125000
G01 X61.712204 Y21.213463 Z-0.125000
G01 X61.914628 Y20.917397 Z-0.125000
G01 X61.908928 Y20.379196 Z-0.125000
G01 X61.737909 Y19.326796 Z-0.125000
G01 X61.614856 Y18.718595 Z-0.125000
G01 X61.507506 Y18.260838 Z-0.125000
G01 X61.246553 Y17.617085 Z-0.125000
G01 X60.925359 Y16.989703 Z-0.125000
G01 X60.636142 Y16.581156 Z-0.125000
G01 X60.324654 Y16.341230 Z-0.125000
G01 X60.047714 Y16.268320 Z-0.125000
G01 X59.777625 Y16.363530 Z-0.125000
G01 X59.487836 Y16.628061 Z-0.125000
G01 X59.487836 Y16.628061 Z-0.125000
G00 Z5.000000

(End cutting path id: path21)


(Start cutting path id: path21)
(Change tool to Default tool)

G00 Z5.000000
G00 X65.367788 Y16.894032

G01 Z-0.125000 F100.0(Penetrate)
G01 X65.218469 Y17.292135 Z-0.125000 F400.000000
G01 X65.118829 Y17.757625 Z-0.125000
G01 X65.062869 Y18.328968 Z-0.125000
G01 X65.045169 Y19.044327 Z-0.125000
G01 X65.088849 Y20.079553 Z-0.125000
G01 X65.220182 Y20.827652 Z-0.125000
G01 X65.436595 Y21.281693 Z-0.125000
G01 X65.736376 Y21.434547 Z-0.125000
G01 X65.958786 Y21.298566 Z-0.125000
G01 X66.162066 Y20.818814 Z-0.125000
G01 X66.325946 Y20.122135 Z-0.125000
G01 X66.362206 Y19.104082 Z-0.125000
G01 X66.328516 Y18.117966 Z-0.125000
G01 X66.218882 Y17.395979 Z-0.125000
G01 X66.031875 Y16.932396 Z-0.125000
G01 X65.765784 Y16.721696 Z-0.125000
G01 X65.532525 Y16.738666 Z-0.125000
G01 X65.367788 Y16.894030 Z-0.125000
G01 X65.367788 Y16.894030 Z-0.125000
G00 Z5.000000

(End cutting path id: path21)


(Start cutting path id: path21)
(Change tool to Default tool)

G00 Z5.000000
G00 X71.157574 Y16.363528

G01 Z-0.125000 F100.0(Penetrate)
G01 X70.532601 Y17.143162 Z-0.125000 F400.000000
G01 X70.035535 Y18.307440 Z-0.125000
G01 X69.662950 Y19.867611 Z-0.125000
G01 X69.411419 Y21.834923 Z-0.125000
G01 X69.331189 Y22.973291 Z-0.125000
G01 X69.301779 Y24.048689 Z-0.125000
G01 X69.323189 Y25.134833 Z-0.125000
G01 X69.394849 Y26.305338 Z-0.125000
G01 X69.569008 Y27.862295 Z-0.125000
G01 X69.827676 Y29.252439 Z-0.125000
G01 X70.155722 Y30.408583 Z-0.125000
G01 X70.537159 Y31.263036 Z-0.125000
G01 X70.878053 Y31.629704 Z-0.125000
G01 X71.482469 Y31.706334 Z-0.125000
G01 X71.996380 Y31.627794 Z-0.125000
G01 X72.373819 Y31.348801 Z-0.125000
G01 X72.680452 Y30.788706 Z-0.125000
G01 X72.982232 Y29.866864 Z-0.125000
G01 X73.339400 Y28.269635 Z-0.125000
G01 X73.573801 Y26.229311 Z-0.125000
G01 X73.641181 Y25.219794 Z-0.125000
G01 X73.663731 Y24.262200 Z-0.125000
G01 X73.573511 Y22.099653 Z-0.125000
G01 X73.461593 Y20.911874 Z-0.125000
G01 X73.304850 Y19.839489 Z-0.125000
G01 X73.106138 Y18.891837 Z-0.125000
G01 X72.869453 Y18.078057 Z-0.125000
G01 X72.597081 Y17.407390 Z-0.125000
G01 X72.293017 Y16.889274 Z-0.125000
G01 X71.959831 Y16.532850 Z-0.125000
G01 X71.600665 Y16.347357 Z-0.125000
G01 X71.157559 Y16.363527 Z-0.125000
G01 X71.157559 Y16.363527 Z-0.125000
G00 Z5.000000

(End cutting path id: path21)


(Start cutting path id: path21)
(Change tool to Default tool)

G00 Z5.000000
G00 X72.090022 Y20.099502

G01 Z-0.125000 F100.0(Penetrate)
G01 X72.328705 Y20.715134 Z-0.125000 F400.000000
G01 X72.428065 Y21.150998 Z-0.125000
G01 X72.445765 Y21.329963 Z-0.125000
G01 X72.488595 Y21.327463 Z-0.125000
G01 X72.535705 Y21.367133 Z-0.125000
G01 X72.600515 Y22.651726 Z-0.125000
G01 X72.644195 Y23.678918 Z-0.125000
G01 X72.642495 Y24.773699 Z-0.125000
G01 X72.598525 Y25.805109 Z-0.125000
G01 X72.514875 Y26.641987 Z-0.125000
G01 X72.391251 Y27.299499 Z-0.125000
G01 X72.228798 Y27.856380 Z-0.125000
G01 X72.030371 Y28.306002 Z-0.125000
G01 X71.797969 Y28.641738 Z-0.125000
G01 X71.497331 Y28.873830 Z-0.125000
G01 X71.212111 Y28.704607 Z-0.125000
G01 X70.839811 Y28.085158 Z-0.125000
G01 X70.562014 Y27.119630 Z-0.125000
G01 X70.381288 Y25.909857 Z-0.125000
G01 X70.299348 Y24.557575 Z-0.125000
G01 X70.319048 Y23.164920 Z-0.125000
G01 X70.442672 Y21.833527 Z-0.125000
G01 X70.671933 Y20.665332 Z-0.125000
G01 X71.009973 Y19.762271 Z-0.125000
G01 X71.266357 Y19.425129 Z-0.125000
G01 X71.529879 Y19.368289 Z-0.125000
G01 X71.803394 Y19.592749 Z-0.125000
G01 X72.090042 Y20.099516 Z-0.125000
G01 X72.090042 Y20.099516 Z-0.125000
G00 Z5.000000

(End cutting path id: path21)


(Start cutting path id: path21)
(Change tool to Default tool)

G00 Z5.000000
G00 X67.464178 Y24.240404

G01 Z-0.125000 F100.0(Penetrate)
G01 X67.464178 Y31.619053 Z-0.125000 F400.000000
G01 X67.966383 Y31.619053 Z-0.125000
G01 X68.468873 Y31.619053 Z-0.125000
G01 X68.468873 Y24.240404 Z-0.125000
G01 X68.468873 Y16.861854 Z-0.125000
G01 X67.966383 Y16.861854 Z-0.125000
G01 X67.464178 Y16.861854 Z-0.125000
G01 X67.464178 Y24.240404 Z-0.125000
G00 Z5.000000

(End cutting path id: path21)


(Start cutting path id: path21)
(Change tool to Default tool)

G00 Z5.000000
G00 X62.914351 Y24.240404

G01 Z-0.125000 F100.0(Penetrate)
G01 X62.914351 Y31.619053 Z-0.125000 F400.000000
G01 X63.387149 Y31.619053 Z-0.125000
G01 X63.859947 Y31.619053 Z-0.125000
G01 X63.859947 Y30.433082 Z-0.125000
G01 X63.859947 Y29.247111 Z-0.125000
G01 X64.081500 Y30.069327 Z-0.125000
G01 X64.302767 Y30.766408 Z-0.125000
G01 X64.536597 Y31.248569 Z-0.125000
G01 X64.790411 Y31.528466 Z-0.125000
G01 X65.073062 Y31.619056 Z-0.125000
G01 X65.396255 Y31.619056 Z-0.125000
G01 X65.396255 Y29.893277 Z-0.125000
G01 X65.396255 Y28.167498 Z-0.125000
G01 X65.085910 Y28.172998 Z-0.125000
G01 X64.761861 Y28.040833 Z-0.125000
G01 X64.468932 Y27.659904 Z-0.125000
G01 X64.229392 Y27.071990 Z-0.125000
G01 X64.066654 Y26.318769 Z-0.125000
G01 X64.003554 Y25.741200 Z-0.125000
G01 X63.965294 Y24.901409 Z-0.125000
G01 X63.929324 Y21.174574 Z-0.125000
G01 X63.910484 Y16.861632 Z-0.125000
G01 X63.412561 Y16.861632 Z-0.125000
G01 X62.914353 Y16.861632 Z-0.125000
G01 X62.914353 Y24.240404 Z-0.125000
G00 Z5.000000

(End cutting path id: path21)


(Start cutting path id: path21)
(Change tool to Default tool)

G00 Z5.000000
G00 X60.996736 Y26.370920

G01 Z-0.125000 F100.0(Penetrate)
G01 X60.924786 Y27.214327 Z-0.125000 F400.000000
G01 X60.805159 Y27.911909 Z-0.125000
G01 X60.641564 Y28.448805 Z-0.125000
G01 X60.437427 Y28.810250 Z-0.125000
G01 X60.093964 Y29.079000 Z-0.125000
G01 X59.778194 Y29.028180 Z-0.125000
G01 X59.491260 Y28.658700 Z-0.125000
G01 X59.235161 Y27.971663 Z-0.125000
G01 X59.039019 Y26.794027 Z-0.125000
G01 X58.986489 Y26.168453 Z-0.125000
G01 X58.991589 Y25.765028 Z-0.125000
G01 X60.029689 Y25.591486 Z-0.125000
G01 X61.037240 Y25.591486 Z-0.125000
G01 X60.996700 Y26.370918 Z-0.125000
G00 Z5.000000

(End cutting path id: path21)


(Start cutting path id: path21)
(Change tool to Default tool)

G00 Z5.000000
G00 X67.704574 Y34.679037

G01 Z-0.125000 F100.0(Penetrate)
G01 X67.557538 Y35.001416 Z-0.125000 F400.000000
G01 X67.444478 Y35.493118 Z-0.125000
G01 X67.371678 Y36.114776 Z-0.125000
G01 X67.345978 Y36.827122 Z-0.125000
G01 X67.377958 Y37.733498 Z-0.125000
G01 X67.522995 Y38.341196 Z-0.125000
G01 X67.832483 Y38.989066 Z-0.125000
G01 X67.978377 Y39.025826 Z-0.125000
G01 X68.143685 Y38.893761 Z-0.125000
G01 X68.320413 Y38.577308 Z-0.125000
G01 X68.453173 Y38.117642 Z-0.125000
G01 X68.541113 Y37.559456 Z-0.125000
G01 X68.582513 Y36.947338 Z-0.125000
G01 X68.576513 Y36.325781 Z-0.125000
G01 X68.521413 Y35.739474 Z-0.125000
G01 X68.416347 Y35.232908 Z-0.125000
G01 X68.259604 Y34.850673 Z-0.125000
G01 X67.967532 Y34.562140 Z-0.125000
G01 X67.704581 Y34.679039 Z-0.125000
G01 X67.704581 Y34.679039 Z-0.125000
G00 Z5.000000

(End cutting path id: path21)


(Start cutting path id: path21)
(Change tool to Default tool)

G00 Z5.000000
G00 X46.842425 Y27.773807

G01 Z-0.125000 F100.0(Penetrate)
G01 X46.842425 Y38.685870 Z-0.125000 F400.000000
G01 X47.315223 Y38.685870 Z-0.125000
G01 X47.788021 Y38.685870 Z-0.125000
G01 X47.789421 Y32.086653 Z-0.125000
G01 X47.790821 Y25.487536 Z-0.125000
G01 X48.586812 Y28.397378 Z-0.125000
G01 X49.383088 Y31.463087 Z-0.125000
G01 X50.033185 Y31.619053 Z-0.125000
G01 X50.683283 Y31.444608 Z-0.125000
G01 X50.461730 Y30.541245 Z-0.125000
G01 X49.095012 Y25.527808 Z-0.125000
G01 X49.061892 Y25.291297 Z-0.125000
G01 X49.081592 Y24.978258 Z-0.125000
G01 X49.337405 Y23.666751 Z-0.125000
G01 X50.124831 Y19.875641 Z-0.125000
G01 X50.635601 Y17.519968 Z-0.125000
G01 X50.683281 Y17.156313 Z-0.125000
G01 X50.657581 Y17.011594 Z-0.125000
G01 X50.566501 Y16.921304 Z-0.125000
G01 X50.105123 Y16.861854 Z-0.125000
G01 X49.526973 Y16.861854 Z-0.125000
G01 X49.414198 Y17.537342 Z-0.125000
G01 X49.229761 Y18.467118 Z-0.125000
G01 X49.021913 Y19.506362 Z-0.125000
G01 X48.804072 Y20.584270 Z-0.125000
G01 X48.582805 Y21.658062 Z-0.125000
G01 X48.375813 Y22.584423 Z-0.125000
G01 X48.253331 Y22.430565 Z-0.125000
G01 X48.048337 Y21.831102 Z-0.125000
G01 X47.787956 Y20.932258 Z-0.125000
G01 X47.787956 Y18.897056 Z-0.125000
G01 X47.787956 Y16.861854 Z-0.125000
G01 X47.315158 Y16.861854 Z-0.125000
G01 X46.842360 Y16.861854 Z-0.125000
G01 X46.842360 Y27.773812 Z-0.125000
G00 Z5.000000

(End cutting path id: path21)


(Footer)
M5
G00 X0.0000 Y0.0000
M2
(Using default footer. To add your own footer create file "footer" in the output dir.)
(end)
%