%
(Header)
(Generated by gcodetools from Inkscape.)
(Using default header. To add your own header create file "header" in the output dir.)
M3
(Header end.)
G21 (All units in mm)

(Start cutting path id: path883)
(Change tool to Default tool)

G00 Z5.000000
G00 X72.743300 Y9.628900

G01 Z-0.125000 F100.0(Penetrate)
G01 X72.743300 Y13.874400 Z-0.125000 F400.000000
G01 X73.069300 Y13.565200 Z-0.125000
G01 X73.373200 Y13.366400 Z-0.125000
G01 X73.678300 Y13.335200 Z-0.125000
G01 X74.265300 Y13.742300 Z-0.125000
G01 X74.777000 Y14.719300 Z-0.125000
G01 X75.159800 Y16.198900 Z-0.125000
G01 X75.285800 Y16.914600 Z-0.125000
G01 X74.204400 Y27.692200 Z-0.125000
G01 X73.166000 Y38.604300 Z-0.125000
G01 X74.250800 Y39.566200 Z-0.125000
G01 X75.315200 Y40.304500 Z-0.125000
G01 X75.907300 Y33.236000 Z-0.125000
G01 X76.480900 Y26.272600 Z-0.125000
G01 X76.553800 Y25.720600 Z-0.125000
G01 X76.594700 Y25.950300 Z-0.125000
G01 X77.375100 Y36.031700 Z-0.125000
G01 X77.692200 Y39.669200 Z-0.125000
G01 X79.490800 Y38.688400 Z-0.125000
G01 X79.625400 Y38.579700 Z-0.125000
G01 X79.440100 Y36.126100 Z-0.125000
G01 X78.412300 Y23.337000 Z-0.125000
G01 X77.620400 Y16.207900 Z-0.125000
G01 X77.045900 Y12.546800 Z-0.125000
G01 X76.413700 Y9.730600 Z-0.125000
G01 X75.693400 Y7.648900 Z-0.125000
G01 X74.854500 Y6.191300 Z-0.125000
G01 X74.324600 Y5.675900 Z-0.125000
G01 X73.566000 Y5.484300 Z-0.125000
G01 X72.743300 Y5.383500 Z-0.125000
G01 X72.743300 Y9.628900 Z-0.125000
G00 Z5.000000

(End cutting path id: path883)


(Start cutting path id: path883)
(Change tool to Default tool)

G00 Z5.000000
G00 X74.460800 Y7.486500

G01 Z-0.125000 F100.0(Penetrate)
G01 X74.801300 Y8.610000 Z-0.125000 F400.000000
G01 X75.040800 Y9.139700 Z-0.125000
G01 X74.827500 Y9.693700 Z-0.125000
G01 X74.507600 Y10.927400 Z-0.125000
G01 X74.347300 Y11.757700 Z-0.125000
G01 X74.192600 Y11.013500 Z-0.125000
G01 X73.852100 Y9.890000 Z-0.125000
G01 X73.612600 Y9.360300 Z-0.125000
G01 X73.825900 Y8.806300 Z-0.125000
G01 X74.145800 Y7.572600 Z-0.125000
G01 X74.306100 Y6.742300 Z-0.125000
G01 X74.460800 Y7.486500 Z-0.125000
G01 X74.460800 Y7.486500 Z-0.125000
G00 Z5.000000

(End cutting path id: path883)


(Start cutting path id: path883)
(Change tool to Default tool)

G00 Z5.000000
G00 X75.889000 Y11.193500

G01 Z-0.125000 F100.0(Penetrate)
G01 X76.229500 Y12.317000 Z-0.125000 F400.000000
G01 X76.468900 Y12.846800 Z-0.125000
G01 X76.255600 Y13.400700 Z-0.125000
G01 X75.935700 Y14.634400 Z-0.125000
G01 X75.775500 Y15.464700 Z-0.125000
G01 X75.620700 Y14.720500 Z-0.125000
G01 X75.280200 Y13.597100 Z-0.125000
G01 X75.040800 Y13.067200 Z-0.125000
G01 X75.254000 Y12.513300 Z-0.125000
G01 X75.573900 Y11.279600 Z-0.125000
G01 X75.734200 Y10.449300 Z-0.125000
G01 X75.889000 Y11.193500 Z-0.125000
G01 X75.889000 Y11.193500 Z-0.125000
G00 Z5.000000

(End cutting path id: path883)


(Start cutting path id: path883)
(Change tool to Default tool)

G00 Z5.000000
G00 X76.882400 Y17.299200

G01 Z-0.125000 F100.0(Penetrate)
G01 X77.223000 Y18.422600 Z-0.125000 F400.000000
G01 X77.462400 Y18.952400 Z-0.125000
G01 X77.249100 Y19.506400 Z-0.125000
G01 X76.929200 Y20.740000 Z-0.125000
G01 X76.768900 Y21.570300 Z-0.125000
G01 X76.614200 Y20.826100 Z-0.125000
G01 X76.273700 Y19.702700 Z-0.125000
G01 X76.034300 Y19.172900 Z-0.125000
G01 X76.247500 Y18.618900 Z-0.125000
G01 X76.567400 Y17.385300 Z-0.125000
G01 X76.727700 Y16.555000 Z-0.125000
G01 X76.882400 Y17.299200 Z-0.125000
G01 X76.882400 Y17.299200 Z-0.125000
G00 Z5.000000

(End cutting path id: path883)


(Start cutting path id: path883)
(Change tool to Default tool)

G00 Z5.000000
G00 X77.813800 Y23.186800

G01 Z-0.125000 F100.0(Penetrate)
G01 X78.154400 Y24.310200 Z-0.125000 F400.000000
G01 X78.393800 Y24.840000 Z-0.125000
G01 X78.180500 Y25.393900 Z-0.125000
G01 X77.860600 Y26.627600 Z-0.125000
G01 X77.700300 Y27.457900 Z-0.125000
G01 X77.545600 Y26.713700 Z-0.125000
G01 X77.205100 Y25.590300 Z-0.125000
G01 X76.965700 Y25.060500 Z-0.125000
G01 X77.178900 Y24.506500 Z-0.125000
G01 X77.498800 Y23.272900 Z-0.125000
G01 X77.659100 Y22.442600 Z-0.125000
G01 X77.813800 Y23.186800 Z-0.125000
G01 X77.813800 Y23.186800 Z-0.125000
G00 Z5.000000

(End cutting path id: path883)


(Start cutting path id: path894)
(Change tool to Default tool)

G00 Z5.000000
G00 X56.940500 Y17.481700

G01 Z-0.125000 F100.0(Penetrate)
G01 X56.889300 Y28.024800 Z-0.125000 F400.000000
G01 X56.838100 Y30.445100 Z-0.125000
G01 X58.055000 Y30.945500 Z-0.125000
G01 X59.293300 Y31.359900 Z-0.125000
G01 X58.952200 Y10.195100 Z-0.125000
G01 X58.252900 Y9.708200 Z-0.125000
G01 X57.157900 Y9.373700 Z-0.125000
G01 X56.940500 Y9.358900 Z-0.125000
G01 X56.940500 Y17.481700 Z-0.125000
G00 Z5.000000

(End cutting path id: path894)


(Start cutting path id: path888)
(Change tool to Default tool)

G00 Z5.000000
G00 X52.231400 Y16.426900

G01 Z-0.125000 F100.0(Penetrate)
G01 X52.571900 Y17.550400 Z-0.125000 F400.000000
G01 X52.811300 Y18.080200 Z-0.125000
G01 X52.598100 Y18.634100 Z-0.125000
G01 X52.278200 Y19.867800 Z-0.125000
G01 X52.117900 Y20.698100 Z-0.125000
G01 X51.963100 Y19.953900 Z-0.125000
G01 X51.622600 Y18.830500 Z-0.125000
G01 X51.383200 Y18.300700 Z-0.125000
G01 X51.596500 Y17.746700 Z-0.125000
G01 X51.916400 Y16.513000 Z-0.125000
G01 X52.076600 Y15.682700 Z-0.125000
G01 X52.231400 Y16.426900 Z-0.125000
G01 X52.231400 Y16.426900 Z-0.125000
G00 Z5.000000

(End cutting path id: path888)


(Start cutting path id: path888)
(Change tool to Default tool)

G00 Z5.000000
G00 X50.358600 Y16.858100

G01 Z-0.125000 F100.0(Penetrate)
G01 X50.934100 Y18.353000 Z-0.125000 F400.000000
G01 X51.373800 Y20.517900 Z-0.125000
G01 X51.625200 Y22.999600 Z-0.125000
G01 X51.635700 Y25.444400 Z-0.125000
G01 X51.378200 Y27.942700 Z-0.125000
G01 X50.934900 Y30.123000 Z-0.125000
G01 X50.366100 Y31.594500 Z-0.125000
G01 X50.075000 Y31.946000 Z-0.125000
G01 X49.786000 Y32.042100 Z-0.125000
G01 X49.504100 Y31.883300 Z-0.125000
G01 X49.234200 Y31.470200 Z-0.125000
G01 X48.749800 Y29.883100 Z-0.125000
G01 X48.220400 Y26.212400 Z-0.125000
G01 X48.156200 Y22.625200 Z-0.125000
G01 X48.581800 Y18.970100 Z-0.125000
G01 X48.904700 Y17.514900 Z-0.125000
G01 X49.241000 Y16.639500 Z-0.125000
G01 X49.492000 Y16.398900 Z-0.125000
G01 X49.780100 Y16.358700 Z-0.125000
G01 X50.078100 Y16.513600 Z-0.125000
G01 X50.358600 Y16.858100 Z-0.125000
G01 X50.358600 Y16.858100 Z-0.125000
G00 Z5.000000

(End cutting path id: path888)


(Start cutting path id: path888)
(Change tool to Default tool)

G00 Z5.000000
G00 X50.927400 Y12.065800

G01 Z-0.125000 F100.0(Penetrate)
G01 X51.267900 Y13.189200 Z-0.125000 F400.000000
G01 X51.507400 Y13.719000 Z-0.125000
G01 X51.294100 Y14.273000 Z-0.125000
G01 X50.974200 Y15.506600 Z-0.125000
G01 X50.813900 Y16.336900 Z-0.125000
G01 X50.659200 Y15.592700 Z-0.125000
G01 X50.318700 Y14.469300 Z-0.125000
G01 X50.079200 Y13.939500 Z-0.125000
G01 X50.292500 Y13.385500 Z-0.125000
G01 X50.612400 Y12.151900 Z-0.125000
G01 X50.772700 Y11.321600 Z-0.125000
G01 X50.927400 Y12.065800 Z-0.125000
G01 X50.927400 Y12.065800 Z-0.125000
G00 Z5.000000

(End cutting path id: path888)


(Start cutting path id: path888)
(Change tool to Default tool)

G00 Z5.000000
G00 X48.878300 Y11.411600

G01 Z-0.125000 F100.0(Penetrate)
G01 X49.218800 Y12.535000 Z-0.125000 F400.000000
G01 X49.458300 Y13.064800 Z-0.125000
G01 X49.245000 Y13.618800 Z-0.125000
G01 X48.925100 Y14.852400 Z-0.125000
G01 X48.764800 Y15.682700 Z-0.125000
G01 X48.610100 Y14.938500 Z-0.125000
G01 X48.269600 Y13.815100 Z-0.125000
G01 X48.030100 Y13.285300 Z-0.125000
G01 X48.243400 Y12.731300 Z-0.125000
G01 X48.563300 Y11.497700 Z-0.125000
G01 X48.723600 Y10.667400 Z-0.125000
G01 X48.878300 Y11.411600 Z-0.125000
G01 X48.878300 Y11.411600 Z-0.125000
G00 Z5.000000

(End cutting path id: path888)


(Start cutting path id: path888)
(Change tool to Default tool)

G00 Z5.000000
G00 X49.303100 Y9.276200

G01 Z-0.125000 F100.0(Penetrate)
G01 X48.567900 Y9.720100 Z-0.125000 F400.000000
G01 X47.898900 Y10.472600 Z-0.125000
G01 X47.326700 Y11.489700 Z-0.125000
G01 X46.882500 Y12.727400 Z-0.125000
G01 X46.426000 Y14.969400 Z-0.125000
G01 X46.129200 Y17.786800 Z-0.125000
G01 X45.998200 Y21.093900 Z-0.125000
G01 X46.039000 Y24.805300 Z-0.125000
G01 X46.234900 Y28.552000 Z-0.125000
G01 X46.558400 Y31.866200 Z-0.125000
G01 X47.006100 Y34.719200 Z-0.125000
G01 X47.574200 Y37.082200 Z-0.125000
G01 X48.071900 Y38.509800 Z-0.125000
G01 X48.590200 Y39.468500 Z-0.125000
G01 X49.164700 Y40.006800 Z-0.125000
G01 X49.830900 Y40.173500 Z-0.125000
G01 X50.356300 Y40.109100 Z-0.125000
G01 X50.808200 Y39.907000 Z-0.125000
G01 X51.610500 Y39.012800 Z-0.125000
G01 X52.189300 Y37.761900 Z-0.125000
G01 X52.649500 Y35.955800 Z-0.125000
G01 X53.023600 Y33.425600 Z-0.125000
G01 X53.344100 Y30.002400 Z-0.125000
G01 X53.562000 Y23.886400 Z-0.125000
G01 X53.514600 Y18.355200 Z-0.125000
G01 X53.170200 Y15.366800 Z-0.125000
G01 X52.628800 Y12.841300 Z-0.125000
G01 X51.927500 Y10.912000 Z-0.125000
G01 X51.103800 Y9.712700 Z-0.125000
G01 X50.217400 Y9.304300 Z-0.125000
G01 X49.303100 Y9.276200 Z-0.125000
G01 X49.303100 Y9.276200 Z-0.125000
G00 Z5.000000

(End cutting path id: path888)


(Start cutting path id: path888)
(Change tool to Default tool)

G00 Z5.000000
G00 X52.603900 Y23.404800

G01 Z-0.125000 F100.0(Penetrate)
G01 X52.944400 Y24.528200 Z-0.125000 F400.000000
G01 X53.183900 Y25.058000 Z-0.125000
G01 X52.970600 Y25.612000 Z-0.125000
G01 X52.650700 Y26.845700 Z-0.125000
G01 X52.490400 Y27.676000 Z-0.125000
G01 X52.335700 Y26.931800 Z-0.125000
G01 X51.995200 Y25.808300 Z-0.125000
G01 X51.755700 Y25.278500 Z-0.125000
G01 X51.969000 Y24.724600 Z-0.125000
G01 X52.288900 Y23.490900 Z-0.125000
G01 X52.449200 Y22.660600 Z-0.125000
G01 X52.603900 Y23.404800 Z-0.125000
G01 X52.603900 Y23.404800 Z-0.125000
G00 Z5.000000

(End cutting path id: path888)


(Start cutting path id: path894)
(Change tool to Default tool)

G00 Z5.000000
G00 X57.499400 Y35.235000

G01 Z-0.125000 F100.0(Penetrate)
G01 X56.940600 Y36.987500 Z-0.125000 F400.000000
G01 X56.724600 Y39.221300 Z-0.125000
G01 X56.840600 Y41.035300 Z-0.125000
G01 X57.146200 Y42.571000 Z-0.125000
G01 X57.585500 Y43.633600 Z-0.125000
G01 X57.837900 Y43.926600 Z-0.125000
G01 X58.102800 Y44.028300 Z-0.125000
G01 X58.383100 Y43.852600 Z-0.125000
G01 X58.681100 Y43.392600 Z-0.125000
G01 X59.138200 Y41.996500 Z-0.125000
G01 X59.272300 Y39.778200 Z-0.125000
G01 X59.179900 Y37.515900 Z-0.125000
G01 X58.838800 Y36.121500 Z-0.125000
G01 X58.423500 Y35.080200 Z-0.125000
G01 X58.209200 Y34.917000 Z-0.125000
G01 X57.951700 Y34.893800 Z-0.125000
G01 X57.499400 Y35.235000 Z-0.125000
G01 X57.499400 Y35.235000 Z-0.125000
G00 Z5.000000

(End cutting path id: path894)


(Start cutting path id: path894)
(Change tool to Default tool)

G00 Z5.000000
G00 X58.068100 Y38.014800

G01 Z-0.125000 F100.0(Penetrate)
G01 X58.408700 Y39.138200 Z-0.125000 F400.000000
G01 X58.648100 Y39.668000 Z-0.125000
G01 X58.434800 Y40.221900 Z-0.125000
G01 X58.114900 Y41.455600 Z-0.125000
G01 X57.954700 Y42.285900 Z-0.125000
G01 X57.799900 Y41.541700 Z-0.125000
G01 X57.459400 Y40.418300 Z-0.125000
G01 X57.220000 Y39.888500 Z-0.125000
G01 X57.433200 Y39.334500 Z-0.125000
G01 X57.753100 Y38.100800 Z-0.125000
G01 X57.913400 Y37.270500 Z-0.125000
G01 X58.068100 Y38.014800 Z-0.125000
G01 X58.068100 Y38.014800 Z-0.125000
G00 Z5.000000

(End cutting path id: path894)


(Start cutting path id: path856)
(Change tool to Default tool)

G00 Z5.000000
G00 X31.278400 Y35.040300

G01 Z-0.125000 F100.0(Penetrate)
G01 X31.618900 Y36.163700 Z-0.125000 F400.000000
G01 X31.858400 Y36.693500 Z-0.125000
G01 X31.645100 Y37.247500 Z-0.125000
G01 X31.325200 Y38.481200 Z-0.125000
G01 X31.164900 Y39.311500 Z-0.125000
G01 X31.010200 Y38.567300 Z-0.125000
G01 X30.669700 Y37.443800 Z-0.125000
G01 X30.430200 Y36.914000 Z-0.125000
G01 X30.643500 Y36.360100 Z-0.125000
G01 X30.963400 Y35.126400 Z-0.125000
G01 X31.123700 Y34.296100 Z-0.125000
G01 X31.278400 Y35.040300 Z-0.125000
G01 X31.278400 Y35.040300 Z-0.125000
G00 Z5.000000

(End cutting path id: path856)


(Start cutting path id: path856)
(Change tool to Default tool)

G00 Z5.000000
G00 X31.775200 Y28.062500

G01 Z-0.125000 F100.0(Penetrate)
G01 X32.115700 Y29.185900 Z-0.125000 F400.000000
G01 X32.355100 Y29.715700 Z-0.125000
G01 X32.141900 Y30.269600 Z-0.125000
G01 X31.822000 Y31.503300 Z-0.125000
G01 X31.661700 Y32.333600 Z-0.125000
G01 X31.507000 Y31.589400 Z-0.125000
G01 X31.166400 Y30.466000 Z-0.125000
G01 X30.927000 Y29.936200 Z-0.125000
G01 X31.140300 Y29.382200 Z-0.125000
G01 X31.460200 Y28.148600 Z-0.125000
G01 X31.620500 Y27.318300 Z-0.125000
G01 X31.775200 Y28.062500 Z-0.125000
G01 X31.775200 Y28.062500 Z-0.125000
G00 Z5.000000

(End cutting path id: path856)


(Start cutting path id: path856)
(Change tool to Default tool)

G00 Z5.000000
G00 X32.334000 Y22.392900

G01 Z-0.125000 F100.0(Penetrate)
G01 X32.674500 Y23.516400 Z-0.125000 F400.000000
G01 X32.914000 Y24.046200 Z-0.125000
G01 X32.700700 Y24.600100 Z-0.125000
G01 X32.380800 Y25.833800 Z-0.125000
G01 X32.220500 Y26.664100 Z-0.125000
G01 X32.065800 Y25.919800 Z-0.125000
G01 X31.725300 Y24.796400 Z-0.125000
G01 X31.485800 Y24.266700 Z-0.125000
G01 X31.699100 Y23.712700 Z-0.125000
G01 X32.019000 Y22.479000 Z-0.125000
G01 X32.179300 Y21.648700 Z-0.125000
G01 X32.334000 Y22.392900 Z-0.125000
G01 X32.334000 Y22.392900 Z-0.125000
G00 Z5.000000

(End cutting path id: path856)


(Start cutting path id: path856)
(Change tool to Default tool)

G00 Z5.000000
G00 X29.390200 Y6.514200

G01 Z-0.125000 F100.0(Penetrate)
G01 X29.312600 Y10.789400 Z-0.125000 F400.000000
G01 X29.312600 Y14.939800 Z-0.125000
G01 X29.452300 Y14.778600 Z-0.125000
G01 X30.094400 Y14.514200 Z-0.125000
G01 X30.531800 Y14.540500 Z-0.125000
G01 X30.895400 Y14.852500 Z-0.125000
G01 X31.544900 Y16.533600 Z-0.125000
G01 X31.858400 Y17.874200 Z-0.125000
G01 X30.775900 Y28.841100 Z-0.125000
G01 X29.705300 Y39.673100 Z-0.125000
G01 X31.906900 Y41.394500 Z-0.125000
G01 X32.502600 Y34.196700 Z-0.125000
G01 X33.132200 Y27.033700 Z-0.125000
G01 X33.331500 Y28.626600 Z-0.125000
G01 X34.127900 Y39.854000 Z-0.125000
G01 X34.188800 Y40.694700 Z-0.125000
G01 X34.243100 Y40.786800 Z-0.125000
G01 X34.334200 Y40.750900 Z-0.125000
G01 X35.352300 Y40.160600 Z-0.125000
G01 X36.042800 Y39.704900 Z-0.125000
G01 X36.178900 Y39.332300 Z-0.125000
G01 X35.744000 Y33.611200 Z-0.125000
G01 X34.843800 Y22.785000 Z-0.125000
G01 X34.022100 Y15.971000 Z-0.125000
G01 X33.433000 Y12.622000 Z-0.125000
G01 X32.762500 Y10.016200 Z-0.125000
G01 X32.001800 Y8.125900 Z-0.125000
G01 X31.142200 Y6.923300 Z-0.125000
G01 X30.181100 Y6.498400 Z-0.125000
G01 X29.672800 Y6.429900 Z-0.125000
G01 X29.390200 Y6.514200 Z-0.125000
G01 X29.390200 Y6.514200 Z-0.125000
G00 Z5.000000

(End cutting path id: path856)


(Start cutting path id: path927)
(Change tool to Default tool)

G00 Z5.000000
G00 X14.596400 Y12.222900

G01 Z-0.125000 F100.0(Penetrate)
G01 X14.596400 Y12.880100 Z-0.125000 F400.000000
G01 X14.022100 Y13.033300 Z-0.125000
G01 X13.219800 Y13.340600 Z-0.125000
G01 X12.492500 Y13.807100 Z-0.125000
G01 X11.861000 Y14.416600 Z-0.125000
G01 X11.345900 Y15.152500 Z-0.125000
G01 X10.805400 Y16.564600 Z-0.125000
G01 X10.431000 Y18.268800 Z-0.125000
G01 X10.272800 Y21.704900 Z-0.125000
G01 X10.503300 Y25.168800 Z-0.125000
G01 X10.925700 Y26.862800 Z-0.125000
G01 X11.583500 Y28.035700 Z-0.125000
G01 X12.109600 Y28.408300 Z-0.125000
G01 X12.723100 Y28.527400 Z-0.125000
G01 X13.333800 Y28.394000 Z-0.125000
G01 X13.851300 Y28.009000 Z-0.125000
G01 X14.301500 Y27.539100 Z-0.125000
G01 X14.347800 Y30.316500 Z-0.125000
G01 X14.231000 Y33.768400 Z-0.125000
G01 X13.858500 Y34.841300 Z-0.125000
G01 X13.575000 Y35.163400 Z-0.125000
G01 X13.232600 Y35.333000 Z-0.125000
G01 X12.841000 Y35.308900 Z-0.125000
G01 X12.516300 Y34.700900 Z-0.125000
G01 X11.899600 Y32.388100 Z-0.125000
G01 X11.690900 Y31.348200 Z-0.125000
G01 X11.488200 Y30.904900 Z-0.125000
G01 X11.125400 Y30.937400 Z-0.125000
G01 X10.436200 Y31.325000 Z-0.125000
G01 X9.597920 Y31.809700 Z-0.125000
G01 X9.609440 Y32.394800 Z-0.125000
G01 X10.029800 Y36.032000 Z-0.125000
G01 X10.796900 Y39.834400 Z-0.125000
G01 X11.257800 Y41.175700 Z-0.125000
G01 X11.776100 Y42.094500 Z-0.125000
G01 X12.377500 Y42.623700 Z-0.125000
G01 X13.087600 Y42.796600 Z-0.125000
G01 X13.821800 Y42.589200 Z-0.125000
G01 X14.472500 Y41.952700 Z-0.125000
G01 X15.040700 Y40.883700 Z-0.125000
G01 X15.527200 Y39.378200 Z-0.125000
G01 X15.933100 Y37.432500 Z-0.125000
G01 X16.259300 Y35.043000 Z-0.125000
G01 X16.676600 Y28.917500 Z-0.125000
G01 X16.729300 Y15.053400 Z-0.125000
G01 X16.688900 Y12.096200 Z-0.125000
G01 X16.372300 Y11.974200 Z-0.125000
G01 X15.326000 Y11.709000 Z-0.125000
G01 X14.596400 Y11.565700 Z-0.125000
G01 X14.596400 Y12.222900 Z-0.125000
G00 Z5.000000

(End cutting path id: path927)


(Start cutting path id: path927)
(Change tool to Default tool)

G00 Z5.000000
G00 X12.526200 Y15.415100

G01 Z-0.125000 F100.0(Penetrate)
G01 X12.866700 Y16.538500 Z-0.125000 F400.000000
G01 X13.106200 Y17.068300 Z-0.125000
G01 X12.892900 Y17.622200 Z-0.125000
G01 X12.573000 Y18.855900 Z-0.125000
G01 X12.412700 Y19.686200 Z-0.125000
G01 X12.258000 Y18.942000 Z-0.125000
G01 X11.917500 Y17.818600 Z-0.125000
G01 X11.678000 Y17.288800 Z-0.125000
G01 X11.891300 Y16.734800 Z-0.125000
G01 X12.211200 Y15.501100 Z-0.125000
G01 X12.371500 Y14.670800 Z-0.125000
G01 X12.526200 Y15.415100 Z-0.125000
G01 X12.526200 Y15.415100 Z-0.125000
G00 Z5.000000

(End cutting path id: path927)


(Start cutting path id: path927)
(Change tool to Default tool)

G00 Z5.000000
G00 X11.408600 Y20.648500

G01 Z-0.125000 F100.0(Penetrate)
G01 X11.749100 Y21.771900 Z-0.125000 F400.000000
G01 X11.988500 Y22.301700 Z-0.125000
G01 X11.775200 Y22.855700 Z-0.125000
G01 X11.455300 Y24.089300 Z-0.125000
G01 X11.295000 Y24.919600 Z-0.125000
G01 X11.140300 Y24.175400 Z-0.125000
G01 X10.799800 Y23.052000 Z-0.125000
G01 X10.560400 Y22.522200 Z-0.125000
G01 X10.773600 Y21.968200 Z-0.125000
G01 X11.093500 Y20.734600 Z-0.125000
G01 X11.253800 Y19.904300 Z-0.125000
G01 X11.408600 Y20.648500 Z-0.125000
G01 X11.408600 Y20.648500 Z-0.125000
G00 Z5.000000

(End cutting path id: path927)


(Start cutting path id: path927)
(Change tool to Default tool)

G00 Z5.000000
G00 X14.462100 Y20.439100

G01 Z-0.125000 F100.0(Penetrate)
G01 X14.363500 Y23.208600 Z-0.125000 F400.000000
G01 X14.124900 Y23.416900 Z-0.125000
G01 X13.549400 Y23.491500 Z-0.125000
G01 X12.914900 Y23.560900 Z-0.125000
G01 X12.873500 Y23.971000 Z-0.125000
G01 X13.175400 Y24.821900 Z-0.125000
G01 X13.416700 Y25.354500 Z-0.125000
G01 X13.203400 Y25.908500 Z-0.125000
G01 X12.883500 Y27.142100 Z-0.125000
G01 X12.723200 Y27.972400 Z-0.125000
G01 X12.568500 Y27.228200 Z-0.125000
G01 X12.228000 Y26.104800 Z-0.125000
G01 X11.988500 Y25.575000 Z-0.125000
G01 X12.199400 Y25.025500 Z-0.125000
G01 X12.510700 Y23.887400 Z-0.125000
G01 X12.517100 Y22.677000 Z-0.125000
G01 X12.431000 Y21.652800 Z-0.125000
G01 X12.586200 Y20.565600 Z-0.125000
G01 X12.995500 Y19.464400 Z-0.125000
G01 X13.739000 Y18.500600 Z-0.125000
G01 X14.193300 Y18.042900 Z-0.125000
G01 X14.326200 Y17.980200 Z-0.125000
G01 X14.410000 Y18.065300 Z-0.125000
G01 X14.462100 Y20.439100 Z-0.125000
G01 X14.462100 Y20.439100 Z-0.125000
G00 Z5.000000

(End cutting path id: path927)


(Footer)
M5
G00 X0.0000 Y0.0000
M2
(Using default footer. To add your own footer create file "footer" in the output dir.)
(end)
%