%
(Header)
(Generated by gcodetools from Inkscape.)
(Using default header. To add your own header create file "header" in the output dir.)
M3
(Header end.)
G21 (All units in mm)

(Start cutting path id: path897)
(Change tool to Default tool)

G00 Z5.000000
G00 X70.632100 Y11.070300

G01 Z-0.125000 F100.0(Penetrate)
G01 X70.584000 Y11.654700 Z-0.125000 F400.000000
G01 X70.275100 Y11.851700 Z-0.125000
G01 X69.238500 Y12.268700 Z-0.125000
G01 X68.483000 Y12.720900 Z-0.125000
G01 X67.906100 Y13.286700 Z-0.125000
G01 X67.404800 Y14.044700 Z-0.125000
G01 X66.905100 Y15.182800 Z-0.125000
G01 X66.567000 Y16.581700 Z-0.125000
G01 X66.377100 Y18.320900 Z-0.125000
G01 X66.321900 Y20.480000 Z-0.125000
G01 X66.438300 Y23.249100 Z-0.125000
G01 X66.780900 Y25.288600 Z-0.125000
G01 X67.370100 Y26.674300 Z-0.125000
G01 X68.226600 Y27.481500 Z-0.125000
G01 X68.664800 Y27.631700 Z-0.125000
G01 X69.104100 Y27.564500 Z-0.125000
G01 X70.244100 Y26.674700 Z-0.125000
G01 X70.383800 Y26.534800 Z-0.125000
G01 X70.383800 Y29.416800 Z-0.125000
G01 X70.383800 Y32.298800 Z-0.125000
G01 X70.179000 Y33.017700 Z-0.125000
G01 X69.868800 Y33.734000 Z-0.125000
G01 X69.472100 Y34.151800 Z-0.125000
G01 X69.063500 Y34.225500 Z-0.125000
G01 X68.717700 Y33.909700 Z-0.125000
G01 X68.262200 Y32.514200 Z-0.125000
G01 X67.838900 Y30.565200 Z-0.125000
G01 X67.614300 Y29.638500 Z-0.125000
G01 X65.568100 Y30.777100 Z-0.125000
G01 X66.216600 Y36.029400 Z-0.125000
G01 X66.789000 Y38.657200 Z-0.125000
G01 X67.467000 Y40.526900 Z-0.125000
G01 X68.015400 Y41.284600 Z-0.125000
G01 X68.650400 Y41.715900 Z-0.125000
G01 X69.321900 Y41.801000 Z-0.125000
G01 X69.980200 Y41.520300 Z-0.125000
G01 X70.529600 Y40.951100 Z-0.125000
G01 X71.015400 Y40.096800 Z-0.125000
G01 X71.807900 Y37.478300 Z-0.125000
G01 X72.380200 Y33.556000 Z-0.125000
G01 X72.755000 Y28.221100 Z-0.125000
G01 X72.836800 Y20.782100 Z-0.125000
G01 X72.746700 Y15.068900 Z-0.125000
G01 X72.501000 Y14.310900 Z-0.125000
G01 X72.432800 Y12.534300 Z-0.125000
G01 X72.432800 Y10.912200 Z-0.125000
G01 X72.168900 Y10.797700 Z-0.125000
G01 X71.268600 Y10.548800 Z-0.125000
G01 X70.632100 Y10.414400 Z-0.125000
G01 X70.632100 Y11.070300 Z-0.125000
G00 Z5.000000

(End cutting path id: path897)


(Start cutting path id: path897)
(Change tool to Default tool)

G00 Z5.000000
G00 X71.675200 Y14.435100

G01 Z-0.125000 F100.0(Penetrate)
G01 X71.823600 Y15.258400 Z-0.125000 F400.000000
G01 X72.055600 Y15.784300 Z-0.125000
G01 X72.318400 Y16.200500 Z-0.125000
G01 X72.049600 Y16.565200 Z-0.125000
G01 X71.806300 Y17.056600 Z-0.125000
G01 X71.629300 Y17.878800 Z-0.125000
G01 X71.477700 Y18.827700 Z-0.125000
G01 X71.360600 Y17.825900 Z-0.125000
G01 X71.217000 Y16.950500 Z-0.125000
G01 X70.997900 Y16.435100 Z-0.125000
G01 X70.809200 Y15.939600 Z-0.125000
G01 X71.073800 Y15.484000 Z-0.125000
G01 X71.273800 Y15.101000 Z-0.125000
G01 X71.409200 Y14.367400 Z-0.125000
G01 X71.539000 Y13.502100 Z-0.125000
G01 X71.675200 Y14.435100 Z-0.125000
G01 X71.675200 Y14.435100 Z-0.125000
G00 Z5.000000

(End cutting path id: path897)


(Start cutting path id: path897)
(Change tool to Default tool)

G00 Z5.000000
G00 X70.508000 Y19.505600

G01 Z-0.125000 F100.0(Penetrate)
G01 X70.399300 Y22.176800 Z-0.125000 F400.000000
G01 X69.566100 Y22.333500 Z-0.125000
G01 X68.924800 Y22.255600 Z-0.125000
G01 X68.681300 Y21.804900 Z-0.125000
G01 X68.513000 Y20.625100 Z-0.125000
G01 X68.688400 Y19.431200 Z-0.125000
G01 X69.185000 Y18.301700 Z-0.125000
G01 X69.980200 Y17.314600 Z-0.125000
G01 X70.297800 Y17.033800 Z-0.125000
G01 X70.453100 Y17.145400 Z-0.125000
G01 X70.508000 Y19.505600 Z-0.125000
G01 X70.508000 Y19.505600 Z-0.125000
G00 Z5.000000

(End cutting path id: path897)


(Start cutting path id: path897)
(Change tool to Default tool)

G00 Z5.000000
G00 X71.799400 Y22.939400

G01 Z-0.125000 F100.0(Penetrate)
G01 X71.947800 Y23.762700 Z-0.125000 F400.000000
G01 X72.179800 Y24.288600 Z-0.125000
G01 X72.442600 Y24.704800 Z-0.125000
G01 X72.173800 Y25.069500 Z-0.125000
G01 X71.930500 Y25.560900 Z-0.125000
G01 X71.753500 Y26.383100 Z-0.125000
G01 X71.601900 Y27.331900 Z-0.125000
G01 X71.484800 Y26.330200 Z-0.125000
G01 X71.341200 Y25.454800 Z-0.125000
G01 X71.122100 Y24.939400 Z-0.125000
G01 X70.933300 Y24.443900 Z-0.125000
G01 X71.198000 Y23.988300 Z-0.125000
G01 X71.398000 Y23.605300 Z-0.125000
G01 X71.533400 Y22.871600 Z-0.125000
G01 X71.663200 Y22.006400 Z-0.125000
G01 X71.799400 Y22.939400 Z-0.125000
G01 X71.799400 Y22.939400 Z-0.125000
G00 Z5.000000

(End cutting path id: path897)


(Start cutting path id: path897)
(Change tool to Default tool)

G00 Z5.000000
G00 X71.551100 Y31.007600

G01 Z-0.125000 F100.0(Penetrate)
G01 X71.699400 Y31.830900 Z-0.125000 F400.000000
G01 X71.931400 Y32.356800 Z-0.125000
G01 X72.194200 Y32.773000 Z-0.125000
G01 X71.925500 Y33.137700 Z-0.125000
G01 X71.682100 Y33.629000 Z-0.125000
G01 X71.505100 Y34.451200 Z-0.125000
G01 X71.353500 Y35.400100 Z-0.125000
G01 X71.236400 Y34.398400 Z-0.125000
G01 X71.092800 Y33.523000 Z-0.125000
G01 X70.873700 Y33.007600 Z-0.125000
G01 X70.685000 Y32.512100 Z-0.125000
G01 X70.949600 Y32.056400 Z-0.125000
G01 X71.149600 Y31.673400 Z-0.125000
G01 X71.285000 Y30.939800 Z-0.125000
G01 X71.414800 Y30.074600 Z-0.125000
G01 X71.551100 Y31.007600 Z-0.125000
G01 X71.551100 Y31.007600 Z-0.125000
G00 Z5.000000

(End cutting path id: path897)


(Start cutting path id: path897)
(Change tool to Default tool)

G00 Z5.000000
G00 X69.315700 Y36.241000

G01 Z-0.125000 F100.0(Penetrate)
G01 X69.464100 Y37.064300 Z-0.125000 F400.000000
G01 X69.696000 Y37.590200 Z-0.125000
G01 X69.958900 Y38.006400 Z-0.125000
G01 X69.690100 Y38.371100 Z-0.125000
G01 X69.446700 Y38.862400 Z-0.125000
G01 X69.269700 Y39.684600 Z-0.125000
G01 X69.118100 Y40.633500 Z-0.125000
G01 X69.001100 Y39.631800 Z-0.125000
G01 X68.857500 Y38.756400 Z-0.125000
G01 X68.638300 Y38.241000 Z-0.125000
G01 X68.449600 Y37.745500 Z-0.125000
G01 X68.714200 Y37.289900 Z-0.125000
G01 X68.914300 Y36.906900 Z-0.125000
G01 X69.049600 Y36.173200 Z-0.125000
G01 X69.179500 Y35.308000 Z-0.125000
G01 X69.315700 Y36.241000 Z-0.125000
G01 X69.315700 Y36.241000 Z-0.125000
G00 Z5.000000

(End cutting path id: path897)


(Start cutting path id: path905)
(Change tool to Default tool)

G00 Z5.000000
G00 X54.896000 Y32.543400

G01 Z-0.125000 F100.0(Penetrate)
G01 X55.260500 Y33.809200 Z-0.125000 F400.000000
G01 X55.558400 Y34.381900 Z-0.125000
G01 X55.287000 Y34.696300 Z-0.125000
G01 X55.037600 Y35.147900 Z-0.125000
G01 X54.856900 Y36.029400 Z-0.125000
G01 X54.698200 Y37.048100 Z-0.125000
G01 X54.590800 Y35.999200 Z-0.125000
G01 X54.454300 Y35.067200 Z-0.125000
G01 X54.224600 Y34.510000 Z-0.125000
G01 X53.965700 Y34.069800 Z-0.125000
G01 X54.251000 Y33.687100 Z-0.125000
G01 X54.500900 Y33.209300 Z-0.125000
G01 X54.646000 Y32.450500 Z-0.125000
G01 X54.779500 Y31.760800 Z-0.125000
G01 X54.896000 Y32.543400 Z-0.125000
G01 X54.896000 Y32.543400 Z-0.125000
G00 Z5.000000

(End cutting path id: path905)


(Start cutting path id: path905)
(Change tool to Default tool)

G00 Z5.000000
G00 X54.785800 Y41.256400

G01 Z-0.125000 F100.0(Penetrate)
G01 X54.934200 Y42.079600 Z-0.125000 F400.000000
G01 X55.166200 Y42.605600 Z-0.125000
G01 X55.429000 Y43.021800 Z-0.125000
G01 X55.160200 Y43.386400 Z-0.125000
G01 X54.916900 Y43.877800 Z-0.125000
G01 X54.739900 Y44.700000 Z-0.125000
G01 X54.588300 Y45.648880 Z-0.125000
G01 X54.471200 Y44.647100 Z-0.125000
G01 X54.327600 Y43.771800 Z-0.125000
G01 X54.108500 Y43.256300 Z-0.125000
G01 X53.919800 Y42.760800 Z-0.125000
G01 X54.184400 Y42.305200 Z-0.125000
G01 X54.384400 Y41.922200 Z-0.125000
G01 X54.519800 Y41.188600 Z-0.125000
G01 X54.649600 Y40.323400 Z-0.125000
G01 X54.785800 Y41.256400 Z-0.125000
G01 X54.785800 Y41.256400 Z-0.125000
G00 Z5.000000

(End cutting path id: path905)


(Start cutting path id: path905)
(Change tool to Default tool)

G00 Z5.000000
G00 X55.020200 Y23.821100

G01 Z-0.125000 F100.0(Penetrate)
G01 X55.384700 Y25.086800 Z-0.125000 F400.000000
G01 X55.682600 Y25.659600 Z-0.125000
G01 X55.411200 Y25.973900 Z-0.125000
G01 X55.161900 Y26.425200 Z-0.125000
G01 X54.981500 Y27.304800 Z-0.125000
G01 X54.823100 Y28.321400 Z-0.125000
G01 X54.728100 Y27.399000 Z-0.125000
G01 X54.595000 Y26.558200 Z-0.125000
G01 X54.358600 Y25.939200 Z-0.125000
G01 X54.084200 Y25.401700 Z-0.125000
G01 X54.374000 Y24.979700 Z-0.125000
G01 X54.625800 Y24.470200 Z-0.125000
G01 X54.771800 Y23.715900 Z-0.125000
G01 X54.903900 Y23.037600 Z-0.125000
G01 X55.020200 Y23.821100 Z-0.125000
G01 X55.020200 Y23.821100 Z-0.125000
G00 Z5.000000

(End cutting path id: path905)


(Start cutting path id: path905)
(Change tool to Default tool)

G00 Z5.000000
G00 X55.488200 Y17.329000

G01 Z-0.125000 F100.0(Penetrate)
G01 X55.677000 Y17.823800 Z-0.125000 F400.000000
G01 X55.415500 Y18.276300 Z-0.125000
G01 X55.214800 Y18.668900 Z-0.125000
G01 X55.067700 Y19.443100 Z-0.125000
G01 X54.940900 Y20.362200 Z-0.125000
G01 X54.817100 Y19.379100 Z-0.125000
G01 X54.664500 Y18.513300 Z-0.125000
G01 X54.430500 Y17.979800 Z-0.125000
G01 X54.167600 Y17.563600 Z-0.125000
G01 X54.436400 Y17.198900 Z-0.125000
G01 X54.679800 Y16.707500 Z-0.125000
G01 X54.856800 Y15.885300 Z-0.125000
G01 X55.008400 Y14.936500 Z-0.125000
G01 X55.125400 Y15.938200 Z-0.125000
G01 X55.269000 Y16.813600 Z-0.125000
G01 X55.488200 Y17.329000 Z-0.125000
G01 X55.488200 Y17.329000 Z-0.125000
G00 Z5.000000

(End cutting path id: path905)


(Start cutting path id: path905)
(Change tool to Default tool)

G00 Z5.000000
G00 X53.990800 Y11.247900

G01 Z-0.125000 F100.0(Penetrate)
G01 X53.804800 Y28.330100 Z-0.125000 F400.000000
G01 X53.618800 Y46.374490 Z-0.125000
G01 X53.618600 Y47.737360 Z-0.125000
G01 X54.551900 Y47.737360 Z-0.125000
G01 X55.283600 Y47.676870 Z-0.125000
G01 X55.509900 Y47.464790 Z-0.125000
G01 X56.222400 Y11.892100 Z-0.125000
G01 X55.326200 Y11.447300 Z-0.125000
G01 X54.224000 Y10.970600 Z-0.125000
G01 X54.033500 Y10.942700 Z-0.125000
G01 X53.990900 Y11.247900 Z-0.125000
G01 X53.990800 Y11.247900 Z-0.125000
G00 Z5.000000

(End cutting path id: path905)


(Start cutting path id: path916)
(Change tool to Default tool)

G00 Z5.000000
G00 X24.667900 Y13.158000

G01 Z-0.125000 F100.0(Penetrate)
G01 X24.804300 Y13.930300 Z-0.125000 F400.000000
G01 X25.024300 Y14.409600 Z-0.125000
G01 X25.275200 Y14.888900 Z-0.125000
G01 X25.024300 Y15.368200 Z-0.125000
G01 X24.804300 Y15.847500 Z-0.125000
G01 X24.667900 Y16.619800 Z-0.125000
G01 X24.531400 Y17.501200 Z-0.125000
G01 X24.394900 Y16.619800 Z-0.125000
G01 X24.258400 Y15.847500 Z-0.125000
G01 X24.038500 Y15.368200 Z-0.125000
G01 X23.787500 Y14.888900 Z-0.125000
G01 X24.038500 Y14.409600 Z-0.125000
G01 X24.258400 Y13.930300 Z-0.125000
G01 X24.394900 Y13.158000 Z-0.125000
G01 X24.531400 Y12.276600 Z-0.125000
G01 X24.667900 Y13.158000 Z-0.125000
G01 X24.667900 Y13.158000 Z-0.125000
G00 Z5.000000

(End cutting path id: path916)


(Start cutting path id: path916)
(Change tool to Default tool)

G00 Z5.000000
G00 X23.577200 Y20.043600

G01 Z-0.125000 F100.0(Penetrate)
G01 X23.498100 Y37.367600 Z-0.125000 F400.000000
G01 X23.459000 Y44.909300 Z-0.125000
G01 X24.041800 Y45.217730 Z-0.125000
G01 X24.732000 Y45.454110 Z-0.125000
G01 X25.489100 Y45.514930 Z-0.125000
G01 X26.188300 Y45.404440 Z-0.125000
G01 X26.704700 Y45.126900 Z-0.125000
G01 X27.517000 Y44.052300 Z-0.125000
G01 X28.159400 Y42.560100 Z-0.125000
G01 X28.748500 Y40.050900 Z-0.125000
G01 X29.113500 Y37.097700 Z-0.125000
G01 X29.223200 Y34.092000 Z-0.125000
G01 X29.046400 Y31.425300 Z-0.125000
G01 X28.648700 Y29.456000 Z-0.125000
G01 X28.039500 Y27.689700 Z-0.125000
G01 X27.231900 Y26.156500 Z-0.125000
G01 X26.239000 Y24.886900 Z-0.125000
G01 X25.542900 Y24.156100 Z-0.125000
G01 X25.651000 Y18.259500 Z-0.125000
G01 X25.772700 Y11.584900 Z-0.125000
G01 X25.773200 Y10.788600 Z-0.125000
G01 X25.416200 Y10.663200 Z-0.125000
G01 X24.338200 Y10.399500 Z-0.125000
G01 X23.617300 Y10.261200 Z-0.125000
G01 X23.577200 Y20.043600 Z-0.125000
G00 Z5.000000

(End cutting path id: path916)


(Start cutting path id: path916)
(Change tool to Default tool)

G00 Z5.000000
G00 X24.667900 Y21.008100

G01 Z-0.125000 F100.0(Penetrate)
G01 X24.804300 Y21.780400 Z-0.125000 F400.000000
G01 X25.024300 Y22.259700 Z-0.125000
G01 X25.275200 Y22.739000 Z-0.125000
G01 X25.024300 Y23.218300 Z-0.125000
G01 X24.804300 Y23.697600 Z-0.125000
G01 X24.667900 Y24.469900 Z-0.125000
G01 X24.531400 Y25.351300 Z-0.125000
G01 X24.394900 Y24.469900 Z-0.125000
G01 X24.258400 Y23.697600 Z-0.125000
G01 X24.038500 Y23.218300 Z-0.125000
G01 X23.787500 Y22.739000 Z-0.125000
G01 X24.038500 Y22.259700 Z-0.125000
G01 X24.258400 Y21.780400 Z-0.125000
G01 X24.394900 Y21.008100 Z-0.125000
G01 X24.531400 Y20.126800 Z-0.125000
G01 X24.667900 Y21.008100 Z-0.125000
G01 X24.667900 Y21.008100 Z-0.125000
G00 Z5.000000

(End cutting path id: path916)


(Start cutting path id: path916)
(Change tool to Default tool)

G00 Z5.000000
G00 X24.667900 Y29.730500

G01 Z-0.125000 F100.0(Penetrate)
G01 X24.804300 Y30.502800 Z-0.125000 F400.000000
G01 X25.024300 Y30.982100 Z-0.125000
G01 X25.275200 Y31.461400 Z-0.125000
G01 X25.024300 Y31.940600 Z-0.125000
G01 X24.804300 Y32.419900 Z-0.125000
G01 X24.667900 Y33.192300 Z-0.125000
G01 X24.531400 Y34.073600 Z-0.125000
G01 X24.394900 Y33.192300 Z-0.125000
G01 X24.258400 Y32.419900 Z-0.125000
G01 X24.038500 Y31.940600 Z-0.125000
G01 X23.787500 Y31.461400 Z-0.125000
G01 X24.038500 Y30.982100 Z-0.125000
G01 X24.258400 Y30.502800 Z-0.125000
G01 X24.394900 Y29.730500 Z-0.125000
G01 X24.531400 Y28.849100 Z-0.125000
G01 X24.667900 Y29.730500 Z-0.125000
G01 X24.667900 Y29.730500 Z-0.125000
G00 Z5.000000

(End cutting path id: path916)


(Start cutting path id: path916)
(Change tool to Default tool)

G00 Z5.000000
G00 X26.120000 Y32.652900

G01 Z-0.125000 F100.0(Penetrate)
G01 X26.850400 Y34.311900 Z-0.125000 F400.000000
G01 X26.989000 Y35.818800 Z-0.125000
G01 X26.530700 Y37.219700 Z-0.125000
G01 X25.470400 Y38.560700 Z-0.125000
G01 X25.322800 Y38.704300 Z-0.125000
G01 X25.363300 Y36.772800 Z-0.125000
G01 X25.513800 Y31.679400 Z-0.125000
G01 X26.120000 Y32.652900 Z-0.125000
G01 X26.120000 Y32.652900 Z-0.125000
G00 Z5.000000

(End cutting path id: path916)


(Start cutting path id: path916)
(Change tool to Default tool)

G00 Z5.000000
G00 X24.667900 Y38.452800

G01 Z-0.125000 F100.0(Penetrate)
G01 X24.804300 Y39.225100 Z-0.125000 F400.000000
G01 X25.024300 Y39.704400 Z-0.125000
G01 X25.275200 Y40.183700 Z-0.125000
G01 X25.024300 Y40.663000 Z-0.125000
G01 X24.804300 Y41.142300 Z-0.125000
G01 X24.667900 Y41.914600 Z-0.125000
G01 X24.531400 Y42.796000 Z-0.125000
G01 X24.394900 Y41.914600 Z-0.125000
G01 X24.258400 Y41.142300 Z-0.125000
G01 X24.038500 Y40.663000 Z-0.125000
G01 X23.787500 Y40.183700 Z-0.125000
G01 X24.038500 Y39.704400 Z-0.125000
G01 X24.258400 Y39.225100 Z-0.125000
G01 X24.394900 Y38.452800 Z-0.125000
G01 X24.531400 Y37.571400 Z-0.125000
G01 X24.667900 Y38.452800 Z-0.125000
G01 X24.667900 Y38.452800 Z-0.125000
G00 Z5.000000

(End cutting path id: path916)


(Start cutting path id: path922)
(Change tool to Default tool)

G00 Z5.000000
G00 X3.742380 Y38.016700

G01 Z-0.125000 F100.0(Penetrate)
G01 X3.878860 Y38.789000 Z-0.125000 F400.000000
G01 X4.098790 Y39.268300 Z-0.125000
G01 X4.349760 Y39.747600 Z-0.125000
G01 X4.098790 Y40.226900 Z-0.125000
G01 X3.878860 Y40.706200 Z-0.125000
G01 X3.742380 Y41.478500 Z-0.125000
G01 X3.605910 Y42.359900 Z-0.125000
G01 X3.469430 Y41.478500 Z-0.125000
G01 X3.332950 Y40.706200 Z-0.125000
G01 X3.113020 Y40.226900 Z-0.125000
G01 X2.862050 Y39.747600 Z-0.125000
G01 X3.113020 Y39.268300 Z-0.125000
G01 X3.332950 Y38.789000 Z-0.125000
G01 X3.469430 Y38.016700 Z-0.125000
G01 X3.605910 Y37.135300 Z-0.125000
G01 X3.742380 Y38.016700 Z-0.125000
G01 X3.742380 Y38.016700 Z-0.125000
G00 Z5.000000

(End cutting path id: path922)


(Start cutting path id: path922)
(Change tool to Default tool)

G00 Z5.000000
G00 X3.742380 Y29.294300

G01 Z-0.125000 F100.0(Penetrate)
G01 X3.878860 Y30.066700 Z-0.125000 F400.000000
G01 X4.098790 Y30.546000 Z-0.125000
G01 X4.349760 Y31.025200 Z-0.125000
G01 X4.098790 Y31.504500 Z-0.125000
G01 X3.878860 Y31.983800 Z-0.125000
G01 X3.742380 Y32.756100 Z-0.125000
G01 X3.605910 Y33.637500 Z-0.125000
G01 X3.469430 Y32.756100 Z-0.125000
G01 X3.332950 Y31.983800 Z-0.125000
G01 X3.113020 Y31.504500 Z-0.125000
G01 X2.862050 Y31.025200 Z-0.125000
G01 X3.113020 Y30.546000 Z-0.125000
G01 X3.332950 Y30.066700 Z-0.125000
G01 X3.469430 Y29.294300 Z-0.125000
G01 X3.605910 Y28.413000 Z-0.125000
G01 X3.742380 Y29.294300 Z-0.125000
G01 X3.742380 Y29.294300 Z-0.125000
G00 Z5.000000

(End cutting path id: path922)


(Start cutting path id: path922)
(Change tool to Default tool)

G00 Z5.000000
G00 X2.654500 Y25.410200

G01 Z-0.125000 F100.0(Penetrate)
G01 X2.509210 Y42.778100 Z-0.125000 F400.000000
G01 X2.470360 Y45.481470 Z-0.125000
G01 X3.053660 Y45.345250 Z-0.125000
G01 X4.366550 Y45.065370 Z-0.125000
G01 X5.096150 Y44.921700 Z-0.125000
G01 X5.096150 Y38.300600 Z-0.125000
G01 X5.096150 Y31.679400 Z-0.125000
G01 X5.961650 Y31.679400 Z-0.125000
G01 X6.827150 Y31.679400 Z-0.125000
G01 X6.859920 Y32.606200 Z-0.125000
G01 X6.915770 Y38.603900 Z-0.125000
G01 X6.975640 Y43.803900 Z-0.125000
G01 X8.106980 Y43.570700 Z-0.125000
G01 X9.243070 Y43.138000 Z-0.125000
G01 X8.969840 Y11.672500 Z-0.125000
G01 X8.938330 Y10.745800 Z-0.125000
G01 X7.787430 Y10.745800 Z-0.125000
G01 X6.636530 Y10.745800 Z-0.125000
G01 X6.682050 Y17.396600 Z-0.125000
G01 X6.727580 Y24.047400 Z-0.125000
G01 X5.921640 Y24.047400 Z-0.125000
G01 X5.115700 Y24.047400 Z-0.125000
G01 X5.075060 Y20.285900 Z-0.125000
G01 X5.034240 Y13.635100 Z-0.125000
G01 X5.034050 Y10.745800 Z-0.125000
G01 X3.897500 Y10.745800 Z-0.125000
G01 X2.760940 Y10.745800 Z-0.125000
G01 X2.654500 Y25.410200 Z-0.125000
G00 Z5.000000

(End cutting path id: path922)


(Start cutting path id: path922)
(Change tool to Default tool)

G00 Z5.000000
G00 X3.742380 Y20.572000

G01 Z-0.125000 F100.0(Penetrate)
G01 X3.878860 Y21.344300 Z-0.125000 F400.000000
G01 X4.098790 Y21.823600 Z-0.125000
G01 X4.349760 Y22.302900 Z-0.125000
G01 X4.098790 Y22.782200 Z-0.125000
G01 X3.878860 Y23.261500 Z-0.125000
G01 X3.742380 Y24.033800 Z-0.125000
G01 X3.605910 Y24.915200 Z-0.125000
G01 X3.469430 Y24.033800 Z-0.125000
G01 X3.332950 Y23.261500 Z-0.125000
G01 X3.113020 Y22.782200 Z-0.125000
G01 X2.862050 Y22.302900 Z-0.125000
G01 X3.113020 Y21.823600 Z-0.125000
G01 X3.332950 Y21.344300 Z-0.125000
G01 X3.469430 Y20.572000 Z-0.125000
G01 X3.605910 Y19.690600 Z-0.125000
G01 X3.742380 Y20.572000 Z-0.125000
G01 X3.742380 Y20.572000 Z-0.125000
G00 Z5.000000

(End cutting path id: path922)


(Start cutting path id: path922)
(Change tool to Default tool)

G00 Z5.000000
G00 X3.742380 Y12.721900

G01 Z-0.125000 F100.0(Penetrate)
G01 X3.878860 Y13.494200 Z-0.125000 F400.000000
G01 X4.098790 Y13.973500 Z-0.125000
G01 X4.349760 Y14.452800 Z-0.125000
G01 X4.098790 Y14.932100 Z-0.125000
G01 X3.878860 Y15.411400 Z-0.125000
G01 X3.742380 Y16.183700 Z-0.125000
G01 X3.605910 Y17.065100 Z-0.125000
G01 X3.469430 Y16.183700 Z-0.125000
G01 X3.332950 Y15.411400 Z-0.125000
G01 X3.113020 Y14.932100 Z-0.125000
G01 X2.862050 Y14.452800 Z-0.125000
G01 X3.113020 Y13.973500 Z-0.125000
G01 X3.332950 Y13.494200 Z-0.125000
G01 X3.469430 Y12.721900 Z-0.125000
G01 X3.605910 Y11.840500 Z-0.125000
G01 X3.742380 Y12.721900 Z-0.125000
G01 X3.742380 Y12.721900 Z-0.125000
G00 Z5.000000

(End cutting path id: path922)


(Footer)
M5
G00 X0.0000 Y0.0000
M2
(Using default footer. To add your own footer create file "footer" in the output dir.)
(end)
%