%
(Header)
(Generated by gcodetools from Inkscape.)
(Using default header. To add your own header create file "header" in the output dir.)
M3
(Header end.)
G21 (All units in mm)

(Start cutting path id: path26)
(Change tool to Default tool)

G00 Z5.000000
G00 X38.748869 Y36.004482

G01 Z-0.125000 F100.0(Penetrate)
G01 X37.981869 Y35.327382 Z-0.125000 F400.000000
G01 X37.548569 Y34.439482 Z-0.125000
G01 X37.479769 Y33.453882 Z-0.125000
G01 X37.806069 Y32.483782 Z-0.125000
G01 X38.482969 Y31.717382 Z-0.125000
G01 X39.370369 Y31.284182 Z-0.125000
G01 X40.355569 Y31.215382 Z-0.125000
G01 X41.325569 Y31.542182 Z-0.125000
G01 X42.092469 Y32.217882 Z-0.125000
G01 X42.525369 Y33.104982 Z-0.125000
G01 X42.594169 Y34.090282 Z-0.125000
G01 X42.268369 Y35.060482 Z-0.125000
G01 X41.591269 Y35.827182 Z-0.125000
G01 X40.703469 Y36.260282 Z-0.125000
G01 X39.718269 Y36.329382 Z-0.125000
G01 X38.748869 Y36.004482 Z-0.125000
G01 X38.748869 Y36.004482 Z-0.125000
G00 Z5.000000

(End cutting path id: path26)


(Start cutting path id: path26)
(Change tool to Default tool)

G00 Z5.000000
G00 X45.741769 Y34.920482

G01 Z-0.125000 F100.0(Penetrate)
G01 X45.723169 Y34.928482 Z-0.125000 F400.000000
G01 X45.683469 Y34.939182 Z-0.125000
G01 X45.210469 Y34.854982 Z-0.125000
G01 X44.953369 Y34.543382 Z-0.125000
G01 X44.790969 Y33.910482 Z-0.125000
G01 X44.660069 Y32.659282 Z-0.125000
G01 X44.208469 Y31.486982 Z-0.125000
G01 X43.453969 Y30.461982 Z-0.125000
G01 X42.414669 Y29.652882 Z-0.125000
G01 X41.476069 Y29.238482 Z-0.125000
G01 X40.501469 Y29.038482 Z-0.125000
G01 X39.522469 Y29.044382 Z-0.125000
G01 X38.570769 Y29.247882 Z-0.125000
G01 X38.234369 Y29.281582 Z-0.125000
G01 X37.748869 Y29.134082 Z-0.125000
G01 X37.276769 Y28.592582 Z-0.125000
G01 X36.980469 Y27.444082 Z-0.125000
G01 X36.979269 Y27.447982 Z-0.125000
G01 X36.979269 Y27.429582 Z-0.125000
G01 X36.979269 Y27.413882 Z-0.125000
G01 X36.981969 Y27.418982 Z-0.125000
G01 X37.283969 Y26.258382 Z-0.125000
G01 X37.764569 Y25.719882 Z-0.125000
G01 X38.254069 Y25.580982 Z-0.125000
G01 X38.582869 Y25.619182 Z-0.125000
G01 X38.623769 Y25.629782 Z-0.125000
G01 X38.634369 Y25.634882 Z-0.125000
G01 X39.572369 Y25.823182 Z-0.125000
G01 X40.534969 Y25.820382 Z-0.125000
G01 X41.492469 Y25.618082 Z-0.125000
G01 X42.414869 Y25.207782 Z-0.125000
G01 X43.451269 Y24.401982 Z-0.125000
G01 X44.204769 Y23.381382 Z-0.125000
G01 X44.657369 Y22.214482 Z-0.125000
G01 X44.791169 Y20.969782 Z-0.125000
G01 X44.997269 Y20.244482 Z-0.125000
G01 X45.318169 Y19.954182 Z-0.125000
G01 X45.743269 Y19.942582 Z-0.125000
G01 X45.740569 Y19.938282 Z-0.125000
G01 X46.702269 Y19.991982 Z-0.125000
G01 X47.647269 Y19.670682 Z-0.125000
G01 X48.414069 Y18.994782 Z-0.125000
G01 X48.847069 Y18.107082 Z-0.125000
G01 X48.915769 Y17.121082 Z-0.125000
G01 X48.589869 Y16.150282 Z-0.125000
G01 X47.912769 Y15.383782 Z-0.125000
G01 X47.025069 Y14.951482 Z-0.125000
G01 X46.039869 Y14.883182 Z-0.125000
G01 X45.070369 Y15.208682 Z-0.125000
G01 X44.319469 Y15.865882 Z-0.125000
G01 X43.886269 Y16.727682 Z-0.125000
G01 X43.885069 Y16.725282 Z-0.125000
G01 X43.881169 Y16.743682 Z-0.125000
G01 X43.870569 Y16.781782 Z-0.125000
G01 X43.562369 Y17.149182 Z-0.125000
G01 X43.163369 Y17.216582 Z-0.125000
G01 X42.532069 Y17.039982 Z-0.125000
G01 X41.383369 Y16.528482 Z-0.125000
G01 X40.142569 Y16.333582 Z-0.125000
G01 X38.878169 Y16.474482 Z-0.125000
G01 X37.658369 Y16.970082 Z-0.125000
G01 X36.829769 Y17.575782 Z-0.125000
G01 X36.169369 Y18.319882 Z-0.125000
G01 X35.685469 Y19.170382 Z-0.125000
G01 X35.386469 Y20.095482 Z-0.125000
G01 X35.247569 Y20.404582 Z-0.125000
G01 X34.876769 Y20.751882 Z-0.125000
G01 X34.171369 Y20.890382 Z-0.125000
G01 X33.028769 Y20.572782 Z-0.125000
G01 X33.029969 Y20.576682 Z-0.125000
G01 X33.002469 Y20.558382 Z-0.125000
G01 X33.006369 Y20.558382 Z-0.125000
G01 X32.152169 Y19.716582 Z-0.125000
G01 X31.926169 Y19.030882 Z-0.125000
G01 X32.050669 Y18.537282 Z-0.125000
G01 X32.248169 Y18.271682 Z-0.125000
G01 X32.278369 Y18.242982 Z-0.125000
G01 X32.286369 Y18.234982 Z-0.125000
G01 X32.919369 Y17.517182 Z-0.125000
G01 X33.399069 Y16.682182 Z-0.125000
G01 X33.703169 Y15.752382 Z-0.125000
G01 X33.809569 Y14.749782 Z-0.125000
G01 X33.629469 Y13.448982 Z-0.125000
G01 X33.122169 Y12.285682 Z-0.125000
G01 X32.337569 Y11.309782 Z-0.125000
G01 X31.325169 Y10.571182 Z-0.125000
G01 X30.800669 Y10.029682 Z-0.125000
G01 X30.709869 Y9.606082 Z-0.125000
G01 X30.912369 Y9.231482 Z-0.125000
G01 X30.907269 Y9.231482 Z-0.125000
G01 X31.435769 Y8.426182 Z-0.125000
G01 X31.629969 Y7.447082 Z-0.125000
G01 X31.427369 Y6.444482 Z-0.125000
G01 X30.875169 Y5.626082 Z-0.125000
G01 X30.056169 Y5.074382 Z-0.125000
G01 X29.053269 Y4.872082 Z-0.125000
G01 X28.050569 Y5.074382 Z-0.125000
G01 X27.231969 Y5.626082 Z-0.125000
G01 X26.680169 Y6.444582 Z-0.125000
G01 X26.477869 Y7.447082 Z-0.125000
G01 X26.671369 Y8.425882 Z-0.125000
G01 X27.199069 Y9.231482 Z-0.125000
G01 X27.213569 Y9.245782 Z-0.125000
G01 X27.238669 Y9.272082 Z-0.125000
G01 X27.403569 Y9.724182 Z-0.125000
G01 X27.262869 Y10.103682 Z-0.125000
G01 X26.794169 Y10.561782 Z-0.125000
G01 X25.776969 Y11.300882 Z-0.125000
G01 X24.988169 Y12.278582 Z-0.125000
G01 X24.478069 Y13.444782 Z-0.125000
G01 X24.296769 Y14.749782 Z-0.125000
G01 X24.406669 Y15.769682 Z-0.125000
G01 X24.720769 Y16.713182 Z-0.125000
G01 X25.215769 Y17.557482 Z-0.125000
G01 X25.868569 Y18.279682 Z-0.125000
G01 X26.066069 Y18.553682 Z-0.125000
G01 X26.180969 Y19.048082 Z-0.125000
G01 X25.947869 Y19.727982 Z-0.125000
G01 X25.101169 Y20.558282 Z-0.125000
G01 X25.103869 Y20.558282 Z-0.125000
G01 X25.076269 Y20.576682 Z-0.125000
G01 X25.078969 Y20.572782 Z-0.125000
G01 X23.922469 Y20.890482 Z-0.125000
G01 X23.215469 Y20.742282 Z-0.125000
G01 X22.850069 Y20.387282 Z-0.125000
G01 X22.718669 Y20.084582 Z-0.125000
G01 X22.709469 Y20.043982 Z-0.125000
G01 X22.706769 Y20.033082 Z-0.125000
G01 X22.401369 Y19.126382 Z-0.125000
G01 X21.917969 Y18.293382 Z-0.125000
G01 X21.264169 Y17.564482 Z-0.125000
G01 X20.447869 Y16.969882 Z-0.125000
G01 X19.232069 Y16.475182 Z-0.125000
G01 X17.971869 Y16.333282 Z-0.125000
G01 X16.734769 Y16.525882 Z-0.125000
G01 X15.588769 Y17.034682 Z-0.125000
G01 X14.857969 Y17.217582 Z-0.125000
G01 X14.445869 Y17.084882 Z-0.125000
G01 X14.222669 Y16.723582 Z-0.125000
G01 X14.219969 Y16.727482 Z-0.125000
G01 X13.787269 Y15.866182 Z-0.125000
G01 X13.037169 Y15.208482 Z-0.125000
G01 X12.066969 Y14.883082 Z-0.125000
G01 X11.081569 Y14.951382 Z-0.125000
G01 X10.194069 Y15.383682 Z-0.125000
G01 X9.517659 Y16.150082 Z-0.125000
G01 X9.191389 Y17.120982 Z-0.125000
G01 X9.260199 Y18.107082 Z-0.125000
G01 X9.693449 Y18.994782 Z-0.125000
G01 X10.460469 Y19.670582 Z-0.125000
G01 X11.089969 Y19.929782 Z-0.125000
G01 X11.742169 Y20.013782 Z-0.125000
G01 X12.365969 Y19.938382 Z-0.125000
G01 X12.391169 Y19.929482 Z-0.125000
G01 X12.418669 Y19.925082 Z-0.125000
G01 X12.891969 Y20.004282 Z-0.125000
G01 X13.152169 Y20.315682 Z-0.125000
G01 X13.316769 Y20.953682 Z-0.125000
G01 X13.447469 Y22.203482 Z-0.125000
G01 X13.898869 Y23.375182 Z-0.125000
G01 X14.652969 Y24.400282 Z-0.125000
G01 X15.691669 Y25.210082 Z-0.125000
G01 X16.630869 Y25.624482 Z-0.125000
G01 X17.605669 Y25.824382 Z-0.125000
G01 X18.584469 Y25.817982 Z-0.125000
G01 X19.535469 Y25.613482 Z-0.125000
G01 X19.871469 Y25.579682 Z-0.125000
G01 X20.357269 Y25.727082 Z-0.125000
G01 X20.829769 Y26.268982 Z-0.125000
G01 X21.125769 Y27.418982 Z-0.125000
G01 X21.126969 Y27.413882 Z-0.125000
G01 X21.126969 Y27.429582 Z-0.125000
G01 X21.126969 Y27.447882 Z-0.125000
G01 X21.125769 Y27.442782 Z-0.125000
G01 X20.823569 Y28.604382 Z-0.125000
G01 X20.342569 Y29.142782 Z-0.125000
G01 X19.852669 Y29.281082 Z-0.125000
G01 X19.523669 Y29.242682 Z-0.125000
G01 X19.483969 Y29.232082 Z-0.125000
G01 X19.472169 Y29.226782 Z-0.125000
G01 X18.534769 Y29.038582 Z-0.125000
G01 X17.572169 Y29.041282 Z-0.125000
G01 X16.614369 Y29.243282 Z-0.125000
G01 X15.691669 Y29.653082 Z-0.125000
G01 X14.656069 Y30.458782 Z-0.125000
G01 X13.902869 Y31.479382 Z-0.125000
G01 X13.449969 Y32.646682 Z-0.125000
G01 X13.315369 Y33.892382 Z-0.125000
G01 X13.110069 Y34.618182 Z-0.125000
G01 X12.789569 Y34.908882 Z-0.125000
G01 X12.364569 Y34.920782 Z-0.125000
G01 X12.365769 Y34.923482 Z-0.125000
G01 X11.404569 Y34.868782 Z-0.125000
G01 X10.460269 Y35.190982 Z-0.125000
G01 X9.693189 Y35.866982 Z-0.125000
G01 X9.259939 Y36.754982 Z-0.125000
G01 X9.191139 Y37.741182 Z-0.125000
G01 X9.517399 Y38.711682 Z-0.125000
G01 X10.193769 Y39.477182 Z-0.125000
G01 X11.081269 Y39.909782 Z-0.125000
G01 X12.066769 Y39.978782 Z-0.125000
G01 X13.036869 Y39.653282 Z-0.125000
G01 X13.786969 Y38.995982 Z-0.125000
G01 X14.219769 Y38.134282 Z-0.125000
G01 X14.220969 Y38.136982 Z-0.125000
G01 X14.226069 Y38.109182 Z-0.125000
G01 X14.234069 Y38.082882 Z-0.125000
G01 X14.541069 Y37.713982 Z-0.125000
G01 X14.940669 Y37.644882 Z-0.125000
G01 X15.574969 Y37.821782 Z-0.125000
G01 X16.722969 Y38.332782 Z-0.125000
G01 X17.963269 Y38.527682 Z-0.125000
G01 X19.227469 Y38.387182 Z-0.125000
G01 X20.447369 Y37.891682 Z-0.125000
G01 X21.276269 Y37.285382 Z-0.125000
G01 X21.937169 Y36.541682 Z-0.125000
G01 X22.421569 Y35.691582 Z-0.125000
G01 X22.720769 Y34.766382 Z-0.125000
G01 X22.858869 Y34.457182 Z-0.125000
G01 X23.228969 Y34.109982 Z-0.125000
G01 X23.934069 Y33.971982 Z-0.125000
G01 X25.077269 Y34.290282 Z-0.125000
G01 X25.076069 Y34.285182 Z-0.125000
G01 X25.105069 Y34.300882 Z-0.125000
G01 X25.099969 Y34.300882 Z-0.125000
G01 X25.954169 Y35.143182 Z-0.125000
G01 X26.180369 Y35.828982 Z-0.125000
G01 X26.056169 Y36.322582 Z-0.125000
G01 X25.859569 Y36.588682 Z-0.125000
G01 X25.827869 Y36.617682 Z-0.125000
G01 X25.818469 Y36.626882 Z-0.125000
G01 X25.186369 Y37.345182 Z-0.125000
G01 X24.707069 Y38.180182 Z-0.125000
G01 X24.403169 Y39.110082 Z-0.125000
G01 X24.296869 Y40.113282 Z-0.125000
G01 X24.476969 Y41.412982 Z-0.125000
G01 X24.984169 Y42.575282 Z-0.125000
G01 X25.768769 Y43.551082 Z-0.125000
G01 X26.781169 Y44.290892 Z-0.125000
G01 X27.305769 Y44.830772 Z-0.125000
G01 X27.396469 Y45.253602 Z-0.125000
G01 X27.193969 Y45.627922 Z-0.125000
G01 X27.199069 Y45.627922 Z-0.125000
G01 X26.670569 Y46.433782 Z-0.125000
G01 X26.476369 Y47.414742 Z-0.125000
G01 X26.678969 Y48.416762 Z-0.125000
G01 X27.231169 Y49.235372 Z-0.125000
G01 X28.050169 Y49.787462 Z-0.125000
G01 X29.053069 Y49.989952 Z-0.125000
G01 X30.055969 Y49.787462 Z-0.125000
G01 X30.874969 Y49.235372 Z-0.125000
G01 X31.427269 Y48.416762 Z-0.125000
G01 X31.629769 Y47.414742 Z-0.125000
G01 X31.435569 Y46.433872 Z-0.125000
G01 X30.907069 Y45.627922 Z-0.125000
G01 X30.909769 Y45.627922 Z-0.125000
G01 X30.886069 Y45.609312 Z-0.125000
G01 X30.874269 Y45.594812 Z-0.125000
G01 X30.702169 Y45.148742 Z-0.125000
G01 X30.838669 Y44.764392 Z-0.125000
G01 X31.313369 Y44.297182 Z-0.125000
G01 X32.330369 Y43.559582 Z-0.125000
G01 X33.118769 Y42.582982 Z-0.125000
G01 X33.628569 Y41.417382 Z-0.125000
G01 X33.809569 Y40.112982 Z-0.125000
G01 X33.699969 Y39.093582 Z-0.125000
G01 X33.386469 Y38.149782 Z-0.125000
G01 X32.892269 Y37.305082 Z-0.125000
G01 X32.240269 Y36.583182 Z-0.125000
G01 X32.042169 Y36.309882 Z-0.125000
G01 X31.926069 Y35.815282 Z-0.125000
G01 X32.158269 Y35.134082 Z-0.125000
G01 X33.005269 Y34.300582 Z-0.125000
G01 X33.001369 Y34.300582 Z-0.125000
G01 X33.031569 Y34.284882 Z-0.125000
G01 X33.028869 Y34.289982 Z-0.125000
G01 X34.182769 Y33.971482 Z-0.125000
G01 X34.889269 Y34.116882 Z-0.125000
G01 X35.255369 Y34.470182 Z-0.125000
G01 X35.387969 Y34.775282 Z-0.125000
G01 X35.399869 Y34.821482 Z-0.125000
G01 X35.401069 Y34.829482 Z-0.125000
G01 X35.706269 Y35.735982 Z-0.125000
G01 X36.189669 Y36.568182 Z-0.125000
G01 X36.843469 Y37.295982 Z-0.125000
G01 X37.659869 Y37.888782 Z-0.125000
G01 X38.875669 Y38.383682 Z-0.125000
G01 X40.135969 Y38.525982 Z-0.125000
G01 X41.372969 Y38.334582 Z-0.125000
G01 X42.519069 Y37.828082 Z-0.125000
G01 X43.249669 Y37.644782 Z-0.125000
G01 X43.661369 Y37.777582 Z-0.125000
G01 X43.883869 Y38.139382 Z-0.125000
G01 X43.886569 Y38.134282 Z-0.125000
G01 X44.319969 Y38.996182 Z-0.125000
G01 X45.070669 Y39.653382 Z-0.125000
G01 X46.040069 Y39.978782 Z-0.125000
G01 X47.025269 Y39.909582 Z-0.125000
G01 X47.913069 Y39.476182 Z-0.125000
G01 X48.590169 Y38.709082 Z-0.125000
G01 X48.915869 Y37.740182 Z-0.125000
G01 X48.847169 Y36.754682 Z-0.125000
G01 X48.414269 Y35.866982 Z-0.125000
G01 X47.647569 Y35.190982 Z-0.125000
G01 X46.702569 Y34.868782 Z-0.125000
G01 X45.740869 Y34.923482 Z-0.125000
G01 X45.741769 Y34.920482 Z-0.125000
G00 Z5.000000

(End cutting path id: path26)


(Start cutting path id: path26)
(Change tool to Default tool)

G00 Z5.000000
G00 X29.052969 Y37.536782

G01 Z-0.125000 F100.0(Penetrate)
G01 X30.055869 Y37.739182 Z-0.125000 F400.000000
G01 X30.874869 Y38.291182 Z-0.125000
G01 X31.427169 Y39.110082 Z-0.125000
G01 X31.629669 Y40.113482 Z-0.125000
G01 X31.427169 Y41.116182 Z-0.125000
G01 X30.874869 Y41.934782 Z-0.125000
G01 X30.055869 Y42.486582 Z-0.125000
G01 X29.052969 Y42.688982 Z-0.125000
G01 X28.050169 Y42.486582 Z-0.125000
G01 X27.231069 Y41.934782 Z-0.125000
G01 X26.678869 Y41.116182 Z-0.125000
G01 X26.476369 Y40.113482 Z-0.125000
G01 X26.678869 Y39.109982 Z-0.125000
G01 X27.231069 Y38.291082 Z-0.125000
G01 X28.050169 Y37.739182 Z-0.125000
G01 X29.052969 Y37.536782 Z-0.125000
G01 X29.052969 Y37.536782 Z-0.125000
G00 Z5.000000

(End cutting path id: path26)


(Start cutting path id: path26)
(Change tool to Default tool)

G00 Z5.000000
G00 X29.052969 Y32.186982

G01 Z-0.125000 F100.0(Penetrate)
G01 X28.094469 Y32.090282 Z-0.125000 F400.000000
G01 X27.201669 Y31.812982 Z-0.125000
G01 X26.393769 Y31.374282 Z-0.125000
G01 X25.689769 Y30.793282 Z-0.125000
G01 X25.108969 Y30.089082 Z-0.125000
G01 X24.670369 Y29.280982 Z-0.125000
G01 X24.393169 Y28.387982 Z-0.125000
G01 X24.296569 Y27.429282 Z-0.125000
G01 X24.393169 Y26.471582 Z-0.125000
G01 X24.670369 Y25.579182 Z-0.125000
G01 X25.108969 Y24.771282 Z-0.125000
G01 X25.689769 Y24.067182 Z-0.125000
G01 X26.393769 Y23.486082 Z-0.125000
G01 X27.201669 Y23.047282 Z-0.125000
G01 X28.094469 Y22.769882 Z-0.125000
G01 X29.052969 Y22.673082 Z-0.125000
G01 X30.011569 Y22.769882 Z-0.125000
G01 X30.904269 Y23.047282 Z-0.125000
G01 X31.712169 Y23.486082 Z-0.125000
G01 X32.416169 Y24.067182 Z-0.125000
G01 X32.996969 Y24.771282 Z-0.125000
G01 X33.435469 Y25.579182 Z-0.125000
G01 X33.712569 Y26.471582 Z-0.125000
G01 X33.809269 Y27.429282 Z-0.125000
G01 X33.712569 Y28.387982 Z-0.125000
G01 X33.435469 Y29.280982 Z-0.125000
G01 X32.996969 Y30.089082 Z-0.125000
G01 X32.416169 Y30.793282 Z-0.125000
G01 X31.712169 Y31.374282 Z-0.125000
G01 X30.904269 Y31.812982 Z-0.125000
G01 X30.011569 Y32.090282 Z-0.125000
G01 X29.052969 Y32.186982 Z-0.125000
G01 X29.052969 Y32.186982 Z-0.125000
G00 Z5.000000

(End cutting path id: path26)


(Start cutting path id: path26)
(Change tool to Default tool)

G00 Z5.000000
G00 X19.358269 Y36.004482

G01 Z-0.125000 F100.0(Penetrate)
G01 X18.388269 Y36.329482 Z-0.125000 F400.000000
G01 X17.402769 Y36.260382 Z-0.125000
G01 X16.515269 Y35.827282 Z-0.125000
G01 X15.838769 Y35.060482 Z-0.125000
G01 X15.512369 Y34.090282 Z-0.125000
G01 X15.580869 Y33.104982 Z-0.125000
G01 X16.014069 Y32.217882 Z-0.125000
G01 X16.781669 Y31.542182 Z-0.125000
G01 X17.751069 Y31.215282 Z-0.125000
G01 X18.736269 Y31.283982 Z-0.125000
G01 X19.624069 Y31.717282 Z-0.125000
G01 X20.301169 Y32.483782 Z-0.125000
G01 X20.626869 Y33.453882 Z-0.125000
G01 X20.558169 Y34.439482 Z-0.125000
G01 X20.125169 Y35.327382 Z-0.125000
G01 X19.358269 Y36.004482 Z-0.125000
G01 X19.358269 Y36.004482 Z-0.125000
G00 Z5.000000

(End cutting path id: path26)


(Start cutting path id: path26)
(Change tool to Default tool)

G00 Z5.000000
G00 X16.781669 Y23.320382

G01 Z-0.125000 F100.0(Penetrate)
G01 X16.014069 Y22.644282 Z-0.125000 F400.000000
G01 X15.580869 Y21.757082 Z-0.125000
G01 X15.512369 Y20.771682 Z-0.125000
G01 X15.838769 Y19.801082 Z-0.125000
G01 X16.515169 Y19.034182 Z-0.125000
G01 X17.402669 Y18.601082 Z-0.125000
G01 X18.388169 Y18.531982 Z-0.125000
G01 X19.358269 Y18.857082 Z-0.125000
G01 X20.125169 Y19.534682 Z-0.125000
G01 X20.558169 Y20.422582 Z-0.125000
G01 X20.626869 Y21.408282 Z-0.125000
G01 X20.301169 Y22.378982 Z-0.125000
G01 X19.624069 Y23.145182 Z-0.125000
G01 X18.736269 Y23.578082 Z-0.125000
G01 X17.751069 Y23.646782 Z-0.125000
G01 X16.781669 Y23.320382 Z-0.125000
G01 X16.781669 Y23.320382 Z-0.125000
G00 Z5.000000

(End cutting path id: path26)


(Start cutting path id: path26)
(Change tool to Default tool)

G00 Z5.000000
G00 X29.052969 Y17.324682

G01 Z-0.125000 F100.0(Penetrate)
G01 X28.050369 Y17.121482 Z-0.125000 F400.000000
G01 X27.231669 Y16.569082 Z-0.125000
G01 X26.679869 Y15.750682 Z-0.125000
G01 X26.477569 Y14.749282 Z-0.125000
G01 X26.679869 Y13.745882 Z-0.125000
G01 X27.231669 Y12.926982 Z-0.125000
G01 X28.050369 Y12.375082 Z-0.125000
G01 X29.052969 Y12.172882 Z-0.125000
G01 X30.055869 Y12.375182 Z-0.125000
G01 X30.874869 Y12.927082 Z-0.125000
G01 X31.427169 Y13.745982 Z-0.125000
G01 X31.629669 Y14.749282 Z-0.125000
G01 X31.427169 Y15.750882 Z-0.125000
G01 X30.874869 Y16.569682 Z-0.125000
G01 X30.055869 Y17.122082 Z-0.125000
G01 X29.052969 Y17.324682 Z-0.125000
G01 X29.052969 Y17.324682 Z-0.125000
G00 Z5.000000

(End cutting path id: path26)


(Start cutting path id: path26)
(Change tool to Default tool)

G00 Z5.000000
G00 X38.748869 Y18.857082

G01 Z-0.125000 F100.0(Penetrate)
G01 X39.718769 Y18.531982 Z-0.125000 F400.000000
G01 X40.703969 Y18.601182 Z-0.125000
G01 X41.591469 Y19.034282 Z-0.125000
G01 X42.268369 Y19.801082 Z-0.125000
G01 X42.594169 Y20.770682 Z-0.125000
G01 X42.525369 Y21.756082 Z-0.125000
G01 X42.092469 Y22.643882 Z-0.125000
G01 X41.325569 Y23.320382 Z-0.125000
G01 X40.355469 Y23.646782 Z-0.125000
G01 X39.370069 Y23.578082 Z-0.125000
G01 X38.482469 Y23.145182 Z-0.125000
G01 X37.806069 Y22.378982 Z-0.125000
G01 X37.479769 Y21.408282 Z-0.125000
G01 X37.548569 Y20.422582 Z-0.125000
G01 X37.981869 Y19.534682 Z-0.125000
G01 X38.748869 Y18.857082 Z-0.125000
G01 X38.748869 Y18.857082 Z-0.125000
G00 Z5.000000

(End cutting path id: path26)


(Start cutting path id: path26)
(Change tool to Default tool)

G00 Z5.000000
G00 X53.281469 Y52.804172

G01 Z-0.125000 F100.0(Penetrate)
G01 X4.824739 Y52.804172 Z-0.125000 F400.000000
G01 X4.357379 Y52.709782 Z-0.125000
G01 X3.975799 Y52.452422 Z-0.125000
G01 X3.718579 Y52.070752 Z-0.125000
G01 X3.624259 Y51.603452 Z-0.125000
G01 X3.624259 Y3.146682 Z-0.125000
G01 X3.718579 Y2.679482 Z-0.125000
G01 X3.975799 Y2.297882 Z-0.125000
G01 X4.357379 Y2.040582 Z-0.125000
G01 X4.824739 Y1.946182 Z-0.125000
G01 X53.281769 Y1.946182 Z-0.125000
G01 X53.749069 Y2.040582 Z-0.125000
G01 X54.130669 Y2.297882 Z-0.125000
G01 X54.387969 Y2.679482 Z-0.125000
G01 X54.482269 Y3.146682 Z-0.125000
G01 X54.482269 Y51.603452 Z-0.125000
G01 X54.387769 Y52.070752 Z-0.125000
G01 X54.130469 Y52.452422 Z-0.125000
G01 X53.748869 Y52.709782 Z-0.125000
G01 X53.281469 Y52.804172 Z-0.125000
G01 X53.281469 Y52.804172 Z-0.125000
G00 Z5.000000

(End cutting path id: path26)


(Footer)
M5
G00 X0.0000 Y0.0000
M2
(Using default footer. To add your own footer create file "footer" in the output dir.)
(end)
%