%
(Header)
(Generated by gcodetools from Inkscape.)
(Using default header. To add your own header create file "header" in the output dir.)
M3
(Header end.)
G21 (All units in mm)

(Start cutting path id: path895)
(Change tool to Default tool)

G00 Z5.000000
G00 X83.081900 Y9.608400

G01 Z-0.125000 F100.0(Penetrate)
G01 X81.992100 Y10.363800 Z-0.125000 F400.000000
G01 X80.685800 Y11.660800 Z-0.125000
G01 X79.961600 Y12.509500 Z-0.125000
G01 X80.910100 Y20.221400 Z-0.125000
G01 X81.532800 Y19.061600 Z-0.125000
G01 X82.476800 Y17.353400 Z-0.125000
G01 X83.269200 Y16.373900 Z-0.125000
G01 X83.612500 Y16.154000 Z-0.125000
G01 X83.922600 Y16.112200 Z-0.125000
G01 X84.201100 Y16.247200 Z-0.125000
G01 X84.449500 Y16.557600 Z-0.125000
G01 X84.757000 Y17.311800 Z-0.125000
G01 X84.931600 Y18.235600 Z-0.125000
G01 X84.959900 Y19.206000 Z-0.125000
G01 X84.829000 Y20.100000 Z-0.125000
G01 X84.446400 Y21.051700 Z-0.125000
G01 X83.578600 Y22.115300 Z-0.125000
G01 X82.381400 Y23.777400 Z-0.125000
G01 X81.558400 Y25.931300 Z-0.125000
G01 X81.119500 Y27.800500 Z-0.125000
G01 X80.798100 Y29.863300 Z-0.125000
G01 X80.615900 Y31.940200 Z-0.125000
G01 X80.594900 Y33.851300 Z-0.125000
G01 X80.803400 Y36.061000 Z-0.125000
G01 X81.232400 Y38.011700 Z-0.125000
G01 X81.848000 Y39.588600 Z-0.125000
G01 X82.616200 Y40.677200 Z-0.125000
G01 X83.241800 Y40.988800 Z-0.125000
G01 X84.137500 Y41.093200 Z-0.125000
G01 X85.118500 Y40.990300 Z-0.125000
G01 X86.000200 Y40.680000 Z-0.125000
G01 X86.798900 Y40.102600 Z-0.125000
G01 X86.163300 Y32.874700 Z-0.125000
G01 X85.680400 Y33.354300 Z-0.125000
G01 X84.688600 Y34.371800 Z-0.125000
G01 X84.260300 Y34.539800 Z-0.125000
G01 X83.918200 Y34.455100 Z-0.125000
G01 X83.401000 Y33.824100 Z-0.125000
G01 X83.134900 Y32.825900 Z-0.125000
G01 X83.139200 Y31.416100 Z-0.125000
G01 X83.632500 Y29.850700 Z-0.125000
G01 X84.771300 Y27.927300 Z-0.125000
G01 X85.630900 Y26.588700 Z-0.125000
G01 X86.202100 Y25.455100 Z-0.125000
G01 X86.565200 Y24.332600 Z-0.125000
G01 X86.800500 Y23.027700 Z-0.125000
G01 X86.999200 Y19.419000 Z-0.125000
G01 X86.699400 Y15.507200 Z-0.125000
G01 X86.129800 Y12.722000 Z-0.125000
G01 X85.441100 Y10.546500 Z-0.125000
G01 X84.998300 Y9.893600 Z-0.125000
G01 X84.446600 Y9.515300 Z-0.125000
G01 X83.802400 Y9.418200 Z-0.125000
G01 X83.081900 Y9.608700 Z-0.125000
G01 X83.081900 Y9.608400 Z-0.125000
G00 Z5.000000

(End cutting path id: path895)


(Start cutting path id: path903)
(Change tool to Default tool)

G00 Z5.000000
G00 X62.592900 Y25.594600

G01 Z-0.125000 F100.0(Penetrate)
G01 X62.962100 Y26.923000 Z-0.125000 F400.000000
G01 X63.181300 Y28.465900 Z-0.125000
G01 X63.239700 Y30.102100 Z-0.125000
G01 X63.126800 Y31.710000 Z-0.125000
G01 X62.717300 Y33.514100 Z-0.125000
G01 X62.058500 Y35.098400 Z-0.125000
G01 X61.670700 Y35.785800 Z-0.125000
G01 X61.711700 Y32.132200 Z-0.125000
G01 X61.752800 Y26.333700 Z-0.125000
G01 X61.752800 Y24.188800 Z-0.125000
G01 X62.066900 Y24.608000 Z-0.125000
G01 X62.592900 Y25.594600 Z-0.125000
G01 X62.592900 Y25.594600 Z-0.125000
G00 Z5.000000

(End cutting path id: path903)


(Start cutting path id: path903)
(Change tool to Default tool)

G00 Z5.000000
G00 X59.679000 Y28.886300

G01 Z-0.125000 F100.0(Penetrate)
G01 X59.537300 Y47.225650 Z-0.125000 F400.000000
G01 X60.231100 Y46.657590 Z-0.125000
G01 X61.940900 Y44.525200 Z-0.125000
G01 X63.307000 Y42.071500 Z-0.125000
G01 X64.310000 Y39.339100 Z-0.125000
G01 X64.930400 Y36.370600 Z-0.125000
G01 X65.156200 Y33.398200 Z-0.125000
G01 X65.240500 Y29.093300 Z-0.125000
G01 X65.159400 Y25.116900 Z-0.125000
G01 X64.866500 Y22.049000 Z-0.125000
G01 X64.299500 Y19.481500 Z-0.125000
G01 X63.396100 Y17.006300 Z-0.125000
G01 X62.068600 Y14.305700 Z-0.125000
G01 X60.459500 Y11.556100 Z-0.125000
G01 X59.869800 Y10.667400 Z-0.125000
G01 X59.679000 Y28.886300 Z-0.125000
G01 X59.679000 Y28.886300 Z-0.125000
G00 Z5.000000

(End cutting path id: path903)


(Start cutting path id: path896)
(Change tool to Default tool)

G00 Z5.000000
G00 X39.060200 Y9.849700

G01 Z-0.125000 F100.0(Penetrate)
G01 X38.793600 Y44.352300 Z-0.125000 F400.000000
G01 X41.370600 Y43.830500 Z-0.125000
G01 X41.386100 Y37.161500 Z-0.125000
G01 X41.386100 Y30.510700 Z-0.125000
G01 X42.255400 Y30.510700 Z-0.125000
G01 X43.129300 Y30.565200 Z-0.125000
G01 X43.178600 Y36.662100 Z-0.125000
G01 X43.251600 Y42.798200 Z-0.125000
G01 X44.380200 Y42.522400 Z-0.125000
G01 X45.513000 Y42.039800 Z-0.125000
G01 X45.260500 Y11.376000 Z-0.125000
G01 X45.224800 Y9.577000 Z-0.125000
G01 X44.073300 Y9.577000 Z-0.125000
G01 X42.921900 Y9.577000 Z-0.125000
G01 X42.967500 Y16.336900 Z-0.125000
G01 X43.013200 Y23.096700 Z-0.125000
G01 X42.209200 Y23.096700 Z-0.125000
G01 X41.405200 Y23.096700 Z-0.125000
G01 X41.364600 Y20.445700 Z-0.125000
G01 X41.324000 Y13.685900 Z-0.125000
G01 X41.324000 Y9.577000 Z-0.125000
G01 X40.204400 Y9.577000 Z-0.125000
G01 X39.323800 Y9.636500 Z-0.125000
G01 X39.060200 Y9.849600 Z-0.125000
G01 X39.060200 Y9.849700 Z-0.125000
G00 Z5.000000

(End cutting path id: path896)


(Start cutting path id: path914)
(Change tool to Default tool)

G00 Z5.000000
G00 X17.243300 Y23.419900

G01 Z-0.125000 F100.0(Penetrate)
G01 X17.164900 Y40.740000 Z-0.125000 F400.000000
G01 X17.126700 Y44.894300 Z-0.125000
G01 X17.615700 Y45.167580 Z-0.125000
G01 X18.520700 Y45.538240 Z-0.125000
G01 X19.342900 Y45.592440 Z-0.125000
G01 X20.082500 Y45.330070 Z-0.125000
G01 X20.739400 Y44.751000 Z-0.125000
G01 X21.313900 Y43.855300 Z-0.125000
G01 X21.805900 Y42.642700 Z-0.125000
G01 X22.542900 Y39.266600 Z-0.125000
G01 X22.851800 Y36.228100 Z-0.125000
G01 X22.886900 Y33.412600 Z-0.125000
G01 X22.650400 Y30.883700 Z-0.125000
G01 X22.144900 Y28.705300 Z-0.125000
G01 X21.179400 Y26.606000 Z-0.125000
G01 X19.903400 Y24.832800 Z-0.125000
G01 X19.227000 Y24.131200 Z-0.125000
G01 X19.242600 Y23.053500 Z-0.125000
G01 X19.468200 Y11.697100 Z-0.125000
G01 X19.497500 Y10.795000 Z-0.125000
G01 X19.111600 Y10.665200 Z-0.125000
G01 X18.004600 Y10.394800 Z-0.125000
G01 X17.283600 Y10.254100 Z-0.125000
G01 X17.243300 Y23.419900 Z-0.125000
G00 Z5.000000

(End cutting path id: path914)


(Start cutting path id: path914)
(Change tool to Default tool)

G00 Z5.000000
G00 X19.786500 Y32.652900

G01 Z-0.125000 F100.0(Penetrate)
G01 X20.456000 Y34.121600 Z-0.125000 F400.000000
G01 X20.681600 Y35.471400 Z-0.125000
G01 X20.589400 Y36.238600 Z-0.125000
G01 X20.328600 Y37.002800 Z-0.125000
G01 X19.922400 Y37.712500 Z-0.125000
G01 X19.394200 Y38.316000 Z-0.125000
G01 X19.025900 Y38.585000 Z-0.125000
G01 X19.183100 Y31.679400 Z-0.125000
G01 X19.786500 Y32.652900 Z-0.125000
G01 X19.786500 Y32.652900 Z-0.125000
G00 Z5.000000

(End cutting path id: path914)


(Footer)
M5
G00 X0.0000 Y0.0000
M2
(Using default footer. To add your own footer create file "footer" in the output dir.)
(end)
%