%
(Header)
(Generated by gcodetools from Inkscape.)
(Using default header. To add your own header create file "header" in the output dir.)
M3
(Header end.)
G21 (All units in mm)

(Start cutting path id: path26)
(Change tool to Default tool)

G00 Z5.000000
G00 X11.230234 Y36.072106

G01 Z-0.125000 F100.0(Penetrate)
G01 X11.009167 Y35.389700 Z-0.125000 F400.000000
G01 X10.884281 Y34.494843 Z-0.125000
G01 X10.864451 Y33.501520 Z-0.125000
G01 X10.958491 Y32.523819 Z-0.125000
G01 X11.153589 Y31.751414 Z-0.125000
G01 X11.409357 Y31.314820 Z-0.125000
G01 X11.693313 Y31.245480 Z-0.125000
G01 X11.972888 Y31.574840 Z-0.125000
G01 X12.193925 Y32.255835 Z-0.125000
G01 X12.318697 Y33.149886 Z-0.125000
G01 X12.338527 Y34.142906 Z-0.125000
G01 X12.244627 Y35.120708 Z-0.125000
G01 X12.049471 Y35.893415 Z-0.125000
G01 X11.793588 Y36.329910 Z-0.125000
G01 X11.509632 Y36.399550 Z-0.125000
G01 X11.230230 Y36.072104 Z-0.125000
G01 X11.230230 Y36.072104 Z-0.125000
G00 Z5.000000

(End cutting path id: path26)


(Start cutting path id: path26)
(Change tool to Default tool)

G00 Z5.000000
G00 X13.245747 Y34.979612

G01 Z-0.125000 F100.0(Penetrate)
G01 X13.240347 Y34.987712 Z-0.125000 F400.000000
G01 X13.228907 Y34.998492 Z-0.125000
G01 X13.092578 Y34.913632 Z-0.125000
G01 X13.018478 Y34.599591 Z-0.125000
G01 X12.971668 Y33.961731 Z-0.125000
G01 X12.933938 Y32.700727 Z-0.125000
G01 X12.803776 Y31.519242 Z-0.125000
G01 X12.586313 Y30.486211 Z-0.125000
G01 X12.286765 Y29.670770 Z-0.125000
G01 X12.016240 Y29.253124 Z-0.125000
G01 X11.735338 Y29.051556 Z-0.125000
G01 X11.453170 Y29.057456 Z-0.125000
G01 X11.178869 Y29.262550 Z-0.125000
G01 X11.081919 Y29.296510 Z-0.125000
G01 X10.941988 Y29.147854 Z-0.125000
G01 X10.805919 Y28.602111 Z-0.125000
G01 X10.720519 Y27.444612 Z-0.125000
G01 X10.720173 Y27.448512 Z-0.125000
G01 X10.720173 Y27.429972 Z-0.125000
G01 X10.720173 Y27.414152 Z-0.125000
G01 X10.720951 Y27.419252 Z-0.125000
G01 X10.807991 Y26.249558 Z-0.125000
G01 X10.946510 Y25.706839 Z-0.125000
G01 X11.087594 Y25.566851 Z-0.125000
G01 X11.182364 Y25.605351 Z-0.125000
G01 X11.194154 Y25.616031 Z-0.125000
G01 X11.197254 Y25.621131 Z-0.125000
G01 X11.467606 Y25.810907 Z-0.125000
G01 X11.745047 Y25.808107 Z-0.125000
G01 X12.021020 Y25.604222 Z-0.125000
G01 X12.286876 Y25.190706 Z-0.125000
G01 X12.585589 Y24.378593 Z-0.125000
G01 X12.802764 Y23.349996 Z-0.125000
G01 X12.933213 Y22.173952 Z-0.125000
G01 X12.971773 Y20.919499 Z-0.125000
G01 X13.031173 Y20.188516 Z-0.125000
G01 X13.123663 Y19.895941 Z-0.125000
G01 X13.246186 Y19.884251 Z-0.125000
G01 X13.245408 Y19.879951 Z-0.125000
G01 X13.522590 Y19.934071 Z-0.125000
G01 X13.794960 Y19.610254 Z-0.125000
G01 X14.015969 Y18.929058 Z-0.125000
G01 X14.140769 Y18.034402 Z-0.125000
G01 X14.160569 Y17.040676 Z-0.125000
G01 X14.066639 Y16.062269 Z-0.125000
G01 X13.871484 Y15.289763 Z-0.125000
G01 X13.615630 Y14.854076 Z-0.125000
G01 X13.331674 Y14.785246 Z-0.125000
G01 X13.052243 Y15.113297 Z-0.125000
G01 X12.835817 Y15.775646 Z-0.125000
G01 X12.710959 Y16.644199 Z-0.125000
G01 X12.710614 Y16.641799 Z-0.125000
G01 X12.709514 Y16.660339 Z-0.125000
G01 X12.706414 Y16.698739 Z-0.125000
G01 X12.617584 Y17.069018 Z-0.125000
G01 X12.502584 Y17.136948 Z-0.125000
G01 X12.320630 Y16.958963 Z-0.125000
G01 X11.989548 Y16.443456 Z-0.125000
G01 X11.631923 Y16.247029 Z-0.125000
G01 X11.267495 Y16.389032 Z-0.125000
G01 X10.915922 Y16.888516 Z-0.125000
G01 X10.677102 Y17.498962 Z-0.125000
G01 X10.486760 Y18.248892 Z-0.125000
G01 X10.347290 Y19.106057 Z-0.125000
G01 X10.261110 Y20.038405 Z-0.125000
G01 X10.221080 Y20.349928 Z-0.125000
G01 X10.114207 Y20.699949 Z-0.125000
G01 X9.910895 Y20.839534 Z-0.125000
G01 X9.581573 Y20.519446 Z-0.125000
G01 X9.581919 Y20.523346 Z-0.125000
G01 X9.573989 Y20.504906 Z-0.125000
G01 X9.575109 Y20.504906 Z-0.125000
G01 X9.328910 Y19.656511 Z-0.125000
G01 X9.263772 Y18.965438 Z-0.125000
G01 X9.299656 Y18.467970 Z-0.125000
G01 X9.356580 Y18.200289 Z-0.125000
G01 X9.365280 Y18.171369 Z-0.125000
G01 X9.367580 Y18.163269 Z-0.125000
G01 X9.550024 Y17.439844 Z-0.125000
G01 X9.688284 Y16.598302 Z-0.125000
G01 X9.775933 Y15.661215 Z-0.125000
G01 X9.806600 Y14.650760 Z-0.125000
G01 X9.754691 Y13.339768 Z-0.125000
G01 X9.608476 Y12.167352 Z-0.125000
G01 X9.382338 Y11.183806 Z-0.125000
G01 X9.090542 Y10.439418 Z-0.125000
G01 X8.939369 Y9.893675 Z-0.125000
G01 X8.913198 Y9.466756 Z-0.125000
G01 X8.971563 Y9.089221 Z-0.125000
G01 X8.970093 Y9.089221 Z-0.125000
G01 X9.122419 Y8.277610 Z-0.125000
G01 X9.178392 Y7.290838 Z-0.125000
G01 X9.119998 Y6.280383 Z-0.125000
G01 X8.960842 Y5.455570 Z-0.125000
G01 X8.724788 Y4.899547 Z-0.125000
G01 X8.435730 Y4.695662 Z-0.125000
G01 X8.146730 Y4.899547 Z-0.125000
G01 X7.910792 Y5.455570 Z-0.125000
G01 X7.751751 Y6.280483 Z-0.125000
G01 X7.693444 Y7.290838 Z-0.125000
G01 X7.749215 Y8.277308 Z-0.125000
G01 X7.901310 Y9.089221 Z-0.125000
G01 X7.905490 Y9.103631 Z-0.125000
G01 X7.912720 Y9.130141 Z-0.125000
G01 X7.960247 Y9.585784 Z-0.125000
G01 X7.919750 Y9.968259 Z-0.125000
G01 X7.784661 Y10.429948 Z-0.125000
G01 X7.491481 Y11.174839 Z-0.125000
G01 X7.264132 Y12.160200 Z-0.125000
G01 X7.117110 Y13.335538 Z-0.125000
G01 X7.064855 Y14.650764 Z-0.125000
G01 X7.096531 Y15.678655 Z-0.125000
G01 X7.187062 Y16.629549 Z-0.125000
G01 X7.329732 Y17.480464 Z-0.125000
G01 X7.517883 Y18.208323 Z-0.125000
G01 X7.574807 Y18.484469 Z-0.125000
G01 X7.607923 Y18.982743 Z-0.125000
G01 X7.540739 Y19.667971 Z-0.125000
G01 X7.296702 Y20.504777 Z-0.125000
G01 X7.297480 Y20.504777 Z-0.125000
G01 X7.289520 Y20.523317 Z-0.125000
G01 X7.290298 Y20.519417 Z-0.125000
G01 X6.956970 Y20.839605 Z-0.125000
G01 X6.753197 Y20.690245 Z-0.125000
G01 X6.647881 Y20.332463 Z-0.125000
G01 X6.610008 Y20.027391 Z-0.125000
G01 X6.607357 Y19.986471 Z-0.125000
G01 X6.606579 Y19.975491 Z-0.125000
G01 X6.518556 Y19.061687 Z-0.125000
G01 X6.379230 Y18.222160 Z-0.125000
G01 X6.190790 Y17.487548 Z-0.125000
G01 X5.955515 Y16.888289 Z-0.125000
G01 X5.605095 Y16.389713 Z-0.125000
G01 X5.241878 Y16.246700 Z-0.125000
G01 X4.885319 Y16.440810 Z-0.125000
G01 X4.555017 Y16.953596 Z-0.125000
G01 X4.344384 Y17.137930 Z-0.125000
G01 X4.225608 Y17.004190 Z-0.125000
G01 X4.161277 Y16.640059 Z-0.125000
G01 X4.160499 Y16.643959 Z-0.125000
G01 X4.035785 Y15.775911 Z-0.125000
G01 X3.819590 Y15.113057 Z-0.125000
G01 X3.539957 Y14.785107 Z-0.125000
G01 X3.255943 Y14.853937 Z-0.125000
G01 X3.000147 Y15.289624 Z-0.125000
G01 X2.805190 Y16.062029 Z-0.125000
G01 X2.711152 Y17.040538 Z-0.125000
G01 X2.730985 Y18.034364 Z-0.125000
G01 X2.855858 Y18.929020 Z-0.125000
G01 X3.076929 Y19.610115 Z-0.125000
G01 X3.258365 Y19.871346 Z-0.125000
G01 X3.446343 Y19.956006 Z-0.125000
G01 X3.626136 Y19.880016 Z-0.125000
G01 X3.633396 Y19.871016 Z-0.125000
G01 X3.641326 Y19.866616 Z-0.125000
G01 X3.777742 Y19.946436 Z-0.125000
G01 X3.852737 Y20.260277 Z-0.125000
G01 X3.900179 Y20.903276 Z-0.125000
G01 X3.937850 Y22.162869 Z-0.125000
G01 X4.067953 Y23.343750 Z-0.125000
G01 X4.285301 Y24.376882 Z-0.125000
G01 X4.584677 Y25.193027 Z-0.125000
G01 X4.855375 Y25.610675 Z-0.125000
G01 X5.136334 Y25.812141 Z-0.125000
G01 X5.418445 Y25.805641 Z-0.125000
G01 X5.692544 Y25.599539 Z-0.125000
G01 X5.789387 Y25.565479 Z-0.125000
G01 X5.929405 Y25.714033 Z-0.125000
G01 X6.065590 Y26.260179 Z-0.125000
G01 X6.150903 Y27.419190 Z-0.125000
G01 X6.151249 Y27.414090 Z-0.125000
G01 X6.151249 Y27.429910 Z-0.125000
G01 X6.151249 Y27.448350 Z-0.125000
G01 X6.150903 Y27.443250 Z-0.125000
G01 X6.063803 Y28.613951 Z-0.125000
G01 X5.925168 Y29.156571 Z-0.125000
G01 X5.783968 Y29.295954 Z-0.125000
G01 X5.689143 Y29.257254 Z-0.125000
G01 X5.677700 Y29.246574 Z-0.125000
G01 X5.674300 Y29.241274 Z-0.125000
G01 X5.404121 Y29.051600 Z-0.125000
G01 X5.126647 Y29.054300 Z-0.125000
G01 X4.850588 Y29.257928 Z-0.125000
G01 X4.584646 Y29.670939 Z-0.125000
G01 X4.286163 Y30.482953 Z-0.125000
G01 X4.069075 Y31.511550 Z-0.125000
G01 X3.938539 Y32.687996 Z-0.125000
G01 X3.899744 Y33.943457 Z-0.125000
G01 X3.840572 Y34.674944 Z-0.125000
G01 X3.748197 Y34.967922 Z-0.125000
G01 X3.625703 Y34.979915 Z-0.125000
G01 X3.626049 Y34.982636 Z-0.125000
G01 X3.349010 Y34.927507 Z-0.125000
G01 X3.076842 Y35.252232 Z-0.125000
G01 X2.855753 Y35.933529 Z-0.125000
G01 X2.730881 Y36.828487 Z-0.125000
G01 X2.711051 Y37.822415 Z-0.125000
G01 X2.805086 Y38.800519 Z-0.125000
G01 X3.000030 Y39.572017 Z-0.125000
G01 X3.255827 Y40.008006 Z-0.125000
G01 X3.539870 Y40.077546 Z-0.125000
G01 X3.819474 Y39.749496 Z-0.125000
G01 X4.035669 Y39.087046 Z-0.125000
G01 X4.160411 Y38.218593 Z-0.125000
G01 X4.160757 Y38.221293 Z-0.125000
G01 X4.162227 Y38.193273 Z-0.125000
G01 X4.164527 Y38.166763 Z-0.125000
G01 X4.253011 Y37.794972 Z-0.125000
G01 X4.368185 Y37.725332 Z-0.125000
G01 X4.551004 Y37.903618 Z-0.125000
G01 X4.881882 Y38.418621 Z-0.125000
G01 X5.239364 Y38.615048 Z-0.125000
G01 X5.603734 Y38.473448 Z-0.125000
G01 X5.955336 Y37.974065 Z-0.125000
G01 X6.194243 Y37.363015 Z-0.125000
G01 X6.384729 Y36.613487 Z-0.125000
G01 X6.524343 Y35.756726 Z-0.125000
G01 X6.610579 Y34.824277 Z-0.125000
G01 X6.650383 Y34.512654 Z-0.125000
G01 X6.757054 Y34.162733 Z-0.125000
G01 X6.960280 Y34.023652 Z-0.125000
G01 X7.289775 Y34.344446 Z-0.125000
G01 X7.289429 Y34.339346 Z-0.125000
G01 X7.297779 Y34.355166 Z-0.125000
G01 X7.296309 Y34.355166 Z-0.125000
G01 X7.542508 Y35.204067 Z-0.125000
G01 X7.607703 Y35.895240 Z-0.125000
G01 X7.571906 Y36.392707 Z-0.125000
G01 X7.515242 Y36.660893 Z-0.125000
G01 X7.506102 Y36.690123 Z-0.125000
G01 X7.503392 Y36.699423 Z-0.125000
G01 X7.321207 Y37.423352 Z-0.125000
G01 X7.183062 Y38.264894 Z-0.125000
G01 X7.095472 Y39.202080 Z-0.125000
G01 X7.064834 Y40.213140 Z-0.125000
G01 X7.116743 Y41.523025 Z-0.125000
G01 X7.262929 Y42.694432 Z-0.125000
G01 X7.489068 Y43.677878 Z-0.125000
G01 X7.780864 Y44.423485 Z-0.125000
G01 X7.932065 Y44.967596 Z-0.125000
G01 X7.958207 Y45.393739 Z-0.125000
G01 X7.899842 Y45.770992 Z-0.125000
G01 X7.901312 Y45.770992 Z-0.125000
G01 X7.749004 Y46.583126 Z-0.125000
G01 X7.693032 Y47.571773 Z-0.125000
G01 X7.751425 Y48.581644 Z-0.125000
G01 X7.910581 Y49.406668 Z-0.125000
G01 X8.146635 Y49.963084 Z-0.125000
G01 X8.435693 Y50.167161 Z-0.125000
G01 X8.724750 Y49.963084 Z-0.125000
G01 X8.960804 Y49.406668 Z-0.125000
G01 X9.119989 Y48.581644 Z-0.125000
G01 X9.178354 Y47.571773 Z-0.125000
G01 X9.122381 Y46.583217 Z-0.125000
G01 X8.970056 Y45.770952 Z-0.125000
G01 X8.970834 Y45.770952 Z-0.125000
G01 X8.964004 Y45.752196 Z-0.125000
G01 X8.960604 Y45.737583 Z-0.125000
G01 X8.911002 Y45.288018 Z-0.125000
G01 X8.950344 Y44.900656 Z-0.125000
G01 X9.087163 Y44.429784 Z-0.125000
G01 X9.380284 Y43.686405 Z-0.125000
G01 X9.607518 Y42.702152 Z-0.125000
G01 X9.754454 Y41.527419 Z-0.125000
G01 X9.806622 Y40.212798 Z-0.125000
G01 X9.775032 Y39.185411 Z-0.125000
G01 X9.684674 Y38.234217 Z-0.125000
G01 X9.542235 Y37.382898 Z-0.125000
G01 X9.354314 Y36.655341 Z-0.125000
G01 X9.297218 Y36.379900 Z-0.125000
G01 X9.263755 Y35.881424 Z-0.125000
G01 X9.330680 Y35.194887 Z-0.125000
G01 X9.574804 Y34.354856 Z-0.125000
G01 X9.573684 Y34.354856 Z-0.125000
G01 X9.582384 Y34.339036 Z-0.125000
G01 X9.581606 Y34.344136 Z-0.125000
G01 X9.914185 Y34.023140 Z-0.125000
G01 X10.117813 Y34.169680 Z-0.125000
G01 X10.223332 Y34.525748 Z-0.125000
G01 X10.261542 Y34.833239 Z-0.125000
G01 X10.265042 Y34.879799 Z-0.125000
G01 X10.265389 Y34.887899 Z-0.125000
G01 X10.353349 Y35.801503 Z-0.125000
G01 X10.492675 Y36.640223 Z-0.125000
G01 X10.681115 Y37.373727 Z-0.125000
G01 X10.916419 Y37.971172 Z-0.125000
G01 X11.266839 Y38.469948 Z-0.125000
G01 X11.630085 Y38.613364 Z-0.125000
G01 X11.986615 Y38.420465 Z-0.125000
G01 X12.316947 Y37.909995 Z-0.125000
G01 X12.527521 Y37.725260 Z-0.125000
G01 X12.646182 Y37.859100 Z-0.125000
G01 X12.710312 Y38.223735 Z-0.125000
G01 X12.711090 Y38.218635 Z-0.125000
G01 X12.836005 Y39.087288 Z-0.125000
G01 X13.052373 Y39.749638 Z-0.125000
G01 X13.331776 Y40.077587 Z-0.125000
G01 X13.615732 Y40.007847 Z-0.125000
G01 X13.871614 Y39.571051 Z-0.125000
G01 X14.066770 Y38.797941 Z-0.125000
G01 X14.160640 Y37.821448 Z-0.125000
G01 X14.140840 Y36.828227 Z-0.125000
G01 X14.016068 Y35.933571 Z-0.125000
G01 X13.795089 Y35.252274 Z-0.125000
G01 X13.522719 Y34.927549 Z-0.125000
G01 X13.245536 Y34.982679 Z-0.125000
G01 X13.245796 Y34.979679 Z-0.125000
G00 Z5.000000

(End cutting path id: path26)


(Start cutting path id: path26)
(Change tool to Default tool)

G00 Z5.000000
G00 X8.435664 Y37.616415

G01 Z-0.125000 F100.0(Penetrate)
G01 X8.724721 Y37.820401 Z-0.125000 F400.000000
G01 X8.960775 Y38.376726 Z-0.125000
G01 X9.119960 Y39.202043 Z-0.125000
G01 X9.178325 Y40.213305 Z-0.125000
G01 X9.119960 Y41.223862 Z-0.125000
G01 X8.960775 Y42.048877 Z-0.125000
G01 X8.724721 Y42.605000 Z-0.125000
G01 X8.435664 Y42.808986 Z-0.125000
G01 X8.146635 Y42.605000 Z-0.125000
G01 X7.910553 Y42.048877 Z-0.125000
G01 X7.751396 Y41.223862 Z-0.125000
G01 X7.693031 Y40.213305 Z-0.125000
G01 X7.751396 Y39.201942 Z-0.125000
G01 X7.910553 Y38.376626 Z-0.125000
G01 X8.146635 Y37.820401 Z-0.125000
G01 X8.435664 Y37.616415 Z-0.125000
G01 X8.435664 Y37.616415 Z-0.125000
G00 Z5.000000

(End cutting path id: path26)


(Start cutting path id: path26)
(Change tool to Default tool)

G00 Z5.000000
G00 X5.641488 Y36.072173

G01 Z-0.125000 F100.0(Penetrate)
G01 X5.361913 Y36.399720 Z-0.125000 F400.000000
G01 X5.077870 Y36.330080 Z-0.125000
G01 X4.822073 Y35.893585 Z-0.125000
G01 X4.627091 Y35.120777 Z-0.125000
G01 X4.533015 Y34.142975 Z-0.125000
G01 X4.552758 Y33.149955 Z-0.125000
G01 X4.677616 Y32.255904 Z-0.125000
G01 X4.898855 Y31.574909 Z-0.125000
G01 X5.178257 Y31.245448 Z-0.125000
G01 X5.462213 Y31.314688 Z-0.125000
G01 X5.718097 Y31.751383 Z-0.125000
G01 X5.913252 Y32.523890 Z-0.125000
G01 X6.007126 Y33.501590 Z-0.125000
G01 X5.987326 Y34.494914 Z-0.125000
G01 X5.862525 Y35.389770 Z-0.125000
G01 X5.641488 Y36.072176 Z-0.125000
G01 X5.641488 Y36.072176 Z-0.125000
G00 Z5.000000

(End cutting path id: path26)


(Start cutting path id: path26)
(Change tool to Default tool)

G00 Z5.000000
G00 X8.435712 Y32.224764

G01 Z-0.125000 F100.0(Penetrate)
G01 X8.159451 Y32.127304 Z-0.125000 F400.000000
G01 X7.902127 Y31.847831 Z-0.125000
G01 X7.669273 Y31.405693 Z-0.125000
G01 X7.466364 Y30.820141 Z-0.125000
G01 X7.298965 Y30.110423 Z-0.125000
G01 X7.172551 Y29.295992 Z-0.125000
G01 X7.092656 Y28.395994 Z-0.125000
G01 X7.064813 Y27.429783 Z-0.125000
G01 X7.092656 Y26.464578 Z-0.125000
G01 X7.172551 Y25.565186 Z-0.125000
G01 X7.298965 Y24.750956 Z-0.125000
G01 X7.466364 Y24.041338 Z-0.125000
G01 X7.669273 Y23.455685 Z-0.125000
G01 X7.902127 Y23.013447 Z-0.125000
G01 X8.159451 Y22.733873 Z-0.125000
G01 X8.435712 Y22.636313 Z-0.125000
G01 X8.712002 Y22.733870 Z-0.125000
G01 X8.969249 Y23.013379 Z-0.125000
G01 X9.202103 Y23.455617 Z-0.125000
G01 X9.405012 Y24.041270 Z-0.125000
G01 X9.572411 Y24.750887 Z-0.125000
G01 X9.698796 Y25.565118 Z-0.125000
G01 X9.778663 Y26.464510 Z-0.125000
G01 X9.806534 Y27.429715 Z-0.125000
G01 X9.778662 Y28.395926 Z-0.125000
G01 X9.698796 Y29.295924 Z-0.125000
G01 X9.572411 Y30.110355 Z-0.125000
G01 X9.405012 Y30.820073 Z-0.125000
G01 X9.202103 Y31.405625 Z-0.125000
G01 X8.969249 Y31.847763 Z-0.125000
G01 X8.711953 Y32.127236 Z-0.125000
G01 X8.435664 Y32.224694 Z-0.125000
G01 X8.435664 Y32.224694 Z-0.125000
G00 Z5.000000

(End cutting path id: path26)


(Start cutting path id: path26)
(Change tool to Default tool)

G00 Z5.000000
G00 X4.898808 Y23.288618

G01 Z-0.125000 F100.0(Penetrate)
G01 X4.677568 Y22.607221 Z-0.125000 F400.000000
G01 X4.552711 Y21.713070 Z-0.125000
G01 X4.532968 Y20.719948 Z-0.125000
G01 X4.627044 Y19.741742 Z-0.125000
G01 X4.821997 Y18.968834 Z-0.125000
G01 X5.077794 Y18.532340 Z-0.125000
G01 X5.361837 Y18.462700 Z-0.125000
G01 X5.641440 Y18.790347 Z-0.125000
G01 X5.862478 Y19.473256 Z-0.125000
G01 X5.987278 Y20.368113 Z-0.125000
G01 X6.007079 Y21.361537 Z-0.125000
G01 X5.913205 Y22.339843 Z-0.125000
G01 X5.718050 Y23.112047 Z-0.125000
G01 X5.462167 Y23.548339 Z-0.125000
G01 X5.178211 Y23.617579 Z-0.125000
G01 X4.898808 Y23.288621 Z-0.125000
G01 X4.898808 Y23.288621 Z-0.125000
G00 Z5.000000

(End cutting path id: path26)


(Start cutting path id: path26)
(Change tool to Default tool)

G00 Z5.000000
G00 X8.435664 Y17.245941

G01 Z-0.125000 F100.0(Penetrate)
G01 X8.146693 Y17.041149 Z-0.125000 F400.000000
G01 X7.910725 Y16.484421 Z-0.125000
G01 X7.751685 Y15.659608 Z-0.125000
G01 X7.693378 Y14.650362 Z-0.125000
G01 X7.751685 Y13.639100 Z-0.125000
G01 X7.910725 Y12.813783 Z-0.125000
G01 X8.146693 Y12.257559 Z-0.125000
G01 X8.435664 Y12.053774 Z-0.125000
G01 X8.724721 Y12.257659 Z-0.125000
G01 X8.960775 Y12.813884 Z-0.125000
G01 X9.119960 Y13.639201 Z-0.125000
G01 X9.178325 Y14.650362 Z-0.125000
G01 X9.119960 Y15.659810 Z-0.125000
G01 X8.960775 Y16.485026 Z-0.125000
G01 X8.724721 Y17.041754 Z-0.125000
G01 X8.435664 Y17.245941 Z-0.125000
G01 X8.435664 Y17.245941 Z-0.125000
G00 Z5.000000

(End cutting path id: path26)


(Start cutting path id: path26)
(Change tool to Default tool)

G00 Z5.000000
G00 X11.230230 Y18.790344

G01 Z-0.125000 F100.0(Penetrate)
G01 X11.509777 Y18.462697 Z-0.125000 F400.000000
G01 X11.793732 Y18.532437 Z-0.125000
G01 X12.049529 Y18.968930 Z-0.125000
G01 X12.244627 Y19.741738 Z-0.125000
G01 X12.338527 Y20.718936 Z-0.125000
G01 X12.318697 Y21.712058 Z-0.125000
G01 X12.193925 Y22.606813 Z-0.125000
G01 X11.972888 Y23.288614 Z-0.125000
G01 X11.693284 Y23.617572 Z-0.125000
G01 X11.409270 Y23.548332 Z-0.125000
G01 X11.153445 Y23.112040 Z-0.125000
G01 X10.958491 Y22.339836 Z-0.125000
G01 X10.864451 Y21.361530 Z-0.125000
G01 X10.884281 Y20.368106 Z-0.125000
G01 X11.009167 Y19.473249 Z-0.125000
G01 X11.230234 Y18.790340 Z-0.125000
G01 X11.230234 Y18.790340 Z-0.125000
G00 Z5.000000

(End cutting path id: path26)


(Start cutting path id: path26)
(Change tool to Default tool)

G00 Z5.000000
G00 X15.418847 Y53.003432

G01 Z-0.125000 F100.0(Penetrate)
G01 X1.452559 Y53.003432 Z-0.125000 F400.000000
G01 X1.317856 Y52.908302 Z-0.125000
G01 X1.207876 Y52.648926 Z-0.125000
G01 X1.133740 Y52.264265 Z-0.125000
G01 X1.106555 Y51.793304 Z-0.125000
G01 X1.106555 Y2.956846 Z-0.125000
G01 X1.133740 Y2.485985 Z-0.125000
G01 X1.207877 Y2.101394 Z-0.125000
G01 X1.317857 Y1.842078 Z-0.125000
G01 X1.452560 Y1.746938 Z-0.125000
G01 X15.418933 Y1.746938 Z-0.125000
G01 X15.553618 Y1.842078 Z-0.125000
G01 X15.663604 Y2.101394 Z-0.125000
G01 X15.737764 Y2.485985 Z-0.125000
G01 X15.764944 Y2.956846 Z-0.125000
G01 X15.764944 Y51.793304 Z-0.125000
G01 X15.737714 Y52.264265 Z-0.125000
G01 X15.663554 Y52.648926 Z-0.125000
G01 X15.553568 Y52.908302 Z-0.125000
G01 X15.418854 Y53.003432 Z-0.125000
G01 X15.418854 Y53.003432 Z-0.125000
G00 Z5.000000

(End cutting path id: path26)


(Footer)
M5
G00 X0.0000 Y0.0000
M2
(Using default footer. To add your own footer create file "footer" in the output dir.)
(end)
%