%
(Header)
(Generated by gcodetools from Inkscape.)
(Using default header. To add your own header create file "header" in the output dir.)
M3
(Header end.)
G21 (All units in mm)

(Start cutting path id: path18)
(Change tool to Default tool)

G00 Z5.000000
G00 X89.863892 Y35.770642

G01 Z-0.125000 F100.0(Penetrate)
G01 X87.896490 Y35.770642 Z-0.125000 F400.000000
G01 X87.773420 Y35.709162 Z-0.125000
G01 X87.685510 Y35.524930 Z-0.125000
G01 X87.632760 Y35.217943 Z-0.125000
G01 X87.615180 Y34.788101 Z-0.125000
G01 X87.615180 Y30.856736 Z-0.125000
G01 X87.632760 Y30.426391 Z-0.125000
G01 X87.685510 Y30.119102 Z-0.125000
G01 X87.773420 Y29.934869 Z-0.125000
G01 X87.896490 Y29.873489 Z-0.125000
G01 X89.301860 Y29.873489 Z-0.125000
G01 X89.301860 Y25.942124 Z-0.125000
G01 X87.896490 Y25.942124 Z-0.125000
G01 X87.773420 Y25.880744 Z-0.125000
G01 X87.685510 Y25.696513 Z-0.125000
G01 X87.632760 Y25.389424 Z-0.125000
G01 X87.615180 Y24.959683 Z-0.125000
G01 X87.615180 Y21.027512 Z-0.125000
G01 X87.632760 Y20.597267 Z-0.125000
G01 X87.685510 Y20.290281 Z-0.125000
G01 X87.773420 Y20.106350 Z-0.125000
G01 X87.896490 Y20.045080 Z-0.125000
G01 X89.863892 Y20.045080 Z-0.125000
G01 X89.863892 Y16.112909 Z-0.125000
G01 X87.053153 Y16.112909 Z-0.125000
G01 X86.835258 Y16.255417 Z-0.125000
G01 X86.653966 Y16.683143 Z-0.125000
G01 X86.531760 Y17.316971 Z-0.125000
G01 X86.491120 Y18.078290 Z-0.125000
G01 X86.491120 Y37.736627 Z-0.125000
G01 X86.531760 Y38.498249 Z-0.125000
G01 X86.653966 Y39.132479 Z-0.125000
G01 X86.835258 Y39.559903 Z-0.125000
G01 X87.053153 Y39.702713 Z-0.125000
G01 X89.863892 Y39.702713 Z-0.125000
G01 X89.863892 Y35.770642 Z-0.125000
G00 Z5.000000

(End cutting path id: path18)


(Start cutting path id: path18)
(Change tool to Default tool)

G00 Z5.000000
G00 X81.454168 Y22.009958

G01 Z-0.125000 F100.0(Penetrate)
G01 X81.423338 Y20.835224 Z-0.125000 F400.000000
G01 X81.330528 Y19.749079 Z-0.125000
G01 X81.175753 Y18.751524 Z-0.125000
G01 X80.959299 Y17.842658 Z-0.125000
G01 X80.699322 Y17.085773 Z-0.125000
G01 X80.413982 Y16.545170 Z-0.125000
G01 X80.103279 Y16.220949 Z-0.125000
G01 X79.767501 Y16.112910 Z-0.125000
G01 X79.431722 Y16.220949 Z-0.125000
G01 X79.121019 Y16.545170 Z-0.125000
G01 X78.835680 Y17.085773 Z-0.125000
G01 X78.575704 Y17.842658 Z-0.125000
G01 X78.359250 Y18.751624 Z-0.125000
G01 X78.204762 Y19.749180 Z-0.125000
G01 X78.111952 Y20.835426 Z-0.125000
G01 X78.081122 Y22.009958 Z-0.125000
G01 X78.081122 Y33.804557 Z-0.125000
G01 X78.111952 Y34.979189 Z-0.125000
G01 X78.204762 Y36.065233 Z-0.125000
G01 X78.359250 Y37.062688 Z-0.125000
G01 X78.575704 Y37.971856 Z-0.125000
G01 X78.835680 Y38.728640 Z-0.125000
G01 X79.121019 Y39.269444 Z-0.125000
G01 X79.431722 Y39.594068 Z-0.125000
G01 X79.767501 Y39.702410 Z-0.125000
G01 X80.103279 Y39.594068 Z-0.125000
G01 X80.413982 Y39.269444 Z-0.125000
G01 X80.699322 Y38.728640 Z-0.125000
G01 X80.959299 Y37.971856 Z-0.125000
G01 X81.175753 Y37.062688 Z-0.125000
G01 X81.330528 Y36.065031 Z-0.125000
G01 X81.423338 Y34.979088 Z-0.125000
G01 X81.454168 Y33.804557 Z-0.125000
G01 X81.454168 Y22.009958 Z-0.125000
G00 Z5.000000

(End cutting path id: path18)


(Start cutting path id: path18)
(Change tool to Default tool)

G00 Z5.000000
G00 X80.329527 Y22.009958

G01 Z-0.125000 F100.0(Penetrate)
G01 X80.329527 Y33.804557 Z-0.125000 F400.000000
G01 X80.288887 Y34.566481 Z-0.125000
G01 X80.166682 Y35.200308 Z-0.125000
G01 X79.985390 Y35.628134 Z-0.125000
G01 X79.767494 Y35.770642 Z-0.125000
G01 X79.549599 Y35.628134 Z-0.125000
G01 X79.368307 Y35.200308 Z-0.125000
G01 X79.246101 Y34.566682 Z-0.125000
G01 X79.205171 Y33.804557 Z-0.125000
G01 X79.205171 Y22.009958 Z-0.125000
G01 X79.246101 Y21.248739 Z-0.125000
G01 X79.368307 Y20.614912 Z-0.125000
G01 X79.549599 Y20.187186 Z-0.125000
G01 X79.767494 Y20.044678 Z-0.125000
G01 X79.985102 Y20.187186 Z-0.125000
G01 X80.166682 Y20.614912 Z-0.125000
G01 X80.288887 Y21.248739 Z-0.125000
G01 X80.329527 Y22.009958 Z-0.125000
G01 X80.329527 Y22.009958 Z-0.125000
G00 Z5.000000

(End cutting path id: path18)


(Start cutting path id: path18)
(Change tool to Default tool)

G00 Z5.000000
G00 X75.321376 Y16.113111

G01 Z-0.125000 F100.0(Penetrate)
G01 X74.197022 Y16.113111 Z-0.125000 F400.000000
G01 X74.197022 Y21.157530 Z-0.125000
G01 X75.321376 Y21.157530 Z-0.125000
G01 X75.321376 Y16.113111 Z-0.125000
G00 Z5.000000

(End cutting path id: path18)


(Start cutting path id: path18)
(Change tool to Default tool)

G00 Z5.000000
G00 X73.152795 Y16.113111

G01 Z-0.125000 F100.0(Penetrate)
G01 X72.028441 Y16.113111 Z-0.125000 F400.000000
G01 X71.061457 Y26.255868 Z-0.125000
G01 X70.949051 Y26.964477 Z-0.125000
G01 X70.904091 Y26.295577 Z-0.125000
G01 X70.904091 Y16.112708 Z-0.125000
G01 X69.779731 Y16.112708 Z-0.125000
G01 X69.779731 Y39.702511 Z-0.125000
G01 X70.904085 Y39.702511 Z-0.125000
G01 X71.893550 Y29.362421 Z-0.125000
G01 X71.983190 Y28.850843 Z-0.125000
G01 X72.017200 Y28.998189 Z-0.125000
G01 X72.028450 Y29.440729 Z-0.125000
G01 X72.028450 Y39.702511 Z-0.125000
G01 X73.152804 Y39.702511 Z-0.125000
G01 X73.152804 Y16.113111 Z-0.125000
G00 Z5.000000

(End cutting path id: path18)


(Start cutting path id: path18)
(Change tool to Default tool)

G00 Z5.000000
G00 X68.841581 Y22.010562

G01 Z-0.125000 F100.0(Penetrate)
G01 X68.810741 Y20.835728 Z-0.125000 F400.000000
G01 X68.717931 Y19.749583 Z-0.125000
G01 X68.563155 Y18.751826 Z-0.125000
G01 X68.346989 Y17.842456 Z-0.125000
G01 X68.086725 Y17.085975 Z-0.125000
G01 X67.801381 Y16.545674 Z-0.125000
G01 X67.490967 Y16.221554 Z-0.125000
G01 X67.155188 Y16.113514 Z-0.125000
G01 X66.819121 Y16.221554 Z-0.125000
G01 X66.508418 Y16.545674 Z-0.125000
G01 X66.223367 Y17.085975 Z-0.125000
G01 X65.963390 Y17.842456 Z-0.125000
G01 X65.746936 Y18.751826 Z-0.125000
G01 X65.592161 Y19.749684 Z-0.125000
G01 X65.499641 Y20.835929 Z-0.125000
G01 X65.468801 Y22.010562 Z-0.125000
G01 X65.468801 Y33.805061 Z-0.125000
G01 X65.499641 Y34.979693 Z-0.125000
G01 X65.592161 Y36.065636 Z-0.125000
G01 X65.746936 Y37.063091 Z-0.125000
G01 X65.963390 Y37.972461 Z-0.125000
G01 X66.223367 Y38.729144 Z-0.125000
G01 X66.508707 Y39.269847 Z-0.125000
G01 X66.819121 Y39.594371 Z-0.125000
G01 X67.155188 Y39.702511 Z-0.125000
G01 X67.490967 Y39.594371 Z-0.125000
G01 X67.801670 Y39.269847 Z-0.125000
G01 X68.086721 Y38.729144 Z-0.125000
G01 X68.346985 Y37.972461 Z-0.125000
G01 X68.563151 Y37.063091 Z-0.125000
G01 X68.717927 Y36.065435 Z-0.125000
G01 X68.810737 Y34.979592 Z-0.125000
G01 X68.841577 Y33.805061 Z-0.125000
G01 X68.841577 Y22.010562 Z-0.125000
G00 Z5.000000

(End cutting path id: path18)


(Start cutting path id: path18)
(Change tool to Default tool)

G00 Z5.000000
G00 X67.717225 Y22.010562

G01 Z-0.125000 F100.0(Penetrate)
G01 X67.717225 Y33.805061 Z-0.125000 F400.000000
G01 X67.676295 Y34.566380 Z-0.125000
G01 X67.554090 Y35.200510 Z-0.125000
G01 X67.372798 Y35.628235 Z-0.125000
G01 X67.154903 Y35.770844 Z-0.125000
G01 X66.937295 Y35.628235 Z-0.125000
G01 X66.755715 Y35.200510 Z-0.125000
G01 X66.633509 Y34.566682 Z-0.125000
G01 X66.592869 Y33.805061 Z-0.125000
G01 X66.592869 Y22.010562 Z-0.125000
G01 X66.633509 Y21.248941 Z-0.125000
G01 X66.755715 Y20.614811 Z-0.125000
G01 X66.937007 Y20.187287 Z-0.125000
G01 X67.154903 Y20.044476 Z-0.125000
G01 X67.372798 Y20.187287 Z-0.125000
G01 X67.554090 Y20.614811 Z-0.125000
G01 X67.676295 Y21.248639 Z-0.125000
G01 X67.717225 Y22.010562 Z-0.125000
G01 X67.717225 Y22.010562 Z-0.125000
G00 Z5.000000

(End cutting path id: path18)


(Start cutting path id: path18)
(Change tool to Default tool)

G00 Z5.000000
G00 X64.530356 Y16.113111

G01 Z-0.125000 F100.0(Penetrate)
G01 X63.405984 Y16.113111 Z-0.125000 F400.000000
G01 X63.405984 Y39.702511 Z-0.125000
G01 X64.530338 Y39.702511 Z-0.125000
G01 X64.530338 Y16.113111 Z-0.125000
G00 Z5.000000

(End cutting path id: path18)


(Start cutting path id: path18)
(Change tool to Default tool)

G00 Z5.000000
G00 X58.793299 Y16.113109

G01 Z-0.125000 F100.0(Penetrate)
G01 X57.668945 Y16.113109 Z-0.125000 F400.000000
G01 X57.668945 Y24.959084 Z-0.125000
G01 X57.651365 Y25.389026 Z-0.125000
G01 X57.598615 Y25.696315 Z-0.125000
G01 X57.510715 Y25.880749 Z-0.125000
G01 X57.387932 Y25.942329 Z-0.125000
G01 X56.825899 Y25.942329 Z-0.125000
G01 X56.702829 Y25.880749 Z-0.125000
G01 X56.614929 Y25.696315 Z-0.125000
G01 X56.562179 Y25.389026 Z-0.125000
G01 X56.544599 Y24.959084 Z-0.125000
G01 X56.544599 Y16.113109 Z-0.125000
G01 X55.420249 Y16.113109 Z-0.125000
G01 X55.420249 Y33.805059 Z-0.125000
G01 X55.451379 Y34.979691 Z-0.125000
G01 X55.543899 Y36.065634 Z-0.125000
G01 X55.698674 Y37.063089 Z-0.125000
G01 X55.914840 Y37.972459 Z-0.125000
G01 X56.175104 Y38.729142 Z-0.125000
G01 X56.460444 Y39.269845 Z-0.125000
G01 X56.770859 Y39.594369 Z-0.125000
G01 X57.106637 Y39.702509 Z-0.125000
G01 X57.442704 Y39.594369 Z-0.125000
G01 X57.753407 Y39.269845 Z-0.125000
G01 X58.038746 Y38.729142 Z-0.125000
G01 X58.298434 Y37.972459 Z-0.125000
G01 X58.514889 Y37.063089 Z-0.125000
G01 X58.669664 Y36.065433 Z-0.125000
G01 X58.762184 Y34.979590 Z-0.125000
G01 X58.793314 Y33.805059 Z-0.125000
G01 X58.793314 Y16.113109 Z-0.125000
G01 X58.793314 Y16.113109 Z-0.125000
G00 Z5.000000

(End cutting path id: path18)


(Start cutting path id: path18)
(Change tool to Default tool)

G00 Z5.000000
G00 X51.126304 Y22.010560

G01 Z-0.125000 F100.0(Penetrate)
G01 X51.095184 Y20.835726 Z-0.125000 F400.000000
G01 X51.002374 Y19.749581 Z-0.125000
G01 X50.847886 Y18.751824 Z-0.125000
G01 X50.631144 Y17.842454 Z-0.125000
G01 X50.371168 Y17.085973 Z-0.125000
G01 X50.085828 Y16.545672 Z-0.125000
G01 X49.775413 Y16.221552 Z-0.125000
G01 X49.439634 Y16.113512 Z-0.125000
G01 X49.103568 Y16.221552 Z-0.125000
G01 X48.793153 Y16.545672 Z-0.125000
G01 X48.507813 Y17.085973 Z-0.125000
G01 X48.247836 Y17.842454 Z-0.125000
G01 X48.031382 Y18.751824 Z-0.125000
G01 X47.876607 Y19.749682 Z-0.125000
G01 X47.784087 Y20.835927 Z-0.125000
G01 X47.752967 Y22.010560 Z-0.125000
G01 X48.877320 Y22.010560 Z-0.125000
G01 X48.918250 Y21.248939 Z-0.125000
G01 X49.040455 Y20.614809 Z-0.125000
G01 X49.221747 Y20.187285 Z-0.125000
G01 X49.439643 Y20.044474 Z-0.125000
G01 X49.628717 Y20.130334 Z-0.125000
G01 X49.779745 Y20.388239 Z-0.125000
G01 X49.893016 Y20.818182 Z-0.125000
G01 X49.967956 Y21.420666 Z-0.125000
G01 X50.001686 Y23.975832 Z-0.125000
G01 X49.961046 Y24.737554 Z-0.125000
G01 X49.838552 Y25.372087 Z-0.125000
G01 X49.657260 Y25.799510 Z-0.125000
G01 X49.439365 Y25.942320 Z-0.125000
G01 X49.103587 Y26.050360 Z-0.125000
G01 X48.793172 Y26.374480 Z-0.125000
G01 X48.507832 Y26.914781 Z-0.125000
G01 X48.247855 Y27.671262 Z-0.125000
G01 X48.031401 Y28.580330 Z-0.125000
G01 X47.876626 Y29.578188 Z-0.125000
G01 X47.784106 Y30.664635 Z-0.125000
G01 X47.752986 Y31.839368 Z-0.125000
G01 X47.752986 Y33.804749 Z-0.125000
G01 X47.784106 Y34.979381 Z-0.125000
G01 X47.876626 Y36.065223 Z-0.125000
G01 X48.031401 Y37.062678 Z-0.125000
G01 X48.247855 Y37.972048 Z-0.125000
G01 X48.507832 Y38.728731 Z-0.125000
G01 X48.793172 Y39.269434 Z-0.125000
G01 X49.103587 Y39.593958 Z-0.125000
G01 X49.439365 Y39.702199 Z-0.125000
G01 X49.775432 Y39.593958 Z-0.125000
G01 X50.086135 Y39.269434 Z-0.125000
G01 X50.371186 Y38.728731 Z-0.125000
G01 X50.631162 Y37.972048 Z-0.125000
G01 X50.847904 Y37.062678 Z-0.125000
G01 X51.002392 Y36.065122 Z-0.125000
G01 X51.095202 Y34.979179 Z-0.125000
G01 X51.126032 Y33.804749 Z-0.125000
G01 X50.001680 Y33.804749 Z-0.125000
G01 X49.960750 Y34.566067 Z-0.125000
G01 X49.838544 Y35.200198 Z-0.125000
G01 X49.657252 Y35.627922 Z-0.125000
G01 X49.439357 Y35.770431 Z-0.125000
G01 X49.250283 Y35.684561 Z-0.125000
G01 X49.099255 Y35.426756 Z-0.125000
G01 X48.986272 Y34.996814 Z-0.125000
G01 X48.911042 Y34.394632 Z-0.125000
G01 X48.877312 Y31.839366 Z-0.125000
G01 X48.917952 Y31.077442 Z-0.125000
G01 X49.040445 Y30.442808 Z-0.125000
G01 X49.221737 Y30.015789 Z-0.125000
G01 X49.439633 Y29.873280 Z-0.125000
G01 X49.775412 Y29.765140 Z-0.125000
G01 X50.086115 Y29.440717 Z-0.125000
G01 X50.371166 Y28.900215 Z-0.125000
G01 X50.631142 Y28.143633 Z-0.125000
G01 X50.847884 Y27.234263 Z-0.125000
G01 X51.002372 Y26.236405 Z-0.125000
G01 X51.095182 Y25.150159 Z-0.125000
G01 X51.126302 Y23.975527 Z-0.125000
G01 X51.126302 Y22.010550 Z-0.125000
G00 Z5.000000

(End cutting path id: path18)


(Start cutting path id: path18)
(Change tool to Default tool)

G00 Z5.000000
G00 X44.993230 Y22.010550

G01 Z-0.125000 F100.0(Penetrate)
G01 X44.962390 Y20.835716 Z-0.125000 F400.000000
G01 X44.869580 Y19.749470 Z-0.125000
G01 X44.715093 Y18.751713 Z-0.125000
G01 X44.498639 Y17.842444 Z-0.125000
G01 X44.238663 Y17.085862 Z-0.125000
G01 X43.953323 Y16.545461 Z-0.125000
G01 X43.642619 Y16.221139 Z-0.125000
G01 X43.306841 Y16.113099 Z-0.125000
G01 X42.970774 Y16.221139 Z-0.125000
G01 X42.660359 Y16.545461 Z-0.125000
G01 X42.375020 Y17.085862 Z-0.125000
G01 X42.115044 Y17.842444 Z-0.125000
G01 X41.898590 Y18.751814 Z-0.125000
G01 X41.743814 Y19.749672 Z-0.125000
G01 X41.651004 Y20.835917 Z-0.125000
G01 X41.620164 Y22.010550 Z-0.125000
G01 X41.620164 Y33.805061 Z-0.125000
G01 X41.651004 Y34.979794 Z-0.125000
G01 X41.743814 Y36.065737 Z-0.125000
G01 X41.898590 Y37.063192 Z-0.125000
G01 X42.115044 Y37.972461 Z-0.125000
G01 X42.375020 Y38.729144 Z-0.125000
G01 X42.660359 Y39.269747 Z-0.125000
G01 X42.970774 Y39.594371 Z-0.125000
G01 X43.306841 Y39.702511 Z-0.125000
G01 X43.642619 Y39.594371 Z-0.125000
G01 X43.953323 Y39.269747 Z-0.125000
G01 X44.238663 Y38.729144 Z-0.125000
G01 X44.498639 Y37.972461 Z-0.125000
G01 X44.715093 Y37.063192 Z-0.125000
G01 X44.869580 Y36.065636 Z-0.125000
G01 X44.962390 Y34.979592 Z-0.125000
G01 X44.993230 Y33.805061 Z-0.125000
G01 X43.868876 Y33.805061 Z-0.125000
G01 X43.828236 Y34.566380 Z-0.125000
G01 X43.705743 Y35.200510 Z-0.125000
G01 X43.524451 Y35.628235 Z-0.125000
G01 X43.306555 Y35.770743 Z-0.125000
G01 X43.088948 Y35.628235 Z-0.125000
G01 X42.907656 Y35.200510 Z-0.125000
G01 X42.785162 Y34.566682 Z-0.125000
G01 X42.744522 Y33.805061 Z-0.125000
G01 X42.744522 Y22.010562 Z-0.125000
G01 X42.785452 Y21.248941 Z-0.125000
G01 X42.908234 Y20.614710 Z-0.125000
G01 X43.089814 Y20.187489 Z-0.125000
G01 X43.308575 Y20.044879 Z-0.125000
G01 X43.527047 Y20.187489 Z-0.125000
G01 X43.708915 Y20.614710 Z-0.125000
G01 X43.831697 Y21.248639 Z-0.125000
G01 X43.872627 Y22.010562 Z-0.125000
G01 X43.883587 Y23.425966 Z-0.125000
G01 X43.895117 Y24.487116 Z-0.125000
G01 X43.866587 Y25.209332 Z-0.125000
G01 X43.781847 Y25.646631 Z-0.125000
G01 X43.606320 Y25.868053 Z-0.125000
G01 X43.306570 Y25.941923 Z-0.125000
G01 X43.306570 Y29.873290 Z-0.125000
G01 X44.992956 Y29.873290 Z-0.125000
G01 X44.992956 Y22.010560 Z-0.125000
G01 X44.993244 Y22.010560 Z-0.125000
G00 Z5.000000

(End cutting path id: path18)


(Start cutting path id: path18)
(Change tool to Default tool)

G00 Z5.000000
G00 X40.788088 Y16.112706

G01 Z-0.125000 F100.0(Penetrate)
G01 X39.663735 Y16.112706 Z-0.125000 F400.000000
G01 X38.697038 Y26.255866 Z-0.125000
G01 X38.584344 Y26.964475 Z-0.125000
G01 X38.539384 Y26.295172 Z-0.125000
G01 X38.539384 Y16.112708 Z-0.125000
G01 X37.415016 Y16.112708 Z-0.125000
G01 X37.415016 Y39.702511 Z-0.125000
G01 X38.539369 Y39.702511 Z-0.125000
G01 X39.528547 Y29.362421 Z-0.125000
G01 X39.618757 Y28.851145 Z-0.125000
G01 X39.652487 Y28.998491 Z-0.125000
G01 X39.663727 Y29.440729 Z-0.125000
G01 X39.663727 Y39.702511 Z-0.125000
G01 X40.788080 Y39.702511 Z-0.125000
G01 X40.788080 Y16.112708 Z-0.125000
G00 Z5.000000

(End cutting path id: path18)


(Start cutting path id: path18)
(Change tool to Default tool)

G00 Z5.000000
G00 X36.582923 Y16.112708

G01 Z-0.125000 F100.0(Penetrate)
G01 X35.458854 Y16.112708 Z-0.125000 F400.000000
G01 X35.458854 Y39.702511 Z-0.125000
G01 X36.582919 Y39.702511 Z-0.125000
G01 X36.582919 Y16.112708 Z-0.125000
G00 Z5.000000

(End cutting path id: path18)


(Start cutting path id: path18)
(Change tool to Default tool)

G00 Z5.000000
G00 X30.527666 Y16.112709

G01 Z-0.125000 F100.0(Penetrate)
G01 X29.403602 Y16.112709 Z-0.125000 F400.000000
G01 X29.403602 Y34.788305 Z-0.125000
G01 X29.386022 Y35.218046 Z-0.125000
G01 X29.333272 Y35.524932 Z-0.125000
G01 X29.245372 Y35.709064 Z-0.125000
G01 X29.122589 Y35.770444 Z-0.125000
G01 X28.841283 Y35.770444 Z-0.125000
G01 X28.623618 Y35.627935 Z-0.125000
G01 X28.442154 Y35.200110 Z-0.125000
G01 X28.319919 Y34.566281 Z-0.125000
G01 X28.279079 Y33.804762 Z-0.125000
G01 X28.279079 Y16.112305 Z-0.125000
G01 X27.154779 Y16.112305 Z-0.125000
G01 X27.154779 Y33.805061 Z-0.125000
G01 X27.114019 Y34.566380 Z-0.125000
G01 X26.991669 Y35.200510 Z-0.125000
G01 X26.810406 Y35.628235 Z-0.125000
G01 X26.592510 Y35.770743 Z-0.125000
G01 X26.311552 Y35.770743 Z-0.125000
G01 X26.188452 Y35.709373 Z-0.125000
G01 X26.100602 Y35.525140 Z-0.125000
G01 X26.047912 Y35.218254 Z-0.125000
G01 X26.030362 Y34.788715 Z-0.125000
G01 X26.030362 Y16.113111 Z-0.125000
G01 X24.906073 Y16.113111 Z-0.125000
G01 X24.906073 Y39.702914 Z-0.125000
G01 X26.592631 Y39.702914 Z-0.125000
G01 X26.903161 Y39.609494 Z-0.125000
G01 X27.194121 Y39.329316 Z-0.125000
G01 X27.465454 Y38.862486 Z-0.125000
G01 X27.717129 Y38.209207 Z-0.125000
G01 X27.968660 Y38.862688 Z-0.125000
G01 X28.239848 Y39.329517 Z-0.125000
G01 X28.530779 Y39.609595 Z-0.125000
G01 X28.841568 Y39.702915 Z-0.125000
G01 X30.527955 Y39.702915 Z-0.125000
G01 X30.527955 Y16.112709 Z-0.125000
G01 X30.527667 Y16.112709 Z-0.125000
G00 Z5.000000

(End cutting path id: path18)


(Start cutting path id: path18)
(Change tool to Default tool)

G00 Z5.000000
G00 X24.074178 Y22.010563

G01 Z-0.125000 F100.0(Penetrate)
G01 X24.043228 Y20.835729 Z-0.125000 F400.000000
G01 X23.950398 Y19.749483 Z-0.125000
G01 X23.795739 Y18.751726 Z-0.125000
G01 X23.579313 Y17.842457 Z-0.125000
G01 X23.319365 Y17.085875 Z-0.125000
G01 X23.034084 Y16.545474 Z-0.125000
G01 X22.723467 Y16.221152 Z-0.125000
G01 X22.387544 Y16.113112 Z-0.125000
G01 X22.051651 Y16.221152 Z-0.125000
G01 X21.741034 Y16.545474 Z-0.125000
G01 X21.455694 Y17.085875 Z-0.125000
G01 X21.195748 Y17.842457 Z-0.125000
G01 X20.979379 Y18.751827 Z-0.125000
G01 X20.824778 Y19.749685 Z-0.125000
G01 X20.732028 Y20.835930 Z-0.125000
G01 X20.701078 Y22.010563 Z-0.125000
G01 X20.701078 Y39.702511 Z-0.125000
G01 X21.825605 Y39.702511 Z-0.125000
G01 X21.825605 Y22.010159 Z-0.125000
G01 X21.866335 Y21.248538 Z-0.125000
G01 X21.988484 Y20.614408 Z-0.125000
G01 X22.169833 Y20.187085 Z-0.125000
G01 X22.387643 Y20.044476 Z-0.125000
G01 X22.605510 Y20.187085 Z-0.125000
G01 X22.786829 Y20.614408 Z-0.125000
G01 X22.909151 Y21.248236 Z-0.125000
G01 X22.949911 Y22.010159 Z-0.125000
G01 X22.949911 Y39.702511 Z-0.125000
G01 X24.074438 Y39.702511 Z-0.125000
G01 X24.074438 Y22.010562 Z-0.125000
G01 X24.074207 Y22.010562 Z-0.125000
G00 Z5.000000

(End cutting path id: path18)


(Start cutting path id: path18)
(Change tool to Default tool)

G00 Z5.000000
G00 X20.187450 Y31.839781

G01 Z-0.125000 F100.0(Penetrate)
G01 X20.156500 Y30.664947 Z-0.125000 F400.000000
G01 X20.063720 Y29.578601 Z-0.125000
G01 X19.909061 Y28.580844 Z-0.125000
G01 X19.692548 Y27.671675 Z-0.125000
G01 X19.432572 Y26.915093 Z-0.125000
G01 X19.147233 Y26.374692 Z-0.125000
G01 X18.836645 Y26.050370 Z-0.125000
G01 X18.500781 Y25.942330 Z-0.125000
G01 X18.219780 Y25.942330 Z-0.125000
G01 X18.096709 Y25.880850 Z-0.125000
G01 X18.008859 Y25.696518 Z-0.125000
G01 X17.956169 Y25.389329 Z-0.125000
G01 X17.938619 Y24.959084 Z-0.125000
G01 X17.938619 Y16.113113 Z-0.125000
G01 X16.814274 Y16.113113 Z-0.125000
G01 X16.814274 Y37.736829 Z-0.125000
G01 X16.855064 Y38.498148 Z-0.125000
G01 X16.977384 Y39.132278 Z-0.125000
G01 X17.158590 Y39.559903 Z-0.125000
G01 X17.376543 Y39.702511 Z-0.125000
G01 X18.500868 Y39.702511 Z-0.125000
G01 X18.836761 Y39.594371 Z-0.125000
G01 X19.147349 Y39.269747 Z-0.125000
G01 X19.432660 Y38.729144 Z-0.125000
G01 X19.692636 Y37.972461 Z-0.125000
G01 X19.909148 Y37.063192 Z-0.125000
G01 X20.063779 Y36.065636 Z-0.125000
G01 X20.156589 Y34.979592 Z-0.125000
G01 X20.187509 Y33.805061 Z-0.125000
G01 X20.187509 Y31.839781 Z-0.125000
G01 X20.187423 Y31.839781 Z-0.125000
G00 Z5.000000

(End cutting path id: path18)


(Start cutting path id: path18)
(Change tool to Default tool)

G00 Z5.000000
G00 X19.062896 Y31.839781

G01 Z-0.125000 F100.0(Penetrate)
G01 X19.062896 Y33.805061 Z-0.125000 F400.000000
G01 X19.022136 Y34.566380 Z-0.125000
G01 X18.899814 Y35.200510 Z-0.125000
G01 X18.718522 Y35.628235 Z-0.125000
G01 X18.500627 Y35.770743 Z-0.125000
G01 X18.219668 Y35.770743 Z-0.125000
G01 X18.096598 Y35.709373 Z-0.125000
G01 X18.008718 Y35.525140 Z-0.125000
G01 X17.956028 Y35.218254 Z-0.125000
G01 X17.938478 Y34.788715 Z-0.125000
G01 X17.938478 Y30.856544 Z-0.125000
G01 X17.956058 Y30.426601 Z-0.125000
G01 X18.008778 Y30.119413 Z-0.125000
G01 X18.096628 Y29.935180 Z-0.125000
G01 X18.219670 Y29.873700 Z-0.125000
G01 X18.500629 Y29.873700 Z-0.125000
G01 X18.718438 Y30.016209 Z-0.125000
G01 X18.899816 Y30.443631 Z-0.125000
G01 X19.022166 Y31.077560 Z-0.125000
G01 X19.062896 Y31.839786 Z-0.125000
G01 X19.062896 Y31.839786 Z-0.125000
G00 Z5.000000

(End cutting path id: path18)


(Start cutting path id: path18)
(Change tool to Default tool)

G00 Z5.000000
G00 X33.608467 Y31.839781

G01 Z-0.125000 F100.0(Penetrate)
G01 X33.608467 Y33.805061 Z-0.125000 F400.000000
G01 X33.567827 Y34.566380 Z-0.125000
G01 X33.445621 Y35.200510 Z-0.125000
G01 X33.264041 Y35.628235 Z-0.125000
G01 X33.046434 Y35.770743 Z-0.125000
G01 X32.765418 Y35.770743 Z-0.125000
G01 X32.642347 Y35.709373 Z-0.125000
G01 X32.554447 Y35.525140 Z-0.125000
G01 X32.501697 Y35.218254 Z-0.125000
G01 X32.484117 Y34.788715 Z-0.125000
G01 X32.484117 Y30.856544 Z-0.125000
G01 X32.501697 Y30.426601 Z-0.125000
G01 X32.554447 Y30.119413 Z-0.125000
G01 X32.642347 Y29.935180 Z-0.125000
G01 X32.765418 Y29.873700 Z-0.125000
G01 X33.046434 Y29.873700 Z-0.125000
G01 X33.264041 Y30.016209 Z-0.125000
G01 X33.445621 Y30.443631 Z-0.125000
G01 X33.567827 Y31.077560 Z-0.125000
G01 X33.608467 Y31.839786 Z-0.125000
G01 X33.608467 Y31.839786 Z-0.125000
G00 Z5.000000

(End cutting path id: path18)


(Start cutting path id: path18)
(Change tool to Default tool)

G00 Z5.000000
G00 X34.732824 Y31.839781

G01 Z-0.125000 F100.0(Penetrate)
G01 X34.701984 Y30.664947 Z-0.125000 F400.000000
G01 X34.609174 Y29.578601 Z-0.125000
G01 X34.454398 Y28.580844 Z-0.125000
G01 X34.237944 Y27.671675 Z-0.125000
G01 X33.977968 Y26.915093 Z-0.125000
G01 X33.692916 Y26.374692 Z-0.125000
G01 X33.382213 Y26.050370 Z-0.125000
G01 X33.046435 Y25.942330 Z-0.125000
G01 X32.765419 Y25.942330 Z-0.125000
G01 X32.642348 Y25.880850 Z-0.125000
G01 X32.554448 Y25.696518 Z-0.125000
G01 X32.501698 Y25.389329 Z-0.125000
G01 X32.484408 Y24.959084 Z-0.125000
G01 X32.484408 Y16.113113 Z-0.125000
G01 X31.360052 Y16.113113 Z-0.125000
G01 X31.360052 Y37.736829 Z-0.125000
G01 X31.400692 Y38.498148 Z-0.125000
G01 X31.523187 Y39.132278 Z-0.125000
G01 X31.704190 Y39.559903 Z-0.125000
G01 X31.922374 Y39.702511 Z-0.125000
G01 X33.046439 Y39.702511 Z-0.125000
G01 X33.382506 Y39.594371 Z-0.125000
G01 X33.692920 Y39.269747 Z-0.125000
G01 X33.978260 Y38.729144 Z-0.125000
G01 X34.238236 Y37.972461 Z-0.125000
G01 X34.454690 Y37.063192 Z-0.125000
G01 X34.609178 Y36.065636 Z-0.125000
G01 X34.701988 Y34.979592 Z-0.125000
G01 X34.733108 Y33.805061 Z-0.125000
G01 X34.733108 Y31.839781 Z-0.125000
G01 X34.732820 Y31.839781 Z-0.125000
G00 Z5.000000

(End cutting path id: path18)


(Start cutting path id: path18)
(Change tool to Default tool)

G00 Z5.000000
G00 X54.906899 Y35.770844

G01 Z-0.125000 F100.0(Penetrate)
G01 X54.063274 Y35.770844 Z-0.125000 F400.000000
G01 X53.940491 Y35.709364 Z-0.125000
G01 X53.852591 Y35.525131 Z-0.125000
G01 X53.799841 Y35.218245 Z-0.125000
G01 X53.782541 Y34.788706 Z-0.125000
G01 X53.782541 Y16.113516 Z-0.125000
G01 X52.658203 Y16.113516 Z-0.125000
G01 X52.658203 Y34.788708 Z-0.125000
G01 X52.640623 Y35.218449 Z-0.125000
G01 X52.587873 Y35.525335 Z-0.125000
G01 X52.499973 Y35.709467 Z-0.125000
G01 X52.376902 Y35.770837 Z-0.125000
G01 X51.533850 Y35.770837 Z-0.125000
G01 X51.533850 Y39.702509 Z-0.125000
G01 X54.906910 Y39.702509 Z-0.125000
G01 X54.906910 Y35.770842 Z-0.125000
G01 X54.906910 Y35.770842 Z-0.125000
G00 Z5.000000

(End cutting path id: path18)


(Start cutting path id: path18)
(Change tool to Default tool)

G00 Z5.000000
G00 X57.669227 Y30.856234

G01 Z-0.125000 F100.0(Penetrate)
G01 X57.669227 Y33.805061 Z-0.125000 F400.000000
G01 X57.628297 Y34.566380 Z-0.125000
G01 X57.506091 Y35.200510 Z-0.125000
G01 X57.324799 Y35.628235 Z-0.125000
G01 X57.106903 Y35.770844 Z-0.125000
G01 X56.889008 Y35.628235 Z-0.125000
G01 X56.707717 Y35.200510 Z-0.125000
G01 X56.585510 Y34.566682 Z-0.125000
G01 X56.544580 Y33.805061 Z-0.125000
G01 X56.544580 Y30.856234 Z-0.125000
G01 X56.562160 Y30.426292 Z-0.125000
G01 X56.614910 Y30.119204 Z-0.125000
G01 X56.702810 Y29.935072 Z-0.125000
G01 X56.825880 Y29.873692 Z-0.125000
G01 X57.387913 Y29.873692 Z-0.125000
G01 X57.510696 Y29.935072 Z-0.125000
G01 X57.598596 Y30.119204 Z-0.125000
G01 X57.651346 Y30.426292 Z-0.125000
G01 X57.669216 Y30.856234 Z-0.125000
G01 X57.669216 Y30.856234 Z-0.125000
G00 Z5.000000

(End cutting path id: path18)


(Start cutting path id: path18)
(Change tool to Default tool)

G00 Z5.000000
G00 X62.786317 Y35.770844

G01 Z-0.125000 F100.0(Penetrate)
G01 X61.942981 Y35.770844 Z-0.125000 F400.000000
G01 X61.819910 Y35.709364 Z-0.125000
G01 X61.732010 Y35.525131 Z-0.125000
G01 X61.679550 Y35.218245 Z-0.125000
G01 X61.661970 Y34.788706 Z-0.125000
G01 X61.661970 Y16.113516 Z-0.125000
G01 X60.537611 Y16.113516 Z-0.125000
G01 X60.537611 Y34.788708 Z-0.125000
G01 X60.520031 Y35.218449 Z-0.125000
G01 X60.467281 Y35.525335 Z-0.125000
G01 X60.379381 Y35.709467 Z-0.125000
G01 X60.256599 Y35.770837 Z-0.125000
G01 X59.413264 Y35.770837 Z-0.125000
G01 X59.413264 Y39.702509 Z-0.125000
G01 X62.786323 Y39.702509 Z-0.125000
G01 X62.786323 Y35.770842 Z-0.125000
G01 X62.786323 Y35.770842 Z-0.125000
G00 Z5.000000

(End cutting path id: path18)


(Start cutting path id: path18)
(Change tool to Default tool)

G00 Z5.000000
G00 X75.321376 Y27.907610

G01 Z-0.125000 F100.0(Penetrate)
G01 X74.197022 Y27.907610 Z-0.125000 F400.000000
G01 X74.197022 Y32.952835 Z-0.125000
G01 X75.321376 Y32.952835 Z-0.125000
G01 X75.321376 Y27.907610 Z-0.125000
G00 Z5.000000

(End cutting path id: path18)


(Start cutting path id: path18)
(Change tool to Default tool)

G00 Z5.000000
G00 X85.659313 Y16.112507

G01 Z-0.125000 F100.0(Penetrate)
G01 X84.534671 Y16.112507 Z-0.125000 F400.000000
G01 X83.567687 Y26.255666 Z-0.125000
G01 X83.455280 Y26.964276 Z-0.125000
G01 X83.410320 Y26.295376 Z-0.125000
G01 X83.410320 Y16.112507 Z-0.125000
G01 X82.285964 Y16.112507 Z-0.125000
G01 X82.285964 Y39.702410 Z-0.125000
G01 X83.410318 Y39.702410 Z-0.125000
G01 X84.399783 Y29.362219 Z-0.125000
G01 X84.489703 Y28.850641 Z-0.125000
G01 X84.523433 Y28.997987 Z-0.125000
G01 X84.534683 Y29.440527 Z-0.125000
G01 X84.534683 Y39.702410 Z-0.125000
G01 X85.659325 Y39.702410 Z-0.125000
G01 X85.659325 Y16.112507 Z-0.125000
G00 Z5.000000

(End cutting path id: path18)


(Footer)
M5
G00 X0.0000 Y0.0000
M2
(Using default footer. To add your own footer create file "footer" in the output dir.)
(end)
%