%
(Header)
(Generated by gcodetools from Inkscape.)
(Using default header. To add your own header create file "header" in the output dir.)
M3
(Header end.)
G21 (All units in mm)

(Start cutting path id: path11677)
(Change tool to Default tool)

G00 Z5.000000
G00 X7.287666 Y4.394014

G01 Z-0.125000 F100.0(Penetrate)
G01 X6.791676 Y4.683926 Z-0.125000 F400.000000
G01 X6.308126 Y5.100418 Z-0.125000
G01 X5.838557 Y5.638927 Z-0.125000
G01 X5.384531 Y6.294410 Z-0.125000
G01 X4.947637 Y7.062222 Z-0.125000
G01 X4.529391 Y7.937559 Z-0.125000
G01 X4.131403 Y8.915539 Z-0.125000
G01 X3.755190 Y9.991437 Z-0.125000
G01 X3.402317 Y11.160368 Z-0.125000
G01 X3.074368 Y12.417611 Z-0.125000
G01 X2.772909 Y13.758280 Z-0.125000
G01 X2.499456 Y15.177652 Z-0.125000
G01 X2.255596 Y16.670841 Z-0.125000
G01 X2.042893 Y18.233127 Z-0.125000
G01 X1.862910 Y19.859624 Z-0.125000
G01 X1.717188 Y21.545607 Z-0.125000
G01 X1.599926 Y23.428788 Z-0.125000
G01 X1.527960 Y25.317895 Z-0.125000
G01 X1.500315 Y27.204119 Z-0.125000
G01 X1.515928 Y29.078732 Z-0.125000
G01 X1.573800 Y30.932770 Z-0.125000
G01 X1.672934 Y32.757585 Z-0.125000
G01 X1.812289 Y34.544290 Z-0.125000
G01 X1.990844 Y36.284077 Z-0.125000
G01 X2.207626 Y37.968219 Z-0.125000
G01 X2.461569 Y39.587910 Z-0.125000
G01 X2.751677 Y41.134263 Z-0.125000
G01 X3.076929 Y42.598550 Z-0.125000
G01 X3.436306 Y43.971965 Z-0.125000
G01 X3.828810 Y45.245620 Z-0.125000
G01 X4.253423 Y46.410869 Z-0.125000
G01 X4.709125 Y47.458745 Z-0.125000
G01 X5.232306 Y48.445131 Z-0.125000
G01 X5.771145 Y49.251053 Z-0.125000
G01 X6.322197 Y49.878674 Z-0.125000
G01 X6.882086 Y50.329833 Z-0.125000
G01 X7.447414 Y50.606454 Z-0.125000
G01 X8.014758 Y50.710537 Z-0.125000
G01 X8.580720 Y50.644004 Z-0.125000
G01 X9.141901 Y50.408776 Z-0.125000
G01 X9.694902 Y50.006856 Z-0.125000
G01 X10.236301 Y49.440164 Z-0.125000
G01 X10.762722 Y48.710622 Z-0.125000
G01 X11.270744 Y47.820233 Z-0.125000
G01 X11.756991 Y46.770836 Z-0.125000
G01 X12.218017 Y45.564515 Z-0.125000
G01 X12.650448 Y44.203109 Z-0.125000
G01 X13.050884 Y42.688622 Z-0.125000
G01 X13.602162 Y40.069094 Z-0.125000
G01 X14.033460 Y37.316260 Z-0.125000
G01 X14.348243 Y34.465747 Z-0.125000
G01 X14.549911 Y31.553105 Z-0.125000
G01 X14.641881 Y28.613882 Z-0.125000
G01 X14.627611 Y25.683866 Z-0.125000
G01 X14.510531 Y22.798526 Z-0.125000
G01 X14.294043 Y19.993490 Z-0.125000
G01 X13.981594 Y17.304386 Z-0.125000
G01 X13.576604 Y14.766844 Z-0.125000
G01 X13.082495 Y12.416410 Z-0.125000
G01 X12.502711 Y10.288794 Z-0.125000
G01 X11.840673 Y8.419464 Z-0.125000
G01 X11.099804 Y6.844128 Z-0.125000
G01 X10.283524 Y5.598415 Z-0.125000
G01 X9.395301 Y4.717873 Z-0.125000
G01 X8.915785 Y4.468794 Z-0.125000
G01 X8.337428 Y4.321557 Z-0.125000
G01 X7.761134 Y4.291447 Z-0.125000
G01 X7.287667 Y4.394008 Z-0.125000
G01 X7.287667 Y4.394008 Z-0.125000
G00 Z5.000000

(End cutting path id: path11677)


(Start cutting path id: path11677)
(Change tool to Default tool)

G00 Z5.000000
G00 X9.395188 Y14.460354

G01 Z-0.125000 F100.0(Penetrate)
G01 X9.872530 Y15.001105 Z-0.125000 F400.000000
G01 X10.347718 Y15.773720 Z-0.125000
G01 X10.788419 Y16.717673 Z-0.125000
G01 X11.162344 Y17.772434 Z-0.125000
G01 X11.484310 Y18.999091 Z-0.125000
G01 X11.720533 Y20.277230 Z-0.125000
G01 X11.875319 Y21.635834 Z-0.125000
G01 X11.952949 Y23.103963 Z-0.125000
G01 X12.006039 Y24.267051 Z-0.125000
G01 X12.096609 Y24.742951 Z-0.125000
G01 X12.238797 Y25.177457 Z-0.125000
G01 X12.356602 Y25.848392 Z-0.125000
G01 X12.436932 Y26.657677 Z-0.125000
G01 X12.466612 Y27.507234 Z-0.125000
G01 X12.430042 Y28.431731 Z-0.125000
G01 X12.328393 Y29.246700 Z-0.125000
G01 X12.173720 Y29.927643 Z-0.125000
G01 X11.978102 Y30.449739 Z-0.125000
G01 X11.753593 Y30.788329 Z-0.125000
G01 X11.512294 Y30.918593 Z-0.125000
G01 X11.266259 Y30.815791 Z-0.125000
G01 X11.027566 Y30.455263 Z-0.125000
G01 X10.831404 Y30.032687 Z-0.125000
G01 X10.586117 Y30.579768 Z-0.125000
G01 X10.129124 Y31.410109 Z-0.125000
G01 X9.587090 Y32.113150 Z-0.125000
G01 X9.040728 Y32.600738 Z-0.125000
G01 X8.570819 Y32.784485 Z-0.125000
G01 X8.384764 Y32.853415 Z-0.125000
G01 X8.316038 Y33.037402 Z-0.125000
G01 X8.511814 Y36.590874 Z-0.125000
G01 X8.741965 Y39.863803 Z-0.125000
G01 X8.960356 Y39.867903 Z-0.125000
G01 X9.451134 Y39.567583 Z-0.125000
G01 X10.034045 Y39.049971 Z-0.125000
G01 X10.127875 Y38.784720 Z-0.125000
G01 X10.177185 Y38.371430 Z-0.125000
G01 X10.272035 Y37.698894 Z-0.125000
G01 X10.412342 Y37.210024 Z-0.125000
G01 X10.595316 Y36.911706 Z-0.125000
G01 X10.818147 Y36.810746 Z-0.125000
G01 X11.073994 Y36.944372 Z-0.125000
G01 X11.289688 Y37.531000 Z-0.125000
G01 X11.428635 Y38.189685 Z-0.125000
G01 X11.492875 Y38.905776 Z-0.125000
G01 X11.481495 Y39.655254 Z-0.125000
G01 X11.393695 Y40.414179 Z-0.125000
G01 X11.302265 Y40.829309 Z-0.125000
G01 X11.187133 Y41.147083 Z-0.125000
G01 X10.912185 Y41.479588 Z-0.125000
G01 X10.621692 Y41.388958 Z-0.125000
G01 X10.487119 Y41.177991 Z-0.125000
G01 X10.368474 Y40.852691 Z-0.125000
G01 X10.193454 Y40.234278 Z-0.125000
G01 X9.364825 Y40.881594 Z-0.125000
G01 X8.668005 Y41.362778 Z-0.125000
G01 X8.532978 Y41.357578 Z-0.125000
G01 X8.471073 Y41.214103 Z-0.125000
G01 X8.356825 Y39.846773 Z-0.125000
G01 X8.173579 Y37.001465 Z-0.125000
G01 X7.989653 Y34.202994 Z-0.125000
G01 X7.873818 Y32.948074 Z-0.125000
G01 X7.566626 Y32.787706 Z-0.125000
G01 X7.207227 Y32.647995 Z-0.125000
G01 X6.759433 Y32.285867 Z-0.125000
G01 X6.294237 Y31.769614 Z-0.125000
G01 X5.882653 Y31.167535 Z-0.125000
G01 X5.407782 Y30.240876 Z-0.125000
G01 X5.304614 Y30.283146 Z-0.125000
G01 X5.094698 Y30.602601 Z-0.125000
G01 X4.909639 Y30.864410 Z-0.125000
G01 X4.728840 Y30.984426 Z-0.125000
G01 X4.554794 Y30.975626 Z-0.125000
G01 X4.389948 Y30.850727 Z-0.125000
G01 X4.097665 Y30.304531 Z-0.125000
G01 X3.871683 Y29.448809 Z-0.125000
G01 X3.731649 Y28.386762 Z-0.125000
G01 X3.697275 Y27.221433 Z-0.125000
G01 X3.725826 Y26.632244 Z-0.125000
G01 X3.788185 Y26.055784 Z-0.125000
G01 X3.886776 Y25.505105 Z-0.125000
G01 X4.024069 Y24.993017 Z-0.125000
G01 X4.130363 Y24.623523 Z-0.125000
G01 X4.194172 Y24.249864 Z-0.125000
G01 X4.253359 Y22.968843 Z-0.125000
G01 X4.295776 Y21.987341 Z-0.125000
G01 X4.376964 Y21.029617 Z-0.125000
G01 X4.495314 Y20.103919 Z-0.125000
G01 X4.649194 Y19.218333 Z-0.125000
G01 X4.837039 Y18.380866 Z-0.125000
G01 X5.057220 Y17.599683 Z-0.125000
G01 X5.308127 Y16.882791 Z-0.125000
G01 X5.588174 Y16.238438 Z-0.125000
G01 X6.206275 Y15.147649 Z-0.125000
G01 X6.831627 Y14.436762 Z-0.125000
G01 X7.502229 Y14.074153 Z-0.125000
G01 X8.256082 Y14.028433 Z-0.125000
G01 X8.899811 Y14.194406 Z-0.125000
G01 X9.395189 Y14.460378 Z-0.125000
G01 X9.395189 Y14.460378 Z-0.125000
G00 Z5.000000

(End cutting path id: path11677)


(Start cutting path id: path11677)
(Change tool to Default tool)

G00 Z5.000000
G00 X7.250664 Y17.213877

G01 Z-0.125000 F100.0(Penetrate)
G01 X6.876037 Y17.681771 Z-0.125000 F400.000000
G01 X6.598823 Y18.224363 Z-0.125000
G01 X6.439460 Y18.789934 Z-0.125000
G01 X6.410343 Y19.065113 Z-0.125000
G01 X6.418363 Y19.326602 Z-0.125000
G01 X6.472995 Y19.571036 Z-0.125000
G01 X6.559554 Y19.634926 Z-0.125000
G01 X6.671174 Y19.520034 Z-0.125000
G01 X6.801012 Y19.228122 Z-0.125000
G01 X7.022257 Y18.781365 Z-0.125000
G01 X7.317373 Y18.448700 Z-0.125000
G01 X7.673101 Y18.241015 Z-0.125000
G01 X8.076211 Y18.169355 Z-0.125000
G01 X8.479343 Y18.241015 Z-0.125000
G01 X8.835071 Y18.448700 Z-0.125000
G01 X9.130164 Y18.781365 Z-0.125000
G01 X9.351432 Y19.228122 Z-0.125000
G01 X9.558629 Y19.600017 Z-0.125000
G01 X9.701088 Y19.528367 Z-0.125000
G01 X9.735621 Y19.359351 Z-0.125000
G01 X9.739041 Y19.119241 Z-0.125000
G01 X9.632701 Y18.478490 Z-0.125000
G01 X9.460671 Y18.018203 Z-0.125000
G01 X9.217469 Y17.625490 Z-0.125000
G01 X8.588038 Y17.080496 Z-0.125000
G01 X7.885418 Y16.918286 Z-0.125000
G01 X7.550740 Y17.004196 Z-0.125000
G01 X7.250662 Y17.213882 Z-0.125000
G01 X7.250662 Y17.213882 Z-0.125000
G00 Z5.000000

(End cutting path id: path11677)


(Start cutting path id: path11677)
(Change tool to Default tool)

G00 Z5.000000
G00 X6.300307 Y22.922276

G01 Z-0.125000 F100.0(Penetrate)
G01 X6.132696 Y23.277280 Z-0.125000 F400.000000
G01 X6.013236 Y23.753179 Z-0.125000
G01 X5.941701 Y24.351175 Z-0.125000
G01 X5.917908 Y25.072550 Z-0.125000
G01 X5.935921 Y25.660459 Z-0.125000
G01 X5.987222 Y26.181515 Z-0.125000
G01 X6.067685 Y26.624828 Z-0.125000
G01 X6.173187 Y26.979671 Z-0.125000
G01 X6.299603 Y27.235155 Z-0.125000
G01 X6.442833 Y27.380390 Z-0.125000
G01 X6.598751 Y27.404650 Z-0.125000
G01 X6.763213 Y27.296965 Z-0.125000
G01 X6.955341 Y26.966541 Z-0.125000
G01 X7.097461 Y26.469185 Z-0.125000
G01 X7.188597 Y25.857497 Z-0.125000
G01 X7.227774 Y25.183760 Z-0.125000
G01 X7.213974 Y24.500575 Z-0.125000
G01 X7.146268 Y23.860465 Z-0.125000
G01 X7.023636 Y23.315711 Z-0.125000
G01 X6.845126 Y22.918995 Z-0.125000
G01 X6.569725 Y22.645417 Z-0.125000
G01 X6.300305 Y22.922357 Z-0.125000
G01 X6.300305 Y22.922277 Z-0.125000
G00 Z5.000000

(End cutting path id: path11677)


(Start cutting path id: path11677)
(Change tool to Default tool)

G00 Z5.000000
G00 X9.294146 Y22.927877

G01 Z-0.125000 F100.0(Penetrate)
G01 X9.124745 Y23.318990 Z-0.125000 F400.000000
G01 X9.007687 Y23.856138 Z-0.125000
G01 X8.942179 Y24.488001 Z-0.125000
G01 X8.927452 Y25.163340 Z-0.125000
G01 X8.962710 Y25.830831 Z-0.125000
G01 X9.047161 Y26.439076 Z-0.125000
G01 X9.180058 Y26.936834 Z-0.125000
G01 X9.360562 Y27.272781 Z-0.125000
G01 X9.525703 Y27.391436 Z-0.125000
G01 X9.684522 Y27.367176 Z-0.125000
G01 X9.832216 Y27.212813 Z-0.125000
G01 X9.963912 Y26.941397 Z-0.125000
G01 X10.074806 Y26.565737 Z-0.125000
G01 X10.160046 Y26.098725 Z-0.125000
G01 X10.214836 Y25.553250 Z-0.125000
G01 X10.234276 Y24.942204 Z-0.125000
G01 X10.208806 Y24.282237 Z-0.125000
G01 X10.133216 Y23.717868 Z-0.125000
G01 X10.009337 Y23.258461 Z-0.125000
G01 X9.838894 Y22.913226 Z-0.125000
G01 X9.566121 Y22.645333 Z-0.125000
G01 X9.294141 Y22.927877 Z-0.125000
G01 X9.294141 Y22.927877 Z-0.125000
G00 Z5.000000

(End cutting path id: path11677)


(Footer)
M5
G00 X0.0000 Y0.0000
M2
(Using default footer. To add your own footer create file "footer" in the output dir.)
(end)
%