%
(Header)
(Generated by gcodetools from Inkscape.)
(Using default header. To add your own header create file "header" in the output dir.)
M3
(Header end.)
G21 (All units in mm)

(Start cutting path id: text11677)
(Change tool to Default tool)

G00 Z5.000000
G00 X17.285719 Y17.189333

G01 Z-0.125000 F100.0(Penetrate)
G01 X17.494180 Y20.970245 Z-0.125000 F400.000000
G01 X17.737384 Y25.144034 Z-0.125000
G01 X17.980588 Y29.293230 Z-0.125000
G01 X18.182088 Y33.025058 Z-0.125000
G01 X18.175088 Y33.442427 Z-0.125000
G01 X18.175088 Y33.859896 Z-0.125000
G01 X18.202898 Y35.382018 Z-0.125000
G01 X18.279318 Y36.781478 Z-0.125000
G01 X18.359248 Y37.560983 Z-0.125000
G01 X18.446078 Y38.033585 Z-0.125000
G01 X18.571160 Y38.291404 Z-0.125000
G01 X18.751809 Y38.377374 Z-0.125000
G01 X18.932486 Y38.303694 Z-0.125000
G01 X19.071460 Y38.082663 Z-0.125000
G01 X19.266000 Y37.346195 Z-0.125000
G01 X19.356340 Y36.265934 Z-0.125000
G01 X19.377190 Y35.038320 Z-0.125000
G01 X19.370190 Y34.277259 Z-0.125000
G01 X19.363290 Y33.614367 Z-0.125000
G01 X19.773251 Y35.062912 Z-0.125000
G01 X20.238779 Y36.413188 Z-0.125000
G01 X20.759930 Y37.419771 Z-0.125000
G01 X21.043069 Y37.714479 Z-0.125000
G01 X21.336649 Y37.812649 Z-0.125000
G01 X21.565961 Y37.738969 Z-0.125000
G01 X21.802205 Y37.542531 Z-0.125000
G01 X22.087084 Y37.198839 Z-0.125000
G01 X22.378923 Y36.634116 Z-0.125000
G01 X22.589124 Y35.940584 Z-0.125000
G01 X22.761101 Y35.087402 Z-0.125000
G01 X22.880963 Y34.166691 Z-0.125000
G01 X22.920893 Y33.221488 Z-0.125000
G01 X22.879223 Y32.411343 Z-0.125000
G01 X22.761101 Y31.625690 Z-0.125000
G01 X22.594315 Y31.036375 Z-0.125000
G01 X22.378923 Y30.815444 Z-0.125000
G01 X22.087084 Y31.011883 Z-0.125000
G01 X21.809136 Y31.576505 Z-0.125000
G01 X21.704906 Y31.993874 Z-0.125000
G01 X21.607636 Y32.534004 Z-0.125000
G01 X21.524256 Y33.025050 Z-0.125000
G01 X21.468656 Y33.344250 Z-0.125000
G01 X21.392236 Y33.368840 Z-0.125000
G01 X21.315786 Y33.393330 Z-0.125000
G01 X20.970091 Y33.233781 Z-0.125000
G01 X20.641797 Y32.755031 Z-0.125000
G01 X20.332587 Y32.043055 Z-0.125000
G01 X20.044228 Y31.183725 Z-0.125000
G01 X19.530036 Y29.219541 Z-0.125000
G01 X19.127035 Y27.353628 Z-0.125000
G01 X18.814344 Y23.106262 Z-0.125000
G01 X18.480802 Y18.416936 Z-0.125000
G01 X18.480802 Y17.803128 Z-0.125000
G01 X18.466912 Y16.305499 Z-0.125000
G01 X18.383532 Y14.955123 Z-0.125000
G01 X18.161179 Y14.341315 Z-0.125000
G01 X17.834597 Y14.071301 Z-0.125000
G01 X17.579241 Y14.236998 Z-0.125000
G01 X17.396852 Y14.734192 Z-0.125000
G01 X17.287402 Y15.476809 Z-0.125000
G01 X17.250922 Y16.329991 Z-0.125000
G01 X17.285662 Y17.189321 Z-0.125000
G01 X17.285662 Y17.189321 Z-0.125000
G00 Z5.000000

(End cutting path id: text11677)


(Start cutting path id: text11677)
(Change tool to Default tool)

G00 Z5.000000
G00 X35.295710 Y13.261055

G01 Z-0.125000 F100.0(Penetrate)
G01 X34.932587 Y13.426753 Z-0.125000 F400.000000
G01 X34.704958 Y13.923947 Z-0.125000
G01 X34.585153 Y14.709600 Z-0.125000
G01 X34.545223 Y15.740776 Z-0.125000
G01 X34.580023 Y17.066560 Z-0.125000
G01 X34.670163 Y18.539697 Z-0.125000
G01 X34.885812 Y21.117587 Z-0.125000
G01 X35.128845 Y23.720070 Z-0.125000
G01 X35.365032 Y26.347044 Z-0.125000
G01 X35.573550 Y28.998611 Z-0.125000
G01 X35.580350 Y29.317811 Z-0.125000
G01 X35.531860 Y29.857941 Z-0.125000
G01 X35.385812 Y30.054380 Z-0.125000
G01 X35.052355 Y29.833349 Z-0.125000
G01 X34.760544 Y29.342303 Z-0.125000
G01 X33.940736 Y27.157290 Z-0.125000
G01 X33.301492 Y24.898499 Z-0.125000
G01 X32.745540 Y22.369694 Z-0.125000
G01 X32.203565 Y19.448112 Z-0.125000
G01 X31.842153 Y16.722868 Z-0.125000
G01 X31.619944 Y14.930631 Z-0.125000
G01 X31.515542 Y14.341315 Z-0.125000
G01 X31.397449 Y13.948539 Z-0.125000
G01 X31.241132 Y13.709164 Z-0.125000
G01 X31.022345 Y13.629344 Z-0.125000
G01 X30.784447 Y13.770550 Z-0.125000
G01 X30.626133 Y14.194067 Z-0.125000
G01 X30.542843 Y14.844663 Z-0.125000
G01 X30.515173 Y15.667104 Z-0.125000
G01 X30.577643 Y17.263003 Z-0.125000
G01 X32.870481 Y49.720147 Z-0.125000
G01 X32.940081 Y50.358496 Z-0.125000
G01 X33.072152 Y50.996836 Z-0.125000
G01 X33.266692 Y51.487861 Z-0.125000
G01 X33.530833 Y51.684280 Z-0.125000
G01 X33.767020 Y51.635175 Z-0.125000
G01 X33.989230 Y51.487861 Z-0.125000
G01 X34.156101 Y51.144139 Z-0.125000
G01 X34.225421 Y50.505799 Z-0.125000
G01 X34.211731 Y50.088421 Z-0.125000
G01 X34.170081 Y49.400976 Z-0.125000
G01 X33.363965 Y38.303693 Z-0.125000
G01 X32.502226 Y26.641656 Z-0.125000
G01 X32.934950 Y28.403253 Z-0.125000
G01 X33.384789 Y30.005200 Z-0.125000
G01 X33.848605 Y31.441549 Z-0.125000
G01 X34.322690 Y32.656767 Z-0.125000
G01 X34.816172 Y33.638858 Z-0.125000
G01 X35.323346 Y34.375427 Z-0.125000
G01 X35.853341 Y34.854177 Z-0.125000
G01 X36.400450 Y35.013726 Z-0.125000
G01 X36.714795 Y34.811240 Z-0.125000
G01 X36.949270 Y34.203581 Z-0.125000
G01 X37.095318 Y33.307463 Z-0.125000
G01 X37.143808 Y32.190313 Z-0.125000
G01 X37.102158 Y31.085561 Z-0.125000
G01 X36.914749 Y28.851363 Z-0.125000
G01 X36.699100 Y26.666249 Z-0.125000
G01 X36.476891 Y24.407458 Z-0.125000
G01 X36.282350 Y22.075091 Z-0.125000
G01 X36.129456 Y19.128917 Z-0.125000
G01 X36.073836 Y16.919311 Z-0.125000
G01 X36.011366 Y15.544342 Z-0.125000
G01 X35.865318 Y14.390405 Z-0.125000
G01 X35.629131 Y13.580260 Z-0.125000
G01 X35.476237 Y13.340885 Z-0.125000
G01 X35.295674 Y13.261065 Z-0.125000
G01 X35.295674 Y13.261065 Z-0.125000
G00 Z5.000000

(End cutting path id: text11677)


(Start cutting path id: text11677)
(Change tool to Default tool)

G00 Z5.000000
G00 X38.384074 Y24.063771

G01 Z-0.125000 F100.0(Penetrate)
G01 X38.515860 Y25.604337 Z-0.125000 F400.000000
G01 X38.703554 Y27.230876 Z-0.125000
G01 X38.958853 Y28.931092 Z-0.125000
G01 X39.280329 Y30.643605 Z-0.125000
G01 X39.669410 Y32.343821 Z-0.125000
G01 X40.128092 Y34.007148 Z-0.125000
G01 X40.666643 Y35.596899 Z-0.125000
G01 X41.281357 Y37.076084 Z-0.125000
G01 X41.601122 Y37.542537 Z-0.125000
G01 X42.045826 Y37.861737 Z-0.125000
G01 X42.193015 Y38.312870 Z-0.125000
G01 X42.363595 Y38.635094 Z-0.125000
G01 X42.775495 Y38.892913 Z-0.125000
G01 X43.273827 Y38.647390 Z-0.125000
G01 X43.685728 Y37.910821 Z-0.125000
G01 X44.027742 Y36.775328 Z-0.125000
G01 X44.304149 Y35.283847 Z-0.125000
G01 X44.443066 Y34.228078 Z-0.125000
G01 X44.554313 Y33.123326 Z-0.125000
G01 X44.630763 Y31.895711 Z-0.125000
G01 X44.658433 Y30.398082 Z-0.125000
G01 X44.615073 Y28.440046 Z-0.125000
G01 X44.484713 Y26.445223 Z-0.125000
G01 X44.274484 Y24.456548 Z-0.125000
G01 X43.991231 Y22.517058 Z-0.125000
G01 X43.636951 Y20.638847 Z-0.125000
G01 X43.213070 Y18.834314 Z-0.125000
G01 X42.735561 Y17.177035 Z-0.125000
G01 X42.205567 Y15.691702 Z-0.125000
G01 X41.809640 Y14.844668 Z-0.125000
G01 X41.371782 Y14.218564 Z-0.125000
G01 X40.892277 Y13.813491 Z-0.125000
G01 X40.357434 Y13.678434 Z-0.125000
G01 X39.857105 Y13.807343 Z-0.125000
G01 X39.426093 Y14.194072 Z-0.125000
G01 X39.068390 Y14.795583 Z-0.125000
G01 X38.773156 Y15.618025 Z-0.125000
G01 X38.547238 Y16.643053 Z-0.125000
G01 X38.384075 Y17.852223 Z-0.125000
G01 X38.290225 Y19.227091 Z-0.125000
G01 X38.258845 Y20.749313 Z-0.125000
G01 X38.290225 Y22.351259 Z-0.125000
G01 X38.384075 Y24.063771 Z-0.125000
G01 X38.384075 Y24.063771 Z-0.125000
G00 Z5.000000

(End cutting path id: text11677)


(Start cutting path id: text11677)
(Change tool to Default tool)

G00 Z5.000000
G00 X39.537340 Y23.744571

G01 Z-0.125000 F100.0(Penetrate)
G01 X39.474870 Y22.664311 Z-0.125000 F400.000000
G01 X39.460890 Y21.706812 Z-0.125000
G01 X39.516510 Y20.184590 Z-0.125000
G01 X39.711050 Y18.981568 Z-0.125000
G01 X40.037661 Y18.195915 Z-0.125000
G01 X40.260156 Y17.993429 Z-0.125000
G01 X40.524012 Y17.925899 Z-0.125000
G01 X41.033183 Y18.159125 Z-0.125000
G01 X41.503846 Y18.858805 Z-0.125000
G01 X41.936284 Y19.933018 Z-0.125000
G01 X42.316808 Y21.240358 Z-0.125000
G01 X42.641707 Y22.713394 Z-0.125000
G01 X42.907275 Y24.284701 Z-0.125000
G01 X43.114081 Y25.862155 Z-0.125000
G01 X43.247863 Y27.304552 Z-0.125000
G01 X43.351979 Y28.924943 Z-0.125000
G01 X43.400759 Y30.324404 Z-0.125000
G01 X43.331159 Y31.502934 Z-0.125000
G01 X43.164573 Y32.755040 Z-0.125000
G01 X43.039349 Y33.614370 Z-0.125000
G01 X42.928386 Y34.522785 Z-0.125000
G01 X42.810008 Y33.908978 Z-0.125000
G01 X42.622599 Y33.442424 Z-0.125000
G01 X42.282010 Y33.074240 Z-0.125000
G01 X41.719212 Y32.779532 Z-0.125000
G01 X41.253685 Y31.944794 Z-0.125000
G01 X40.788157 Y30.619011 Z-0.125000
G01 X40.357430 Y28.974128 Z-0.125000
G01 X39.989172 Y27.157299 Z-0.125000
G01 X39.704207 Y25.364961 Z-0.125000
G01 X39.537336 Y23.744570 Z-0.125000
G01 X39.537336 Y23.744570 Z-0.125000
G00 Z5.000000

(End cutting path id: text11677)


(Start cutting path id: text11677)
(Change tool to Default tool)

G00 Z5.000000
G00 X46.218173 Y22.713394

G01 Z-0.125000 F100.0(Penetrate)
G01 X46.537653 Y27.034537 Z-0.125000 F400.000000
G01 X46.913041 Y31.822033 Z-0.125000
G01 X47.294991 Y36.683306 Z-0.125000
G01 X47.649556 Y41.225279 Z-0.125000
G01 X47.920544 Y45.079868 Z-0.125000
G01 X48.080284 Y47.854236 Z-0.125000
G01 X48.156734 Y49.842912 Z-0.125000
G01 X48.198384 Y50.333947 Z-0.125000
G01 X48.274834 Y50.824973 Z-0.125000
G01 X48.400059 Y51.242352 Z-0.125000
G01 X48.601445 Y51.414208 Z-0.125000
G01 X48.799409 Y51.346699 Z-0.125000
G01 X48.962857 Y51.144143 Z-0.125000
G01 X49.192198 Y50.407594 Z-0.125000
G01 X49.317137 Y49.376428 Z-0.125000
G01 X49.351937 Y48.148854 Z-0.125000
G01 X49.323987 Y46.847622 Z-0.125000
G01 X49.261517 Y45.693695 Z-0.125000
G01 X48.733520 Y38.892911 Z-0.125000
G01 X48.205522 Y32.018470 Z-0.125000
G01 X48.789144 Y33.737131 Z-0.125000
G01 X49.442366 Y35.185676 Z-0.125000
G01 X50.150926 Y36.192259 Z-0.125000
G01 X50.512338 Y36.468422 Z-0.125000
G01 X50.873749 Y36.560542 Z-0.125000
G01 X51.229741 Y36.462272 Z-0.125000
G01 X51.533817 Y36.167665 Z-0.125000
G01 X51.787405 Y35.701212 Z-0.125000
G01 X51.992214 Y35.087404 Z-0.125000
G01 X52.148531 Y34.356984 Z-0.125000
G01 X52.256355 Y33.491606 Z-0.125000
G01 X52.324245 Y32.521811 Z-0.125000
G01 X52.346775 Y31.478338 Z-0.125000
G01 X52.325955 Y30.398078 Z-0.125000
G01 X52.277175 Y29.342309 Z-0.125000
G01 X52.058388 Y26.924069 Z-0.125000
G01 X51.762869 Y24.775744 Z-0.125000
G01 X51.412012 Y22.866894 Z-0.125000
G01 X51.012662 Y21.166677 Z-0.125000
G01 X50.576515 Y19.681344 Z-0.125000
G01 X50.102430 Y18.367756 Z-0.125000
G01 X49.115751 Y16.207235 Z-0.125000
G01 X48.483352 Y15.249736 Z-0.125000
G01 X48.186407 Y15.010361 Z-0.125000
G01 X47.892599 Y14.930541 Z-0.125000
G01 X47.455026 Y15.126980 Z-0.125000
G01 X47.190885 Y15.765380 Z-0.125000
G01 X47.100455 Y15.249741 Z-0.125000
G01 X46.975516 Y14.734203 Z-0.125000
G01 X46.801799 Y14.365919 Z-0.125000
G01 X46.579304 Y14.218565 Z-0.125000
G01 X46.240712 Y14.390411 Z-0.125000
G01 X46.016506 Y14.906049 Z-0.125000
G01 X45.891567 Y15.734639 Z-0.125000
G01 X45.849917 Y16.796556 Z-0.125000
G01 X45.863607 Y17.631293 Z-0.125000
G01 X45.919227 Y18.490523 Z-0.125000
G01 X46.218169 Y22.713396 Z-0.125000
G00 Z5.000000

(End cutting path id: text11677)


(Start cutting path id: text11677)
(Change tool to Default tool)

G00 Z5.000000
G00 X53.808952 Y22.713394

G01 Z-0.125000 F100.0(Penetrate)
G01 X54.128717 Y27.034537 Z-0.125000 F400.000000
G01 X54.503821 Y31.822033 Z-0.125000
G01 X54.886056 Y36.683306 Z-0.125000
G01 X55.240336 Y41.225279 Z-0.125000
G01 X55.511323 Y45.079868 Z-0.125000
G01 X55.671348 Y47.854237 Z-0.125000
G01 X55.747798 Y49.842912 Z-0.125000
G01 X55.789448 Y50.333948 Z-0.125000
G01 X55.865898 Y50.824974 Z-0.125000
G01 X55.990837 Y51.242353 Z-0.125000
G01 X56.192509 Y51.414209 Z-0.125000
G01 X56.390472 Y51.346700 Z-0.125000
G01 X56.553635 Y51.144143 Z-0.125000
G01 X56.782976 Y50.407595 Z-0.125000
G01 X56.908201 Y49.376429 Z-0.125000
G01 X56.942711 Y48.148854 Z-0.125000
G01 X56.915041 Y46.847623 Z-0.125000
G01 X56.852571 Y45.693696 Z-0.125000
G01 X56.324288 Y38.892912 Z-0.125000
G01 X55.796291 Y32.018471 Z-0.125000
G01 X56.379912 Y33.737132 Z-0.125000
G01 X57.033134 Y35.185677 Z-0.125000
G01 X57.741980 Y36.192260 Z-0.125000
G01 X58.103106 Y36.468423 Z-0.125000
G01 X58.464518 Y36.560543 Z-0.125000
G01 X58.820795 Y36.462273 Z-0.125000
G01 X59.124586 Y36.167666 Z-0.125000
G01 X59.378173 Y35.701213 Z-0.125000
G01 X59.583268 Y35.087405 Z-0.125000
G01 X59.739585 Y34.356985 Z-0.125000
G01 X59.847409 Y33.491607 Z-0.125000
G01 X59.915009 Y32.521812 Z-0.125000
G01 X59.937539 Y31.478339 Z-0.125000
G01 X59.916719 Y30.398079 Z-0.125000
G01 X59.868229 Y29.342310 Z-0.125000
G01 X59.649157 Y26.924070 Z-0.125000
G01 X59.353924 Y24.775745 Z-0.125000
G01 X59.003066 Y22.866895 Z-0.125000
G01 X58.603431 Y21.166678 Z-0.125000
G01 X58.167570 Y19.681345 Z-0.125000
G01 X57.693199 Y18.367757 Z-0.125000
G01 X56.706520 Y16.207236 Z-0.125000
G01 X56.074406 Y15.249737 Z-0.125000
G01 X55.777176 Y15.010362 Z-0.125000
G01 X55.483654 Y14.930542 Z-0.125000
G01 X55.045795 Y15.126981 Z-0.125000
G01 X54.781939 Y15.765381 Z-0.125000
G01 X54.691519 Y15.249742 Z-0.125000
G01 X54.566580 Y14.734204 Z-0.125000
G01 X54.392863 Y14.365920 Z-0.125000
G01 X54.170368 Y14.218566 Z-0.125000
G01 X53.831776 Y14.390412 Z-0.125000
G01 X53.607570 Y14.906050 Z-0.125000
G01 X53.482630 Y15.734640 Z-0.125000
G01 X53.440700 Y16.796557 Z-0.125000
G01 X53.454680 Y17.631294 Z-0.125000
G01 X53.510300 Y18.490524 Z-0.125000
G01 X53.808956 Y22.713397 Z-0.125000
G00 Z5.000000

(End cutting path id: text11677)


(Start cutting path id: text11677)
(Change tool to Default tool)

G00 Z5.000000
G00 X50.637259 Y32.705958

G01 Z-0.125000 F100.0(Penetrate)
G01 X50.295245 Y32.558604 Z-0.125000 F400.000000
G01 X49.921567 Y32.116642 Z-0.125000
G01 X49.150252 Y30.643606 Z-0.125000
G01 X48.400045 Y28.777692 Z-0.125000
G01 X47.760800 Y27.009947 Z-0.125000
G01 X47.593929 Y25.070356 Z-0.125000
G01 X47.427058 Y23.179950 Z-0.125000
G01 X47.281295 Y21.215767 Z-0.125000
G01 X47.170047 Y19.079838 Z-0.125000
G01 X47.128397 Y18.122339 Z-0.125000
G01 X47.170047 Y17.680378 Z-0.125000
G01 X47.434189 Y18.122339 Z-0.125000
G01 X47.670376 Y18.367761 Z-0.125000
G01 X47.913409 Y18.613284 Z-0.125000
G01 X48.191527 Y18.957077 Z-0.125000
G01 X48.714675 Y19.796451 Z-0.125000
G01 X49.193895 Y20.767758 Z-0.125000
G01 X49.628616 Y21.870999 Z-0.125000
G01 X50.018838 Y23.106273 Z-0.125000
G01 X50.361137 Y24.482653 Z-0.125000
G01 X50.644390 Y26.009511 Z-0.125000
G01 X50.868312 Y27.686647 Z-0.125000
G01 X51.033471 Y29.514261 Z-0.125000
G01 X51.089091 Y30.471760 Z-0.125000
G01 X51.109911 Y31.232820 Z-0.125000
G01 X51.081961 Y31.877268 Z-0.125000
G01 X50.998671 Y32.337673 Z-0.125000
G01 X50.852623 Y32.613836 Z-0.125000
G01 X50.637259 Y32.705956 Z-0.125000
G01 X50.637259 Y32.705956 Z-0.125000
G00 Z5.000000

(End cutting path id: text11677)


(Start cutting path id: text11677)
(Change tool to Default tool)

G00 Z5.000000
G00 X50.220509 Y37.591721

G01 Z-0.125000 F100.0(Penetrate)
G01 X50.220509 Y37.591721 Z-0.125000 F400.000000
G00 Z5.000000

(End cutting path id: text11677)


(Start cutting path id: text11677)
(Change tool to Default tool)

G00 Z5.000000
G00 X57.811293 Y37.591722

G01 Z-0.125000 F100.0(Penetrate)
G01 X57.811293 Y37.591722 Z-0.125000 F400.000000
G00 Z5.000000

(End cutting path id: text11677)


(Start cutting path id: text11677)
(Change tool to Default tool)

G00 Z5.000000
G00 X58.228332 Y32.705959

G01 Z-0.125000 F100.0(Penetrate)
G01 X57.886032 Y32.558605 Z-0.125000 F400.000000
G01 X57.512640 Y32.116643 Z-0.125000
G01 X56.741325 Y30.643607 Z-0.125000
G01 X55.990832 Y28.777693 Z-0.125000
G01 X55.351587 Y27.009948 Z-0.125000
G01 X55.185001 Y25.070357 Z-0.125000
G01 X55.018130 Y23.179951 Z-0.125000
G01 X54.872082 Y21.215768 Z-0.125000
G01 X54.761120 Y19.079839 Z-0.125000
G01 X54.719190 Y18.122340 Z-0.125000
G01 X54.761120 Y17.680379 Z-0.125000
G01 X55.024976 Y18.122340 Z-0.125000
G01 X55.261163 Y18.367762 Z-0.125000
G01 X55.504481 Y18.613285 Z-0.125000
G01 X55.782315 Y18.957078 Z-0.125000
G01 X56.305748 Y19.796452 Z-0.125000
G01 X56.784682 Y20.767759 Z-0.125000
G01 X57.219403 Y21.871000 Z-0.125000
G01 X57.609910 Y23.106274 Z-0.125000
G01 X57.952210 Y24.482654 Z-0.125000
G01 X58.235178 Y26.009512 Z-0.125000
G01 X58.459384 Y27.686648 Z-0.125000
G01 X58.624259 Y29.514262 Z-0.125000
G01 X58.679879 Y30.471761 Z-0.125000
G01 X58.700699 Y31.232821 Z-0.125000
G01 X58.673029 Y31.877269 Z-0.125000
G01 X58.589739 Y32.337674 Z-0.125000
G01 X58.443692 Y32.613837 Z-0.125000
G01 X58.228328 Y32.705957 Z-0.125000
G01 X58.228328 Y32.705957 Z-0.125000
G00 Z5.000000

(End cutting path id: text11677)


(Start cutting path id: text11677)
(Change tool to Default tool)

G00 Z5.000000
G00 X68.532407 Y24.260210

G01 Z-0.125000 F100.0(Penetrate)
G01 X68.695570 Y26.193653 Z-0.125000 F400.000000
G01 X68.921488 Y28.212968 Z-0.125000
G01 X69.211587 Y30.238532 Z-0.125000
G01 X69.553886 Y32.190318 Z-0.125000
G01 X69.946390 Y34.050084 Z-0.125000
G01 X70.387672 Y35.750300 Z-0.125000
G01 X70.880869 Y37.241781 Z-0.125000
G01 X71.415997 Y38.426460 Z-0.125000
G01 X71.812209 Y38.941997 Z-0.125000
G01 X72.249783 Y39.113843 Z-0.125000
G01 X72.673664 Y38.966590 Z-0.125000
G01 X73.014252 Y38.475544 Z-0.125000
G01 X73.243593 Y37.591722 Z-0.125000
G01 X73.306063 Y36.990211 Z-0.125000
G01 X73.326883 Y36.265938 Z-0.125000
G01 X73.278103 Y35.062916 Z-0.125000
G01 X73.132341 Y33.982555 Z-0.125000
G01 X72.889023 Y33.221494 Z-0.125000
G01 X72.730994 Y33.000564 Z-0.125000
G01 X72.548720 Y32.926884 Z-0.125000
G01 X72.263755 Y33.123323 Z-0.125000
G01 X72.020437 Y33.565183 Z-0.125000
G01 X71.902343 Y33.810706 Z-0.125000
G01 X71.770273 Y34.031737 Z-0.125000
G01 X71.242275 Y32.853207 Z-0.125000
G01 X70.783594 Y31.257409 Z-0.125000
G01 X70.394513 Y29.366902 Z-0.125000
G01 X70.075033 Y27.353635 Z-0.125000
G01 X69.831715 Y25.364959 Z-0.125000
G01 X69.671975 Y23.597315 Z-0.125000
G01 X69.581555 Y22.246939 Z-0.125000
G01 X69.546755 Y20.798394 Z-0.125000
G01 X69.567865 Y19.865488 Z-0.125000
G01 X69.658005 Y19.079834 Z-0.125000
G01 X69.824876 Y18.539704 Z-0.125000
G01 X70.081886 Y18.343266 Z-0.125000
G01 X70.561391 Y18.564196 Z-0.125000
G01 X71.033765 Y19.128919 Z-0.125000
G01 X71.478469 Y19.914572 Z-0.125000
G01 X71.909482 Y20.847479 Z-0.125000
G01 X72.173338 Y21.461286 Z-0.125000
G01 X72.423502 Y22.026009 Z-0.125000
G01 X72.638865 Y22.418785 Z-0.125000
G01 X72.819714 Y22.590631 Z-0.125000
G01 X73.014254 Y22.394293 Z-0.125000
G01 X73.081854 Y22.154918 Z-0.125000
G01 X73.104384 Y21.780486 Z-0.125000
G01 X73.062734 Y21.068510 Z-0.125000
G01 X72.948063 Y20.160095 Z-0.125000
G01 X72.798878 Y19.349849 Z-0.125000
G01 X72.423489 Y17.974981 Z-0.125000
G01 X71.985916 Y16.919313 Z-0.125000
G01 X71.527234 Y16.059983 Z-0.125000
G01 X71.092798 Y15.348007 Z-0.125000
G01 X70.651802 Y14.832368 Z-0.125000
G01 X70.248744 Y14.537761 Z-0.125000
G01 X69.915002 Y14.439591 Z-0.125000
G01 X69.685946 Y14.513171 Z-0.125000
G01 X69.456605 Y14.734202 Z-0.125000
G01 X68.970254 Y15.740786 Z-0.125000
G01 X68.636512 Y17.041977 Z-0.125000
G01 X68.443683 Y18.625580 Z-0.125000
G01 X68.379503 Y20.479197 Z-0.125000
G01 X68.414303 Y22.271535 Z-0.125000
G01 X68.532397 Y24.260210 Z-0.125000
G01 X68.532397 Y24.260210 Z-0.125000
G00 Z5.000000

(End cutting path id: text11677)


(Start cutting path id: text11677)
(Change tool to Default tool)

G00 Z5.000000
G00 X82.414912 Y24.260221

G01 Z-0.125000 F100.0(Penetrate)
G01 X82.578075 Y26.193664 Z-0.125000 F400.000000
G01 X82.803993 Y28.212979 Z-0.125000
G01 X83.094092 Y30.238543 Z-0.125000
G01 X83.436392 Y32.190329 Z-0.125000
G01 X83.828895 Y34.050095 Z-0.125000
G01 X84.270177 Y35.750311 Z-0.125000
G01 X84.763374 Y37.241792 Z-0.125000
G01 X85.298503 Y38.426471 Z-0.125000
G01 X85.694715 Y38.942008 Z-0.125000
G01 X86.132288 Y39.113854 Z-0.125000
G01 X86.556169 Y38.966601 Z-0.125000
G01 X86.896757 Y38.475555 Z-0.125000
G01 X87.126098 Y37.591733 Z-0.125000
G01 X87.188568 Y36.990222 Z-0.125000
G01 X87.209388 Y36.265949 Z-0.125000
G01 X87.160608 Y35.062927 Z-0.125000
G01 X87.014845 Y33.982566 Z-0.125000
G01 X86.771527 Y33.221505 Z-0.125000
G01 X86.613498 Y33.000575 Z-0.125000
G01 X86.431224 Y32.926895 Z-0.125000
G01 X86.146259 Y33.123334 Z-0.125000
G01 X85.902941 Y33.565194 Z-0.125000
G01 X85.784848 Y33.810717 Z-0.125000
G01 X85.652777 Y34.031748 Z-0.125000
G01 X85.124779 Y32.853218 Z-0.125000
G01 X84.666098 Y31.257420 Z-0.125000
G01 X84.277017 Y29.366913 Z-0.125000
G01 X83.957537 Y27.353646 Z-0.125000
G01 X83.714219 Y25.364970 Z-0.125000
G01 X83.554479 Y23.597326 Z-0.125000
G01 X83.464059 Y22.246950 Z-0.125000
G01 X83.429259 Y20.798405 Z-0.125000
G01 X83.450369 Y19.865499 Z-0.125000
G01 X83.540509 Y19.079845 Z-0.125000
G01 X83.707380 Y18.539715 Z-0.125000
G01 X83.964390 Y18.343277 Z-0.125000
G01 X84.443895 Y18.564207 Z-0.125000
G01 X84.916269 Y19.128930 Z-0.125000
G01 X85.360973 Y19.914583 Z-0.125000
G01 X85.791986 Y20.847490 Z-0.125000
G01 X86.055842 Y21.461297 Z-0.125000
G01 X86.306006 Y22.026020 Z-0.125000
G01 X86.521370 Y22.418796 Z-0.125000
G01 X86.702218 Y22.590642 Z-0.125000
G01 X86.896758 Y22.394304 Z-0.125000
G01 X86.964368 Y22.154929 Z-0.125000
G01 X86.986898 Y21.780497 Z-0.125000
G01 X86.945248 Y21.068521 Z-0.125000
G01 X86.830577 Y20.160106 Z-0.125000
G01 X86.681392 Y19.349860 Z-0.125000
G01 X86.306003 Y17.974992 Z-0.125000
G01 X85.868430 Y16.919324 Z-0.125000
G01 X85.409748 Y16.059994 Z-0.125000
G01 X84.975312 Y15.348018 Z-0.125000
G01 X84.534316 Y14.832379 Z-0.125000
G01 X84.131258 Y14.537772 Z-0.125000
G01 X83.797801 Y14.439602 Z-0.125000
G01 X83.568460 Y14.513182 Z-0.125000
G01 X83.339119 Y14.734213 Z-0.125000
G01 X82.852768 Y15.740797 Z-0.125000
G01 X82.519026 Y17.041988 Z-0.125000
G01 X82.326197 Y18.625591 Z-0.125000
G01 X82.262017 Y20.479208 Z-0.125000
G01 X82.296817 Y22.271546 Z-0.125000
G01 X82.414910 Y24.260221 Z-0.125000
G01 X82.414910 Y24.260221 Z-0.125000
G00 Z5.000000

(End cutting path id: text11677)


(Start cutting path id: text11677)
(Change tool to Default tool)

G00 Z5.000000
G00 X79.479430 Y34.817394

G01 Z-0.125000 F100.0(Penetrate)
G01 X79.227554 Y34.712976 Z-0.125000 F400.000000
G01 X78.958278 Y34.400025 Z-0.125000
G01 X78.381503 Y33.319663 Z-0.125000
G01 X77.770213 Y31.748458 Z-0.125000
G01 X77.165483 Y29.956120 Z-0.125000
G01 X76.873673 Y29.096891 Z-0.125000
G01 X76.595839 Y28.532168 Z-0.125000
G01 X76.387322 Y27.034538 Z-0.125000
G01 X76.178804 Y25.021271 Z-0.125000
G01 X75.977418 Y22.787072 Z-0.125000
G01 X75.824524 Y20.675636 Z-0.125000
G01 X75.768904 Y19.669052 Z-0.125000
G01 X75.720414 Y18.613283 Z-0.125000
G01 X75.650814 Y17.434854 Z-0.125000
G01 X75.560384 Y16.010902 Z-0.125000
G01 X75.449422 Y15.249740 Z-0.125000
G01 X75.289397 Y14.832371 Z-0.125000
G01 X75.129657 Y14.660525 Z-0.125000
G01 X75.011564 Y14.611445 Z-0.125000
G01 X74.771954 Y14.721910 Z-0.125000
G01 X74.580836 Y15.053306 Z-0.125000
G01 X74.455612 Y15.704002 Z-0.125000
G01 X74.413962 Y16.771966 Z-0.125000
G01 X74.421062 Y17.483942 Z-0.125000
G01 X74.462712 Y18.343273 Z-0.125000
G01 X74.754523 Y22.541553 Z-0.125000
G01 X75.046333 Y26.003366 Z-0.125000
G01 X75.338144 Y28.998625 Z-0.125000
G01 X75.643932 Y31.846631 Z-0.125000
G01 X75.970543 Y34.817398 Z-0.125000
G01 X76.338800 Y38.230025 Z-0.125000
G01 X76.413540 Y38.610606 Z-0.125000
G01 X76.554168 Y38.917510 Z-0.125000
G01 X76.740151 Y39.138440 Z-0.125000
G01 X76.936403 Y39.212120 Z-0.125000
G01 X77.176012 Y39.107702 Z-0.125000
G01 X77.367130 Y38.794751 Z-0.125000
G01 X77.497489 Y38.285261 Z-0.125000
G01 X77.540849 Y37.591729 Z-0.125000
G01 X77.526869 Y37.321613 Z-0.125000
G01 X77.485219 Y36.904245 Z-0.125000
G01 X77.179431 Y34.350846 Z-0.125000
G01 X77.784161 Y35.971237 Z-0.125000
G01 X78.437098 Y37.419782 Z-0.125000
G01 X79.104297 Y38.475551 Z-0.125000
G01 X79.441177 Y38.788603 Z-0.125000
G01 X79.771211 Y38.892920 Z-0.125000
G01 X80.086698 Y38.813100 Z-0.125000
G01 X80.365387 Y38.573725 Z-0.125000
G01 X80.607564 Y38.174801 Z-0.125000
G01 X80.813514 Y37.616226 Z-0.125000
G01 X80.977818 Y36.902738 Z-0.125000
G01 X81.095056 Y36.014279 Z-0.125000
G01 X81.165226 Y34.950851 Z-0.125000
G01 X81.188906 Y33.712552 Z-0.125000
G01 X81.150686 Y32.086013 Z-0.125000
G01 X81.036015 Y30.250740 Z-0.125000
G01 X80.660626 Y26.077051 Z-0.125000
G01 X80.174275 Y21.412216 Z-0.125000
G01 X79.694770 Y16.452774 Z-0.125000
G01 X79.562700 Y15.298837 Z-0.125000
G01 X79.410091 Y14.562369 Z-0.125000
G01 X79.194442 Y14.145000 Z-0.125000
G01 X78.902632 Y14.022238 Z-0.125000
G01 X78.673291 Y14.114258 Z-0.125000
G01 X78.527528 Y14.390421 Z-0.125000
G01 X78.449368 Y14.844679 Z-0.125000
G01 X78.423408 Y15.519867 Z-0.125000
G01 X78.478748 Y17.189342 Z-0.125000
G01 X78.645620 Y19.374456 Z-0.125000
G01 X78.895784 Y21.927753 Z-0.125000
G01 X79.208418 Y24.677590 Z-0.125000
G01 X79.465428 Y26.936280 Z-0.125000
G01 X79.694768 Y29.121394 Z-0.125000
G01 X79.861640 Y31.134661 Z-0.125000
G01 X79.924110 Y32.902306 Z-0.125000
G01 X79.899860 Y33.614382 Z-0.125000
G01 X79.826840 Y34.228089 Z-0.125000
G01 X79.694769 Y34.670050 Z-0.125000
G01 X79.479406 Y34.817405 Z-0.125000
G01 X79.479406 Y34.817405 Z-0.125000
G00 Z5.000000

(End cutting path id: text11677)


(Start cutting path id: text11677)
(Change tool to Default tool)

G00 Z5.000000
G00 X60.969294 Y3.317689

G01 Z-0.125000 F100.0(Penetrate)
G01 X60.781599 Y3.514127 Z-0.125000 F400.000000
G01 X60.635837 Y4.029665 Z-0.125000
G01 X60.545407 Y4.741641 Z-0.125000
G01 X60.510607 Y5.478210 Z-0.125000
G01 X60.545407 Y6.288456 Z-0.125000
G01 X60.628697 Y6.902263 Z-0.125000
G01 X60.739945 Y7.295039 Z-0.125000
G01 X60.851192 Y7.515969 Z-0.125000
G01 X61.240273 Y7.835169 Z-0.125000
G01 X61.719778 Y8.350808 Z-0.125000
G01 X62.275445 Y9.210037 Z-0.125000
G01 X62.887020 Y10.585006 Z-0.125000
G01 X63.540242 Y12.598173 Z-0.125000
G01 X63.880545 Y13.825788 Z-0.125000
G01 X64.207157 Y15.249740 Z-0.125000
G01 X64.516367 Y16.900872 Z-0.125000
G01 X64.804755 Y18.760637 Z-0.125000
G01 X65.058342 Y20.890519 Z-0.125000
G01 X65.263437 Y23.302711 Z-0.125000
G01 X64.957649 Y22.124181 Z-0.125000
G01 X64.596237 Y20.798397 Z-0.125000
G01 X64.193179 Y19.497206 Z-0.125000
G01 X63.776429 Y18.367760 Z-0.125000
G01 X63.366525 Y17.582208 Z-0.125000
G01 X62.998268 Y17.287500 Z-0.125000
G01 X62.567255 Y17.471642 Z-0.125000
G01 X62.206129 Y18.024069 Z-0.125000
G01 X61.891498 Y19.024605 Z-0.125000
G01 X61.601399 Y20.503790 Z-0.125000
G01 X61.483306 Y21.780489 Z-0.125000
G01 X61.441656 Y23.376287 Z-0.125000
G01 X61.476456 Y25.954278 Z-0.125000
G01 X61.580572 Y28.556660 Z-0.125000
G01 X61.740597 Y31.380173 Z-0.125000
G01 X61.955961 Y34.670039 Z-0.125000
G01 X61.976781 Y35.553862 Z-0.125000
G01 X61.990761 Y36.216753 Z-0.125000
G01 X62.004451 Y36.609630 Z-0.125000
G01 X62.080901 Y37.395284 Z-0.125000
G01 X62.240641 Y38.033583 Z-0.125000
G01 X62.442313 Y38.450951 Z-0.125000
G01 X62.657676 Y38.598306 Z-0.125000
G01 X62.949487 Y38.500136 Z-0.125000
G01 X63.178828 Y38.131851 Z-0.125000
G01 X63.281233 Y37.622361 Z-0.125000
G01 X63.352543 Y36.977914 Z-0.125000
G01 X63.415013 Y35.701215 Z-0.125000
G01 X63.352543 Y34.817393 Z-0.125000
G01 X63.185672 Y33.442424 Z-0.125000
G01 X62.914685 Y29.686104 Z-0.125000
G01 X62.748099 Y27.132706 Z-0.125000
G01 X62.664519 Y25.512315 Z-0.125000
G01 X62.643699 Y24.603901 Z-0.125000
G01 X62.675079 Y23.413175 Z-0.125000
G01 X62.768929 Y22.492464 Z-0.125000
G01 X62.907846 Y21.903249 Z-0.125000
G01 X63.074717 Y21.706811 Z-0.125000
G01 X63.310904 Y21.854165 Z-0.125000
G01 X63.602714 Y22.345110 Z-0.125000
G01 X64.144689 Y23.677042 Z-0.125000
G01 X64.603371 Y25.119438 Z-0.125000
G01 X64.995874 Y26.715337 Z-0.125000
G01 X65.325908 Y28.458490 Z-0.125000
G01 X65.609161 Y30.385784 Z-0.125000
G01 X65.847060 Y32.484925 Z-0.125000
G01 X66.250118 Y37.297013 Z-0.125000
G01 X66.312588 Y37.640805 Z-0.125000
G01 X66.437527 Y37.935413 Z-0.125000
G01 X66.597552 Y38.131851 Z-0.125000
G01 X66.757292 Y38.230021 Z-0.125000
G01 X67.082192 Y38.052027 Z-0.125000
G01 X67.320090 Y37.518045 Z-0.125000
G01 X67.471272 Y36.707799 Z-0.125000
G01 X67.521762 Y35.652131 Z-0.125000
G01 X67.459012 Y34.228078 Z-0.125000
G01 X67.313249 Y32.141234 Z-0.125000
G01 X67.139532 Y30.054390 Z-0.125000
G01 X67.007461 Y28.605845 Z-0.125000
G01 X66.674004 Y25.193116 Z-0.125000
G01 X66.256969 Y20.945751 Z-0.125000
G01 X65.867888 Y17.312092 Z-0.125000
G01 X65.395514 Y14.144988 Z-0.125000
G01 X65.110550 Y12.665702 Z-0.125000
G01 X64.769961 Y11.223305 Z-0.125000
G01 X64.366903 Y9.799353 Z-0.125000
G01 X63.894530 Y8.375300 Z-0.125000
G01 X63.338578 Y6.902263 Z-0.125000
G01 X62.685356 Y5.380041 Z-0.125000
G01 X61.837878 Y3.906903 Z-0.125000
G01 X61.415709 Y3.465043 Z-0.125000
G01 X60.969293 Y3.317689 Z-0.125000
G01 X60.969293 Y3.317689 Z-0.125000
G00 Z5.000000

(End cutting path id: text11677)


(Start cutting path id: text11677)
(Change tool to Default tool)

G00 Z5.000000
G00 X35.615154 Y37.591722

G01 Z-0.125000 F100.0(Penetrate)
G01 X35.615154 Y37.591722 Z-0.125000 F400.000000
G00 Z5.000000

(End cutting path id: text11677)


(Start cutting path id: text11677)
(Change tool to Default tool)

G00 Z5.000000
G00 X30.699479 Y48.541672

G01 Z-0.125000 F100.0(Penetrate)
G01 X30.663819 Y48.062912 Z-0.125000 F400.000000
G01 X30.557136 Y47.510506 Z-0.125000
G01 X30.129546 Y46.184722 Z-0.125000
G01 X29.064709 Y42.623219 Z-0.125000
G01 X28.024288 Y38.763993 Z-0.125000
G01 X27.008086 Y34.607137 Z-0.125000
G01 X26.016187 Y30.152549 Z-0.125000
G01 X24.371122 Y22.240784 Z-0.125000
G01 X23.354920 Y16.919306 Z-0.125000
G01 X23.153419 Y15.881982 Z-0.125000
G01 X22.965810 Y15.176053 Z-0.125000
G01 X22.755610 Y14.789425 Z-0.125000
G01 X22.486363 Y14.660515 Z-0.125000
G01 X22.283122 Y14.801721 Z-0.125000
G01 X22.118076 Y15.225238 Z-0.125000
G01 X22.008655 Y15.845093 Z-0.125000
G01 X21.972175 Y16.575514 Z-0.125000
G01 X22.003435 Y17.422548 Z-0.125000
G01 X22.097255 Y18.245090 Z-0.125000
G01 X22.654862 Y21.326221 Z-0.125000
G01 X23.771814 Y26.887174 Z-0.125000
G01 X24.741150 Y31.447692 Z-0.125000
G01 X25.620119 Y35.308329 Z-0.125000
G01 X26.921229 Y40.562378 Z-0.125000
G01 X28.225791 Y45.423621 Z-0.125000
G01 X29.255828 Y49.002017 Z-0.125000
G01 X29.719644 Y50.358491 Z-0.125000
G01 X30.171480 Y50.604004 Z-0.125000
G01 X30.350332 Y50.462828 Z-0.125000
G01 X30.525760 Y50.039311 Z-0.125000
G01 X30.656120 Y49.382558 Z-0.125000
G01 X30.699480 Y48.541672 Z-0.125000
G01 X30.699480 Y48.541672 Z-0.125000
G00 Z5.000000

(End cutting path id: text11677)


(Footer)
M5
G00 X0.0000 Y0.0000
M2
(Using default footer. To add your own footer create file "footer" in the output dir.)
(end)
%