%
(Header)
(Generated by gcodetools from Inkscape.)
(Using default header. To add your own header create file "header" in the output dir.)
M3
(Header end.)
G21 (All units in mm)

(Start cutting path id: text11678)
(Change tool to Default tool)

G00 Z5.000000
G00 X16.671291 Y12.872625

G01 Z-0.125000 F100.0(Penetrate)
G01 X16.903227 Y17.079372 Z-0.125000 F400.000000
G01 X17.173815 Y21.723142 Z-0.125000
G01 X17.444375 Y26.339598 Z-0.125000
G01 X17.668581 Y30.491717 Z-0.125000
G01 X17.660881 Y30.956054 Z-0.125000
G01 X17.660881 Y31.420491 Z-0.125000
G01 X17.691801 Y33.114055 Z-0.125000
G01 X17.776861 Y34.671150 Z-0.125000
G01 X17.865741 Y35.538443 Z-0.125000
G01 X17.962381 Y36.064261 Z-0.125000
G01 X18.101554 Y36.351108 Z-0.125000
G01 X18.302542 Y36.446658 Z-0.125000
G01 X18.503557 Y36.364718 Z-0.125000
G01 X18.658162 Y36.118893 Z-0.125000
G01 X18.781875 Y35.763812 Z-0.125000
G01 X18.874635 Y35.299374 Z-0.125000
G01 X18.975128 Y34.097461 Z-0.125000
G01 X18.998348 Y32.731664 Z-0.125000
G01 X18.990648 Y31.884832 Z-0.125000
G01 X18.982948 Y31.147255 Z-0.125000
G01 X19.439062 Y32.758978 Z-0.125000
G01 X19.957048 Y34.261345 Z-0.125000
G01 X20.536875 Y35.381316 Z-0.125000
G01 X20.851905 Y35.709184 Z-0.125000
G01 X21.178544 Y35.818440 Z-0.125000
G01 X21.433643 Y35.736500 Z-0.125000
G01 X21.696501 Y35.517888 Z-0.125000
G01 X22.013471 Y35.135493 Z-0.125000
G01 X22.338171 Y34.507172 Z-0.125000
G01 X22.572047 Y33.735528 Z-0.125000
G01 X22.763393 Y32.786294 Z-0.125000
G01 X22.896747 Y31.761871 Z-0.125000
G01 X22.941187 Y30.710234 Z-0.125000
G01 X22.894807 Y29.808774 Z-0.125000
G01 X22.763393 Y28.934628 Z-0.125000
G01 X22.577838 Y28.279094 Z-0.125000
G01 X22.338171 Y28.033268 Z-0.125000
G01 X22.013471 Y28.251780 Z-0.125000
G01 X21.704231 Y28.880000 Z-0.125000
G01 X21.588277 Y29.344437 Z-0.125000
G01 X21.480054 Y29.945344 Z-0.125000
G01 X21.387264 Y30.491723 Z-0.125000
G01 X21.325424 Y30.846804 Z-0.125000
G01 X21.240394 Y30.874114 Z-0.125000
G01 X21.155364 Y30.901424 Z-0.125000
G01 X20.770733 Y30.723833 Z-0.125000
G01 X20.405442 Y30.191161 Z-0.125000
G01 X20.061402 Y29.399057 Z-0.125000
G01 X19.740581 Y28.442969 Z-0.125000
G01 X19.168484 Y26.257654 Z-0.125000
G01 X18.720100 Y24.181594 Z-0.125000
G01 X18.372209 Y19.455883 Z-0.125000
G01 X18.001099 Y14.238419 Z-0.125000
G01 X18.001099 Y13.555471 Z-0.125000
G01 X17.985639 Y11.889221 Z-0.125000
G01 X17.892879 Y10.386753 Z-0.125000
G01 X17.645481 Y9.703905 Z-0.125000
G01 X17.477327 Y9.478540 Z-0.125000
G01 X17.282130 Y9.403450 Z-0.125000
G01 X16.998021 Y9.587794 Z-0.125000
G01 X16.795095 Y10.140926 Z-0.125000
G01 X16.673321 Y10.967298 Z-0.125000
G01 X16.632731 Y11.916533 Z-0.125000
G01 X16.671381 Y12.872621 Z-0.125000
G01 X16.671381 Y12.872621 Z-0.125000
G00 Z5.000000

(End cutting path id: text11678)


(Start cutting path id: text11678)
(Change tool to Default tool)

G00 Z5.000000
G00 X31.529699 Y12.872621

G01 Z-0.125000 F100.0(Penetrate)
G01 X31.761607 Y17.079368 Z-0.125000 F400.000000
G01 X32.032309 Y21.723138 Z-0.125000
G01 X32.302726 Y26.339594 Z-0.125000
G01 X32.526932 Y30.491713 Z-0.125000
G01 X32.519232 Y30.956050 Z-0.125000
G01 X32.519232 Y31.420487 Z-0.125000
G01 X32.550322 Y33.114051 Z-0.125000
G01 X32.635332 Y34.671146 Z-0.125000
G01 X32.724332 Y35.538439 Z-0.125000
G01 X32.820742 Y36.064257 Z-0.125000
G01 X32.959944 Y36.351104 Z-0.125000
G01 X33.161045 Y36.446654 Z-0.125000
G01 X33.362147 Y36.364714 Z-0.125000
G01 X33.516752 Y36.118889 Z-0.125000
G01 X33.640265 Y35.763808 Z-0.125000
G01 X33.732975 Y35.299370 Z-0.125000
G01 X33.833669 Y34.097457 Z-0.125000
G01 X33.856779 Y32.731660 Z-0.125000
G01 X33.849079 Y31.884828 Z-0.125000
G01 X33.841379 Y31.147251 Z-0.125000
G01 X34.297494 Y32.758974 Z-0.125000
G01 X34.815507 Y34.261341 Z-0.125000
G01 X35.395135 Y35.381312 Z-0.125000
G01 X35.710336 Y35.709180 Z-0.125000
G01 X36.036947 Y35.818436 Z-0.125000
G01 X36.291961 Y35.736496 Z-0.125000
G01 X36.554961 Y35.517884 Z-0.125000
G01 X36.871874 Y35.135489 Z-0.125000
G01 X37.196488 Y34.507168 Z-0.125000
G01 X37.430393 Y33.735524 Z-0.125000
G01 X37.621795 Y32.786290 Z-0.125000
G01 X37.755292 Y31.761867 Z-0.125000
G01 X37.799502 Y30.710230 Z-0.125000
G01 X37.753292 Y29.808770 Z-0.125000
G01 X37.621791 Y28.934624 Z-0.125000
G01 X37.436379 Y28.279090 Z-0.125000
G01 X37.196484 Y28.033264 Z-0.125000
G01 X36.871870 Y28.251776 Z-0.125000
G01 X36.562659 Y28.879996 Z-0.125000
G01 X36.446562 Y29.344433 Z-0.125000
G01 X36.338452 Y29.945340 Z-0.125000
G01 X36.245742 Y30.491719 Z-0.125000
G01 X36.183842 Y30.846800 Z-0.125000
G01 X36.098842 Y30.874110 Z-0.125000
G01 X36.013842 Y30.901420 Z-0.125000
G01 X35.629040 Y30.723829 Z-0.125000
G01 X35.263920 Y30.191157 Z-0.125000
G01 X34.919909 Y29.399053 Z-0.125000
G01 X34.599003 Y28.442965 Z-0.125000
G01 X34.026792 Y26.257650 Z-0.125000
G01 X33.578379 Y24.181590 Z-0.125000
G01 X33.230659 Y19.455879 Z-0.125000
G01 X32.859549 Y14.238415 Z-0.125000
G01 X32.859549 Y13.555467 Z-0.125000
G01 X32.844149 Y11.889217 Z-0.125000
G01 X32.751159 Y10.386749 Z-0.125000
G01 X32.503848 Y9.703901 Z-0.125000
G01 X32.335836 Y9.478536 Z-0.125000
G01 X32.140439 Y9.403446 Z-0.125000
G01 X31.856331 Y9.587790 Z-0.125000
G01 X31.653518 Y10.140922 Z-0.125000
G01 X31.531716 Y10.967294 Z-0.125000
G01 X31.491216 Y11.916529 Z-0.125000
G01 X31.529726 Y12.872617 Z-0.125000
G01 X31.529726 Y12.872617 Z-0.125000
G00 Z5.000000

(End cutting path id: text11678)


(Start cutting path id: text11678)
(Change tool to Default tool)

G00 Z5.000000
G00 X38.182037 Y20.521220

G01 Z-0.125000 F100.0(Penetrate)
G01 X38.328941 Y22.235345 Z-0.125000 F400.000000
G01 X38.537744 Y24.045019 Z-0.125000
G01 X38.821852 Y25.936634 Z-0.125000
G01 X39.179270 Y27.841956 Z-0.125000
G01 X39.612280 Y29.733672 Z-0.125000
G01 X40.122592 Y31.584367 Z-0.125000
G01 X40.721616 Y33.353119 Z-0.125000
G01 X41.405931 Y34.998909 Z-0.125000
G01 X41.761352 Y35.517874 Z-0.125000
G01 X42.256260 Y35.873055 Z-0.125000
G01 X42.419994 Y36.374987 Z-0.125000
G01 X42.609970 Y36.733494 Z-0.125000
G01 X42.825904 Y36.948579 Z-0.125000
G01 X43.068082 Y37.020339 Z-0.125000
G01 X43.622607 Y36.747200 Z-0.125000
G01 X43.863929 Y36.405725 Z-0.125000
G01 X44.080718 Y35.927681 Z-0.125000
G01 X44.461527 Y34.664286 Z-0.125000
G01 X44.768741 Y33.004789 Z-0.125000
G01 X44.923346 Y31.830190 Z-0.125000
G01 X45.047145 Y30.600963 Z-0.125000
G01 X45.132145 Y29.235166 Z-0.125000
G01 X45.162955 Y27.568815 Z-0.125000
G01 X45.114745 Y25.390353 Z-0.125000
G01 X44.969838 Y23.170870 Z-0.125000
G01 X44.735933 Y20.958241 Z-0.125000
G01 X44.421018 Y18.800240 Z-0.125000
G01 X44.026517 Y16.710573 Z-0.125000
G01 X43.554999 Y14.702748 Z-0.125000
G01 X43.023579 Y12.858907 Z-0.125000
G01 X42.433967 Y11.206264 Z-0.125000
G01 X41.993256 Y10.263883 Z-0.125000
G01 X41.506335 Y9.567328 Z-0.125000
G01 X40.972917 Y9.116598 Z-0.125000
G01 X40.377601 Y8.966321 Z-0.125000
G01 X39.821079 Y9.109744 Z-0.125000
G01 X39.341574 Y9.540014 Z-0.125000
G01 X38.943650 Y10.209255 Z-0.125000
G01 X38.615042 Y11.124322 Z-0.125000
G01 X38.363737 Y12.264754 Z-0.125000
G01 X38.182033 Y13.610091 Z-0.125000
G01 X38.077632 Y15.139872 Z-0.125000
G01 X38.042832 Y16.833436 Z-0.125000
G01 X38.077632 Y18.615896 Z-0.125000
G01 X38.182033 Y20.521218 Z-0.125000
G01 X38.182033 Y20.521218 Z-0.125000
G00 Z5.000000

(End cutting path id: text11678)


(Start cutting path id: text11678)
(Change tool to Default tool)

G00 Z5.000000
G00 X39.465372 Y20.166037

G01 Z-0.125000 F100.0(Penetrate)
G01 X39.395772 Y18.964123 Z-0.125000 F400.000000
G01 X39.380372 Y17.898779 Z-0.125000
G01 X39.442272 Y16.205215 Z-0.125000
G01 X39.530982 Y15.488099 Z-0.125000
G01 X39.658773 Y14.866732 Z-0.125000
G01 X39.822792 Y14.374981 Z-0.125000
G01 X40.021896 Y13.992586 Z-0.125000
G01 X40.269493 Y13.767221 Z-0.125000
G01 X40.563301 Y13.692131 Z-0.125000
G01 X41.129522 Y13.951563 Z-0.125000
G01 X41.653240 Y14.730060 Z-0.125000
G01 X42.134457 Y15.925221 Z-0.125000
G01 X42.557768 Y17.379813 Z-0.125000
G01 X42.919179 Y19.018749 Z-0.125000
G01 X43.214983 Y20.767042 Z-0.125000
G01 X43.444895 Y22.522087 Z-0.125000
G01 X43.593795 Y24.126956 Z-0.125000
G01 X43.709606 Y25.929877 Z-0.125000
G01 X43.763806 Y27.486871 Z-0.125000
G01 X43.686506 Y28.798040 Z-0.125000
G01 X43.500809 Y30.191252 Z-0.125000
G01 X43.361892 Y31.147239 Z-0.125000
G01 X43.238093 Y32.157955 Z-0.125000
G01 X43.106593 Y31.475107 Z-0.125000
G01 X42.897790 Y30.956042 Z-0.125000
G01 X42.518979 Y30.546333 Z-0.125000
G01 X41.892855 Y30.218566 Z-0.125000
G01 X41.374841 Y29.289792 Z-0.125000
G01 X40.856828 Y27.814638 Z-0.125000
G01 X40.377608 Y25.984505 Z-0.125000
G01 X39.967989 Y23.963073 Z-0.125000
G01 X39.650791 Y21.968955 Z-0.125000
G01 X39.465379 Y20.166035 Z-0.125000
G01 X39.465379 Y20.166035 Z-0.125000
G00 Z5.000000

(End cutting path id: text11678)


(Start cutting path id: text11678)
(Change tool to Default tool)

G00 Z5.000000
G00 X46.898419 Y19.018749

G01 Z-0.125000 F100.0(Penetrate)
G01 X47.254126 Y23.826503 Z-0.125000 F400.000000
G01 X47.671446 Y29.153222 Z-0.125000
G01 X48.096754 Y34.561882 Z-0.125000
G01 X48.490969 Y39.615361 Z-0.125000
G01 X48.792478 Y43.904050 Z-0.125000
G01 X48.970189 Y46.990816 Z-0.125000
G01 X49.055479 Y49.203445 Z-0.125000
G01 X49.101689 Y49.749774 Z-0.125000
G01 X49.186689 Y50.296103 Z-0.125000
G01 X49.325890 Y50.760480 Z-0.125000
G01 X49.550097 Y50.951697 Z-0.125000
G01 X49.770595 Y50.876579 Z-0.125000
G01 X49.952299 Y50.651214 Z-0.125000
G01 X50.097206 Y50.296103 Z-0.125000
G01 X50.207312 Y49.831716 Z-0.125000
G01 X50.346514 Y48.684430 Z-0.125000
G01 X50.385024 Y47.318613 Z-0.125000
G01 X50.354214 Y45.870834 Z-0.125000
G01 X50.284614 Y44.586999 Z-0.125000
G01 X49.697000 Y37.020337 Z-0.125000
G01 X49.109385 Y29.371733 Z-0.125000
G01 X49.758899 Y31.283909 Z-0.125000
G01 X50.485715 Y32.895532 Z-0.125000
G01 X51.274146 Y34.015503 Z-0.125000
G01 X51.676063 Y34.322810 Z-0.125000
G01 X52.078265 Y34.425212 Z-0.125000
G01 X52.474477 Y34.315956 Z-0.125000
G01 X52.812498 Y33.988189 Z-0.125000
G01 X53.094896 Y33.469225 Z-0.125000
G01 X53.322810 Y32.786276 Z-0.125000
G01 X53.496813 Y31.973611 Z-0.125000
G01 X53.616618 Y31.010669 Z-0.125000
G01 X53.691928 Y29.931719 Z-0.125000
G01 X53.717028 Y28.770726 Z-0.125000
G01 X53.693918 Y27.568813 Z-0.125000
G01 X53.639718 Y26.394213 Z-0.125000
G01 X53.396400 Y23.703540 Z-0.125000
G01 X53.067792 Y21.313320 Z-0.125000
G01 X52.677285 Y19.189486 Z-0.125000
G01 X52.232866 Y17.297871 Z-0.125000
G01 X51.747656 Y15.645228 Z-0.125000
G01 X51.219943 Y14.183782 Z-0.125000
G01 X50.122302 Y11.779955 Z-0.125000
G01 X49.418591 Y10.714611 Z-0.125000
G01 X49.088271 Y10.448225 Z-0.125000
G01 X48.761660 Y10.359425 Z-0.125000
G01 X48.274454 Y10.578038 Z-0.125000
G01 X47.980646 Y11.288200 Z-0.125000
G01 X47.880238 Y10.714607 Z-0.125000
G01 X47.741036 Y10.140914 Z-0.125000
G01 X47.547922 Y9.731205 Z-0.125000
G01 X47.300325 Y9.567322 Z-0.125000
G01 X46.923510 Y9.758519 Z-0.125000
G01 X46.674202 Y10.332111 Z-0.125000
G01 X46.535000 Y11.254133 Z-0.125000
G01 X46.488790 Y12.435485 Z-0.125000
G01 X46.504190 Y13.364259 Z-0.125000
G01 X46.566090 Y14.320347 Z-0.125000
G01 X46.898406 Y19.018745 Z-0.125000
G00 Z5.000000

(End cutting path id: text11678)


(Start cutting path id: text11678)
(Change tool to Default tool)

G00 Z5.000000
G00 X54.988559 Y20.521228

G01 Z-0.125000 F100.0(Penetrate)
G01 X55.135463 Y22.235353 Z-0.125000 F400.000000
G01 X55.344266 Y24.045027 Z-0.125000
G01 X55.628375 Y25.936642 Z-0.125000
G01 X55.985793 Y27.841964 Z-0.125000
G01 X56.418802 Y29.733680 Z-0.125000
G01 X56.929114 Y31.584375 Z-0.125000
G01 X57.528139 Y33.353127 Z-0.125000
G01 X58.212453 Y34.998917 Z-0.125000
G01 X58.567874 Y35.517882 Z-0.125000
G01 X59.062783 Y35.873063 Z-0.125000
G01 X59.226516 Y36.374995 Z-0.125000
G01 X59.416492 Y36.733502 Z-0.125000
G01 X59.632427 Y36.948587 Z-0.125000
G01 X59.874604 Y37.020347 Z-0.125000
G01 X60.429129 Y36.747208 Z-0.125000
G01 X60.670166 Y36.405733 Z-0.125000
G01 X60.887241 Y35.927689 Z-0.125000
G01 X61.268049 Y34.664294 Z-0.125000
G01 X61.575263 Y33.004797 Z-0.125000
G01 X61.729869 Y31.830198 Z-0.125000
G01 X61.853667 Y30.600971 Z-0.125000
G01 X61.938667 Y29.235174 Z-0.125000
G01 X61.969477 Y27.568823 Z-0.125000
G01 X61.921267 Y25.390361 Z-0.125000
G01 X61.776360 Y23.170878 Z-0.125000
G01 X61.542456 Y20.958249 Z-0.125000
G01 X61.227540 Y18.800248 Z-0.125000
G01 X60.833039 Y16.710581 Z-0.125000
G01 X60.361521 Y14.702756 Z-0.125000
G01 X59.830101 Y12.858915 Z-0.125000
G01 X59.240489 Y11.206272 Z-0.125000
G01 X58.799778 Y10.263891 Z-0.125000
G01 X58.312857 Y9.567336 Z-0.125000
G01 X57.779440 Y9.116606 Z-0.125000
G01 X57.184123 Y8.966329 Z-0.125000
G01 X56.627601 Y9.109752 Z-0.125000
G01 X56.148096 Y9.540022 Z-0.125000
G01 X55.749887 Y10.209263 Z-0.125000
G01 X55.421565 Y11.124330 Z-0.125000
G01 X55.170259 Y12.264762 Z-0.125000
G01 X54.988555 Y13.610099 Z-0.125000
G01 X54.884154 Y15.139880 Z-0.125000
G01 X54.849354 Y16.833444 Z-0.125000
G01 X54.884154 Y18.615904 Z-0.125000
G01 X54.988555 Y20.521226 Z-0.125000
G01 X54.988555 Y20.521226 Z-0.125000
G00 Z5.000000

(End cutting path id: text11678)


(Start cutting path id: text11678)
(Change tool to Default tool)

G00 Z5.000000
G00 X56.271894 Y20.166045

G01 Z-0.125000 F100.0(Penetrate)
G01 X56.202294 Y18.964131 Z-0.125000 F400.000000
G01 X56.186894 Y17.898787 Z-0.125000
G01 X56.248794 Y16.205223 Z-0.125000
G01 X56.337504 Y15.488107 Z-0.125000
G01 X56.465010 Y14.866740 Z-0.125000
G01 X56.629314 Y14.374989 Z-0.125000
G01 X56.828419 Y13.992594 Z-0.125000
G01 X57.075730 Y13.767229 Z-0.125000
G01 X57.369538 Y13.692139 Z-0.125000
G01 X57.936044 Y13.951571 Z-0.125000
G01 X58.459763 Y14.730068 Z-0.125000
G01 X58.940979 Y15.925229 Z-0.125000
G01 X59.364290 Y17.379821 Z-0.125000
G01 X59.725701 Y19.018757 Z-0.125000
G01 X60.021505 Y20.767050 Z-0.125000
G01 X60.251417 Y22.522095 Z-0.125000
G01 X60.400317 Y24.126964 Z-0.125000
G01 X60.516129 Y25.929885 Z-0.125000
G01 X60.570329 Y27.486879 Z-0.125000
G01 X60.493029 Y28.798048 Z-0.125000
G01 X60.307332 Y30.191260 Z-0.125000
G01 X60.168130 Y31.147247 Z-0.125000
G01 X60.044617 Y32.157963 Z-0.125000
G01 X59.913116 Y31.475115 Z-0.125000
G01 X59.704314 Y30.956050 Z-0.125000
G01 X59.325502 Y30.546341 Z-0.125000
G01 X58.699378 Y30.218574 Z-0.125000
G01 X58.181365 Y29.289800 Z-0.125000
G01 X57.663351 Y27.814646 Z-0.125000
G01 X57.184131 Y25.984513 Z-0.125000
G01 X56.774227 Y23.963081 Z-0.125000
G01 X56.457315 Y21.968963 Z-0.125000
G01 X56.271902 Y20.166043 Z-0.125000
G01 X56.271902 Y20.166043 Z-0.125000
G00 Z5.000000

(End cutting path id: text11678)


(Start cutting path id: text11678)
(Change tool to Default tool)

G00 Z5.000000
G00 X64.377562 Y18.554420

G01 Z-0.125000 F100.0(Penetrate)
G01 X64.414362 Y20.890013 Z-0.125000 F400.000000
G01 X64.524468 Y23.307446 Z-0.125000
G01 X64.833679 Y28.060572 Z-0.125000
G01 X64.423775 Y28.279084 Z-0.125000
G01 X64.044963 Y28.798048 Z-0.125000
G01 X63.766845 Y29.590253 Z-0.125000
G01 X63.685545 Y30.116071 Z-0.125000
G01 X63.658445 Y30.710224 Z-0.125000
G01 X63.689535 Y31.338545 Z-0.125000
G01 X63.774545 Y32.076021 Z-0.125000
G01 X63.929150 Y32.704342 Z-0.125000
G01 X64.137953 Y32.977481 Z-0.125000
G01 X65.173695 Y32.977481 Z-0.125000
G01 X65.297493 Y33.086737 Z-0.125000
G01 X65.374793 Y33.414504 Z-0.125000
G01 X65.459793 Y34.315964 Z-0.125000
G01 X65.645490 Y37.047659 Z-0.125000
G01 X65.800096 Y39.014463 Z-0.125000
G01 X65.892806 Y40.325632 Z-0.125000
G01 X65.931316 Y41.145150 Z-0.125000
G01 X65.923616 Y41.827998 Z-0.125000
G01 X65.915916 Y42.729459 Z-0.125000
G01 X65.915916 Y43.002598 Z-0.125000
G01 X65.923616 Y43.576291 Z-0.125000
G01 X66.000916 Y44.587007 Z-0.125000
G01 X66.171210 Y45.570369 Z-0.125000
G01 X66.323818 Y45.918646 Z-0.125000
G01 X66.534333 Y46.034746 Z-0.125000
G01 X66.727732 Y45.959628 Z-0.125000
G01 X66.890039 Y45.734262 Z-0.125000
G01 X67.129649 Y44.942088 Z-0.125000
G01 X67.268851 Y43.822116 Z-0.125000
G01 X67.315351 Y42.565575 Z-0.125000
G01 X67.276561 Y41.336348 Z-0.125000
G01 X66.712337 Y33.687744 Z-0.125000
G01 X67.454557 Y34.152081 Z-0.125000
G01 X68.103785 Y34.589204 Z-0.125000
G01 X68.714505 Y35.053541 Z-0.125000
G01 X69.162918 Y35.408622 Z-0.125000
G01 X69.472129 Y35.654548 Z-0.125000
G01 X69.688633 Y35.763804 Z-0.125000
G01 X69.936230 Y35.681864 Z-0.125000
G01 X70.160151 Y35.463252 Z-0.125000
G01 X70.322744 Y34.998915 Z-0.125000
G01 X70.384354 Y34.206711 Z-0.125000
G01 X70.307054 Y33.032111 Z-0.125000
G01 X70.121642 Y32.157965 Z-0.125000
G01 X69.858641 Y31.557059 Z-0.125000
G01 X69.565119 Y31.229191 Z-0.125000
G01 X69.240220 Y30.983366 Z-0.125000
G01 X68.807496 Y30.628285 Z-0.125000
G01 X68.320289 Y30.218576 Z-0.125000
G01 X67.825666 Y29.781452 Z-0.125000
G01 X67.214661 Y29.235174 Z-0.125000
G01 X66.789638 Y28.907306 Z-0.125000
G01 X66.495831 Y28.743422 Z-0.125000
G01 X66.318120 Y28.688792 Z-0.125000
G01 X66.062822 Y25.629331 Z-0.125000
G01 X65.877409 Y22.815795 Z-0.125000
G01 X65.769014 Y20.493910 Z-0.125000
G01 X65.738204 Y18.909501 Z-0.125000
G01 X65.776714 Y17.489077 Z-0.125000
G01 X65.908214 Y16.341791 Z-0.125000
G01 X66.155526 Y15.549587 Z-0.125000
G01 X66.337230 Y15.344783 Z-0.125000
G01 X66.557728 Y15.276443 Z-0.125000
G01 X66.963639 Y15.474494 Z-0.125000
G01 X67.361562 Y16.068648 Z-0.125000
G01 X67.746364 Y16.963254 Z-0.125000
G01 X68.111484 Y18.062766 Z-0.125000
G01 X68.791805 Y20.739732 Z-0.125000
G01 X69.387121 Y23.498639 Z-0.125000
G01 X69.493520 Y23.867428 Z-0.125000
G01 X69.626731 Y23.990391 Z-0.125000
G01 X69.735126 Y23.935761 Z-0.125000
G01 X69.866626 Y23.744563 Z-0.125000
G01 X69.967034 Y23.389382 Z-0.125000
G01 X70.013534 Y22.870417 Z-0.125000
G01 X70.005534 Y22.542650 Z-0.125000
G01 X69.847220 Y20.842132 Z-0.125000
G01 X69.619020 Y19.128107 Z-0.125000
G01 X69.093305 Y15.713464 Z-0.125000
G01 X68.845993 Y14.538865 Z-0.125000
G01 X68.521379 Y13.418893 Z-0.125000
G01 X68.150269 Y12.408177 Z-0.125000
G01 X67.786861 Y11.561446 Z-0.125000
G01 X67.479647 Y11.008213 Z-0.125000
G01 X67.145334 Y10.659985 Z-0.125000
G01 X66.472715 Y10.414160 Z-0.125000
G01 X65.997203 Y10.571190 Z-0.125000
G01 X65.575889 Y11.042380 Z-0.125000
G01 X65.218186 Y11.807271 Z-0.125000
G01 X64.918674 Y12.790673 Z-0.125000
G01 X64.686766 Y13.999440 Z-0.125000
G01 X64.516757 Y15.385697 Z-0.125000
G01 X64.412355 Y16.915478 Z-0.125000
G01 X64.377555 Y18.554414 Z-0.125000
G01 X64.377555 Y18.554414 Z-0.125000
G00 Z5.000000

(End cutting path id: text11678)


(Start cutting path id: text11678)
(Change tool to Default tool)

G00 Z5.000000
G00 X71.601792 Y15.057930

G01 Z-0.125000 F100.0(Penetrate)
G01 X71.880196 Y18.745612 Z-0.125000 F400.000000
G01 X72.220214 Y23.198184 Z-0.125000
G01 X72.591324 Y28.005938 Z-0.125000
G01 X72.939329 Y32.786278 Z-0.125000
G01 X72.993529 Y33.141359 Z-0.125000
G01 X73.124744 Y33.660424 Z-0.125000
G01 X73.341249 Y34.124761 Z-0.125000
G01 X73.650459 Y34.315958 Z-0.125000
G01 X73.905758 Y34.206703 Z-0.125000
G01 X74.122263 Y33.933563 Z-0.125000
G01 X74.276868 Y33.414498 Z-0.125000
G01 X74.338478 Y32.704336 Z-0.125000
G01 X74.338478 Y32.513139 Z-0.125000
G01 X74.330778 Y32.349255 Z-0.125000
G01 X74.114274 Y29.453677 Z-0.125000
G01 X73.372339 Y19.701700 Z-0.125000
G01 X72.645522 Y9.895095 Z-0.125000
G01 X72.599032 Y9.485386 Z-0.125000
G01 X72.514032 Y8.993635 Z-0.125000
G01 X72.382532 Y8.583926 Z-0.125000
G01 X72.197119 Y8.420042 Z-0.125000
G01 X72.007714 Y8.495132 Z-0.125000
G01 X71.841413 Y8.720497 Z-0.125000
G01 X71.578698 Y9.430760 Z-0.125000
G01 X71.416391 Y10.386747 Z-0.125000
G01 X71.362191 Y11.370149 Z-0.125000
G01 X71.362191 Y11.616075 Z-0.125000
G01 X71.377591 Y11.861901 Z-0.125000
G01 X71.601797 Y15.057932 Z-0.125000
G00 Z5.000000

(End cutting path id: text11678)


(Start cutting path id: text11678)
(Change tool to Default tool)

G00 Z5.000000
G00 X75.633233 Y20.739732

G01 Z-0.125000 F100.0(Penetrate)
G01 X75.814937 Y22.890879 Z-0.125000 F400.000000
G01 X76.066242 Y25.137676 Z-0.125000
G01 X76.388860 Y27.391226 Z-0.125000
G01 X76.769668 Y29.562935 Z-0.125000
G01 X77.206386 Y31.632141 Z-0.125000
G01 X77.697301 Y33.523857 Z-0.125000
G01 X78.246407 Y35.183253 Z-0.125000
G01 X78.841723 Y36.501276 Z-0.125000
G01 X79.282149 Y37.074969 Z-0.125000
G01 X79.769356 Y37.266166 Z-0.125000
G01 X80.240874 Y37.102283 Z-0.125000
G01 X80.619685 Y36.555904 Z-0.125000
G01 X80.764592 Y36.118881 Z-0.125000
G01 X80.874984 Y35.572502 Z-0.125000
G01 X80.944584 Y34.903260 Z-0.125000
G01 X80.967694 Y34.097449 Z-0.125000
G01 X80.913494 Y32.758966 Z-0.125000
G01 X80.751187 Y31.557053 Z-0.125000
G01 X80.480485 Y30.710220 Z-0.125000
G01 X80.304771 Y30.464395 Z-0.125000
G01 X80.101673 Y30.382455 Z-0.125000
G01 X79.784760 Y30.600967 Z-0.125000
G01 X79.514343 Y31.092617 Z-0.125000
G01 X79.382843 Y31.365857 Z-0.125000
G01 X79.235940 Y31.611683 Z-0.125000
G01 X78.934430 Y31.037989 Z-0.125000
G01 X78.648325 Y30.300513 Z-0.125000
G01 X78.138013 Y28.524907 Z-0.125000
G01 X77.705289 Y26.421533 Z-0.125000
G01 X77.349582 Y24.181590 Z-0.125000
G01 X77.078880 Y21.968961 Z-0.125000
G01 X76.901170 Y20.002157 Z-0.125000
G01 X76.800762 Y18.499790 Z-0.125000
G01 X76.761972 Y16.888068 Z-0.125000
G01 X76.785082 Y15.850038 Z-0.125000
G01 X76.885775 Y14.975992 Z-0.125000
G01 X77.071187 Y14.374985 Z-0.125000
G01 X77.357293 Y14.156474 Z-0.125000
G01 X77.890710 Y14.402299 Z-0.125000
G01 X78.416426 Y15.030620 Z-0.125000
G01 X78.911334 Y15.904766 Z-0.125000
G01 X79.390554 Y16.942695 Z-0.125000
G01 X79.684361 Y17.625644 Z-0.125000
G01 X79.962480 Y18.253965 Z-0.125000
G01 X80.202375 Y18.690988 Z-0.125000
G01 X80.403191 Y18.882185 Z-0.125000
G01 X80.619695 Y18.663674 Z-0.125000
G01 X80.695005 Y18.397388 Z-0.125000
G01 X80.720395 Y17.980725 Z-0.125000
G01 X80.673895 Y17.188621 Z-0.125000
G01 X80.546388 Y16.177906 Z-0.125000
G01 X80.380088 Y15.276445 Z-0.125000
G01 X79.962482 Y13.746765 Z-0.125000
G01 X79.475560 Y12.572065 Z-0.125000
G01 X78.965248 Y11.616077 Z-0.125000
G01 X78.482035 Y10.823873 Z-0.125000
G01 X77.991120 Y10.250180 Z-0.125000
G01 X77.542707 Y9.922413 Z-0.125000
G01 X77.171597 Y9.813157 Z-0.125000
G01 X76.916584 Y9.895097 Z-0.125000
G01 X76.661571 Y10.140922 Z-0.125000
G01 X76.120452 Y11.260894 Z-0.125000
G01 X75.913646 Y11.943842 Z-0.125000
G01 X75.749342 Y12.708733 Z-0.125000
G01 X75.534834 Y14.470632 Z-0.125000
G01 X75.463234 Y16.532985 Z-0.125000
G01 X75.501744 Y18.527102 Z-0.125000
G01 X75.633244 Y20.739732 Z-0.125000
G01 X75.633244 Y20.739732 Z-0.125000
G00 Z5.000000

(End cutting path id: text11678)


(Start cutting path id: text11678)
(Change tool to Default tool)

G00 Z5.000000
G00 X82.509762 Y14.894048

G01 Z-0.125000 F100.0(Penetrate)
G01 X82.617872 Y14.839318 Z-0.125000 F400.000000
G01 X82.733968 Y14.702748 Z-0.125000
G01 X82.873170 Y14.593492 Z-0.125000
G01 X83.073986 Y14.538862 Z-0.125000
G01 X83.878105 Y14.812001 Z-0.125000
G01 X84.720733 Y15.522264 Z-0.125000
G01 X85.393353 Y16.505666 Z-0.125000
G01 X85.617559 Y17.086112 Z-0.125000
G01 X85.717967 Y17.680265 Z-0.125000
G01 X85.741357 Y18.253958 Z-0.125000
G01 X85.708267 Y18.704588 Z-0.125000
G01 X85.609857 Y19.128004 Z-0.125000
G01 X85.292945 Y19.947522 Z-0.125000
G01 X84.875339 Y20.657785 Z-0.125000
G01 X84.458018 Y21.258691 Z-0.125000
G01 X84.195018 Y21.641187 Z-0.125000
G01 X83.800803 Y22.296721 Z-0.125000
G01 X83.437394 Y23.225495 Z-0.125000
G01 X83.143587 Y24.427409 Z-0.125000
G01 X82.958175 Y26.039131 Z-0.125000
G01 X82.903975 Y26.803921 Z-0.125000
G01 X82.888575 Y27.623440 Z-0.125000
G01 X82.921375 Y28.381477 Z-0.125000
G01 X83.020075 Y29.235163 Z-0.125000
G01 X83.383198 Y31.065296 Z-0.125000
G01 X83.901212 Y32.786275 Z-0.125000
G01 X84.511932 Y34.152072 Z-0.125000
G01 X84.960344 Y35.190102 Z-0.125000
G01 X85.393354 Y35.982306 Z-0.125000
G01 X85.841766 Y36.501271 Z-0.125000
G01 X86.328688 Y36.692468 Z-0.125000
G01 X86.831298 Y36.610528 Z-0.125000
G01 X87.326206 Y36.228133 Z-0.125000
G01 X87.531016 Y35.852491 Z-0.125000
G01 X87.697316 Y35.326673 Z-0.125000
G01 X87.813128 Y34.650578 Z-0.125000
G01 X87.851918 Y33.769679 Z-0.125000
G01 X87.828528 Y32.977474 Z-0.125000
G01 X87.751228 Y31.994072 Z-0.125000
G01 X87.620013 Y31.147240 Z-0.125000
G01 X87.534723 Y30.880955 Z-0.125000
G01 X87.434315 Y30.792155 Z-0.125000
G01 X87.140508 Y31.037980 Z-0.125000
G01 X86.931705 Y31.557046 Z-0.125000
G01 X86.738591 Y32.103324 Z-0.125000
G01 X86.491279 Y32.349149 Z-0.125000
G01 X86.073673 Y32.103324 Z-0.125000
G01 X85.594454 Y31.475104 Z-0.125000
G01 X85.107247 Y30.573644 Z-0.125000
G01 X84.682225 Y29.508300 Z-0.125000
G01 X84.380716 Y28.415642 Z-0.125000
G01 X84.293716 Y27.917138 Z-0.125000
G01 X84.264626 Y27.459554 Z-0.125000
G01 X84.286016 Y27.036138 Z-0.125000
G01 X84.349626 Y26.694664 Z-0.125000
G01 X84.566131 Y26.175699 Z-0.125000
G01 X84.952645 Y25.520064 Z-0.125000
G01 X85.401057 Y24.864530 Z-0.125000
G01 X85.834067 Y24.208895 Z-0.125000
G01 X86.205177 Y23.607888 Z-0.125000
G01 X86.576287 Y22.843098 Z-0.125000
G01 X86.862107 Y22.050894 Z-0.125000
G01 X87.040103 Y21.067492 Z-0.125000
G01 X87.102003 Y19.783637 Z-0.125000
G01 X87.086313 Y19.073374 Z-0.125000
G01 X87.040103 Y18.253956 Z-0.125000
G01 X86.955103 Y17.297868 Z-0.125000
G01 X86.831305 Y16.205210 Z-0.125000
G01 X86.699805 Y15.249122 Z-0.125000
G01 X86.583993 Y14.702743 Z-0.125000
G01 X86.255386 Y13.746655 Z-0.125000
G01 X85.872580 Y12.845296 Z-0.125000
G01 X85.014549 Y11.342828 Z-0.125000
G01 X84.125425 Y10.332112 Z-0.125000
G01 X83.702114 Y10.045367 Z-0.125000
G01 X83.313604 Y9.949717 Z-0.125000
G01 X82.903985 Y10.195542 Z-0.125000
G01 X82.486379 Y10.878491 Z-0.125000
G01 X82.169467 Y11.861893 Z-0.125000
G01 X82.076757 Y12.408171 Z-0.125000
G01 X82.045947 Y12.954550 Z-0.125000
G01 X82.092157 Y13.555457 Z-0.125000
G01 X82.208254 Y14.183778 Z-0.125000
G01 X82.355157 Y14.675428 Z-0.125000
G01 X82.509763 Y14.893940 Z-0.125000
G01 X82.509763 Y14.894040 Z-0.125000
G00 Z5.000000

(End cutting path id: text11678)


(Start cutting path id: text11678)
(Change tool to Default tool)

G00 Z5.000000
G00 X73.619654 Y43.330462

G01 Z-0.125000 F100.0(Penetrate)
G01 X73.758856 Y44.723573 Z-0.125000 F400.000000
G01 X73.898058 Y45.502070 Z-0.125000
G01 X74.114278 Y46.198635 Z-0.125000
G01 X74.415787 Y46.635699 Z-0.125000
G01 X74.671085 Y46.854230 Z-0.125000
G01 X74.825691 Y46.663023 Z-0.125000
G01 X74.972594 Y46.253273 Z-0.125000
G01 X75.119498 Y45.652307 Z-0.125000
G01 X75.277812 Y45.502070 Z-0.125000
G01 X75.366812 Y45.160616 Z-0.125000
G01 X75.428712 Y44.122565 Z-0.125000
G01 X75.405602 Y43.330462 Z-0.125000
G01 X75.366812 Y42.756769 Z-0.125000
G01 X75.189101 Y41.691425 Z-0.125000
G01 X74.887592 Y40.871906 Z-0.125000
G01 X74.531885 Y40.352942 Z-0.125000
G01 X74.207271 Y40.161744 Z-0.125000
G01 X73.928867 Y40.380256 Z-0.125000
G01 X73.689257 Y41.309030 Z-0.125000
G01 X73.588564 Y41.937250 Z-0.125000
G01 X73.580864 Y42.347060 Z-0.125000
G01 X73.588564 Y42.866024 Z-0.125000
G01 X73.619654 Y43.330462 Z-0.125000
G01 X73.619654 Y43.330462 Z-0.125000
G00 Z5.000000

(End cutting path id: text11678)


(Start cutting path id: text11678)
(Change tool to Default tool)

G00 Z5.000000
G00 X51.351339 Y35.572510

G01 Z-0.125000 F100.0(Penetrate)
G01 X51.351339 Y35.572510 Z-0.125000 F400.000000
G00 Z5.000000

(End cutting path id: text11678)


(Start cutting path id: text11678)
(Change tool to Default tool)

G00 Z5.000000
G00 X51.815258 Y30.136519

G01 Z-0.125000 F100.0(Penetrate)
G01 X51.434449 Y29.972636 Z-0.125000 F400.000000
G01 X51.019126 Y29.480985 Z-0.125000
G01 X50.160809 Y27.841948 Z-0.125000
G01 X49.325882 Y25.765888 Z-0.125000
G01 X48.614755 Y23.799185 Z-0.125000
G01 X48.429057 Y21.641184 Z-0.125000
G01 X48.243645 Y19.537810 Z-0.125000
G01 X48.081337 Y17.352495 Z-0.125000
G01 X47.957539 Y14.975982 Z-0.125000
G01 X47.911039 Y13.910638 Z-0.125000
G01 X47.957539 Y13.418887 Z-0.125000
G01 X48.251346 Y13.910638 Z-0.125000
G01 X48.514061 Y14.183778 Z-0.125000
G01 X48.784764 Y14.456917 Z-0.125000
G01 X49.093974 Y14.839413 Z-0.125000
G01 X49.676169 Y15.773226 Z-0.125000
G01 X50.209301 Y16.853991 Z-0.125000
G01 X50.692800 Y18.081505 Z-0.125000
G01 X51.127235 Y19.455869 Z-0.125000
G01 X51.508044 Y20.987262 Z-0.125000
G01 X51.822960 Y22.685967 Z-0.125000
G01 X52.072268 Y24.552082 Z-0.125000
G01 X52.255969 Y26.585407 Z-0.125000
G01 X52.317869 Y27.650751 Z-0.125000
G01 X52.340979 Y28.497583 Z-0.125000
G01 X52.310169 Y29.214599 Z-0.125000
G01 X52.217459 Y29.726810 Z-0.125000
G01 X52.054867 Y30.034117 Z-0.125000
G01 X51.815257 Y30.136519 Z-0.125000
G01 X51.815257 Y30.136519 Z-0.125000
G00 Z5.000000

(End cutting path id: text11678)


(Start cutting path id: text11678)
(Change tool to Default tool)

G00 Z5.000000
G00 X31.595881 Y47.755684

G01 Z-0.125000 F100.0(Penetrate)
G01 X31.556231 Y47.223012 Z-0.125000 F400.000000
G01 X31.437282 Y46.608388 Z-0.125000
G01 X30.961770 Y45.133285 Z-0.125000
G01 X29.777128 Y41.170751 Z-0.125000
G01 X28.619298 Y36.876922 Z-0.125000
G01 X27.488682 Y32.251899 Z-0.125000
G01 X26.385079 Y27.295682 Z-0.125000
G01 X24.554774 Y18.492939 Z-0.125000
G01 X23.424100 Y12.572067 Z-0.125000
G01 X23.199922 Y11.418028 Z-0.125000
G01 X22.991177 Y10.632677 Z-0.125000
G01 X22.757329 Y10.202408 Z-0.125000
G01 X22.457731 Y10.058984 Z-0.125000
G01 X22.231613 Y10.216115 Z-0.125000
G01 X22.047998 Y10.687305 Z-0.125000
G01 X21.926225 Y11.377007 Z-0.125000
G01 X21.885635 Y12.189672 Z-0.125000
G01 X21.920435 Y13.132052 Z-0.125000
G01 X22.024808 Y14.047220 Z-0.125000
G01 X22.645227 Y17.475369 Z-0.125000
G01 X23.887975 Y23.662628 Z-0.125000
G01 X24.966447 Y28.736567 Z-0.125000
G01 X25.944426 Y33.032109 Z-0.125000
G01 X27.392041 Y38.877792 Z-0.125000
G01 X28.843506 Y44.286453 Z-0.125000
G01 X29.989640 Y48.267865 Z-0.125000
G01 X30.505657 Y49.777096 Z-0.125000
G01 X30.735568 Y49.981970 Z-0.125000
G01 X31.008267 Y50.050255 Z-0.125000
G01 X31.207371 Y49.893195 Z-0.125000
G01 X31.402482 Y49.421984 Z-0.125000
G01 X31.547389 Y48.691271 Z-0.125000
G01 X31.595879 Y47.755684 Z-0.125000
G01 X31.595879 Y47.755684 Z-0.125000
G00 Z5.000000

(End cutting path id: text11678)


(Footer)
M5
G00 X0.0000 Y0.0000
M2
(Using default footer. To add your own footer create file "footer" in the output dir.)
(end)
%