%
(Header)
(Generated by gcodetools from Inkscape.)
(Using default header. To add your own header create file "header" in the output dir.)
M3
(Header end.)
G21 (All units in mm)

(Start cutting path id: text2697)
(Change tool to Default tool)

G00 Z5.000000
G00 X14.288701 Y40.604768

G01 Z-0.125000 F100.0(Penetrate)
G01 X12.620095 Y7.983081 Z-0.125000 F400.000000
G01 X12.529705 Y7.078958 Z-0.125000
G01 X12.369773 Y6.308373 Z-0.125000
G01 X12.154268 Y5.731895 Z-0.125000
G01 X11.897020 Y5.410297 Z-0.125000
G01 X11.618900 Y5.379957 Z-0.125000
G01 X11.354696 Y5.628693 Z-0.125000
G01 X11.130503 Y6.126258 Z-0.125000
G01 X10.958417 Y6.842320 Z-0.125000
G01 X7.648976 Y25.823052 Z-0.125000
G01 X4.332607 Y6.842320 Z-0.125000
G01 X4.191814 Y6.217366 Z-0.125000
G01 X4.005814 Y5.750036 Z-0.125000
G01 X3.795506 Y5.458773 Z-0.125000
G01 X3.567819 Y5.361720 Z-0.125000
G01 X3.260166 Y5.543733 Z-0.125000
G01 X2.990735 Y6.089876 Z-0.125000
G01 X2.789123 Y6.927280 Z-0.125000
G01 X2.684835 Y7.983081 Z-0.125000
G01 X1.002308 Y40.604768 Z-0.125000
G01 X2.837789 Y40.604768 Z-0.125000
G01 X4.033643 Y17.619128 Z-0.125000
G01 X6.884188 Y33.493028 Z-0.125000
G01 X7.023249 Y34.118083 Z-0.125000
G01 X7.204024 Y34.585313 Z-0.125000
G01 X7.419557 Y34.876575 Z-0.125000
G01 X7.648976 Y34.973625 Z-0.125000
G01 X7.876692 Y34.876575 Z-0.125000
G01 X8.086999 Y34.585313 Z-0.125000
G01 X8.271239 Y34.118083 Z-0.125000
G01 X8.420721 Y33.493028 Z-0.125000
G01 X11.257380 Y17.619128 Z-0.125000
G01 X12.453205 Y40.604768 Z-0.125000
G01 X14.288701 Y40.604768 Z-0.125000
G00 Z5.000000

(End cutting path id: text2697)


(Start cutting path id: text2697)
(Change tool to Default tool)

G00 Z5.000000
G00 X17.406685 Y37.425171

G01 Z-0.125000 F100.0(Penetrate)
G01 X15.599019 Y37.425171 Z-0.125000 F400.000000
G01 X15.599019 Y43.129076 Z-0.125000
G01 X17.406685 Y43.129076 Z-0.125000
G01 X17.406685 Y37.425171 Z-0.125000
G00 Z5.000000

(End cutting path id: text2697)


(Start cutting path id: text2697)
(Change tool to Default tool)

G00 Z5.000000
G00 X26.392649 Y14.657927

G01 Z-0.125000 F100.0(Penetrate)
G01 X26.363119 Y13.110609 Z-0.125000 F400.000000
G01 X26.274459 Y11.721015 Z-0.125000
G01 X26.137131 Y10.507388 Z-0.125000
G01 X25.961581 Y9.439393 Z-0.125000
G01 X25.751273 Y8.535270 Z-0.125000
G01 X25.509672 Y7.764685 Z-0.125000
G01 X24.967375 Y6.648112 Z-0.125000
G01 X24.397248 Y5.992822 Z-0.125000
G01 X23.854951 Y5.798613 Z-0.125000
G01 X18.960334 Y5.798613 Z-0.125000
G01 X18.960334 Y12.109331 Z-0.125000
G01 X23.841065 Y12.109331 Z-0.125000
G01 X24.164336 Y12.273204 Z-0.125000
G01 X24.397248 Y12.764722 Z-0.125000
G01 X24.538040 Y13.565643 Z-0.125000
G01 X24.584980 Y14.657927 Z-0.125000
G01 X24.526320 Y15.762306 Z-0.125000
G01 X24.385094 Y16.551133 Z-0.125000
G01 X24.161305 Y17.024409 Z-0.125000
G01 X23.854951 Y17.182235 Z-0.125000
G01 X21.053080 Y17.182235 Z-0.125000
G01 X20.500333 Y17.364249 Z-0.125000
G01 X20.038002 Y17.910391 Z-0.125000
G01 X19.659072 Y18.729554 Z-0.125000
G01 X19.356645 Y19.730831 Z-0.125000
G01 X19.134154 Y20.865545 Z-0.125000
G01 X18.981208 Y22.085219 Z-0.125000
G01 X18.897778 Y23.304892 Z-0.125000
G01 X18.869948 Y24.439606 Z-0.125000
G01 X18.923848 Y26.381389 Z-0.125000
G01 X19.085484 Y27.983332 Z-0.125000
G01 X19.328817 Y29.300060 Z-0.125000
G01 X19.627781 Y30.337720 Z-0.125000
G01 X19.968459 Y31.108305 Z-0.125000
G01 X20.336939 Y31.624112 Z-0.125000
G01 X20.707179 Y31.933616 Z-0.125000
G01 X21.053082 Y32.036716 Z-0.125000
G01 X25.495761 Y32.036716 Z-0.125000
G01 X25.495761 Y25.725998 Z-0.125000
G01 X21.066968 Y25.725998 Z-0.125000
G01 X20.844478 Y25.604656 Z-0.125000
G01 X20.726290 Y25.313393 Z-0.125000
G01 X20.684570 Y24.924976 Z-0.125000
G01 X20.677570 Y24.536660 Z-0.125000
G01 X20.719280 Y23.929847 Z-0.125000
G01 X20.802740 Y23.614296 Z-0.125000
G01 X20.920929 Y23.492953 Z-0.125000
G01 X21.053031 Y23.492953 Z-0.125000
G01 X23.854904 Y23.492953 Z-0.125000
G01 X24.498039 Y23.274557 Z-0.125000
G01 X25.036843 Y22.619166 Z-0.125000
G01 X25.476599 Y21.630083 Z-0.125000
G01 X25.822503 Y20.410410 Z-0.125000
G01 X26.079751 Y19.039058 Z-0.125000
G01 X26.253569 Y17.546263 Z-0.125000
G01 X26.357842 Y16.047521 Z-0.125000
G01 X26.392602 Y14.657927 Z-0.125000
G01 X26.392602 Y14.657927 Z-0.125000
G00 Z5.000000

(End cutting path id: text2697)


(Start cutting path id: text2697)
(Change tool to Default tool)

G00 Z5.000000
G00 X29.482873 Y5.798613

G01 Z-0.125000 F100.0(Penetrate)
G01 X27.675167 Y5.798613 Z-0.125000 F400.000000
G01 X27.675167 Y43.129076 Z-0.125000
G01 X29.482862 Y43.129076 Z-0.125000
G01 X29.482862 Y5.798613 Z-0.125000
G00 Z5.000000

(End cutting path id: text2697)


(Start cutting path id: text2697)
(Change tool to Default tool)

G00 Z5.000000
G00 X36.004236 Y5.798613

G01 Z-0.125000 F100.0(Penetrate)
G01 X34.196819 Y5.798613 Z-0.125000 F400.000000
G01 X34.196819 Y23.201691 Z-0.125000
G01 X34.151499 Y24.287827 Z-0.125000
G01 X34.015817 Y25.070608 Z-0.125000
G01 X33.790064 Y25.562125 Z-0.125000
G01 X33.473664 Y25.725998 Z-0.125000
G01 X30.212953 Y25.725998 Z-0.125000
G01 X30.212953 Y32.036716 Z-0.125000
G01 X33.473664 Y32.036716 Z-0.125000
G01 X34.015817 Y31.818320 Z-0.125000
G01 X34.579043 Y31.187218 Z-0.125000
G01 X35.121485 Y30.046457 Z-0.125000
G01 X35.363115 Y29.287966 Z-0.125000
G01 X35.573279 Y28.371648 Z-0.125000
G01 X35.748800 Y27.321894 Z-0.125000
G01 X35.886214 Y26.114314 Z-0.125000
G01 X35.974844 Y24.742963 Z-0.125000
G01 X36.004294 Y23.201691 Z-0.125000
G01 X36.004294 Y5.798613 Z-0.125000
G00 Z5.000000

(End cutting path id: text2697)


(Start cutting path id: text2697)
(Change tool to Default tool)

G00 Z5.000000
G00 X17.406685 Y5.798613

G01 Z-0.125000 F100.0(Penetrate)
G01 X15.599019 Y5.798613 Z-0.125000 F400.000000
G01 X15.599019 Y32.036716 Z-0.125000
G01 X17.406685 Y32.036716 Z-0.125000
G01 X17.406685 Y5.798613 Z-0.125000
G00 Z5.000000

(End cutting path id: text2697)


(Start cutting path id: text2697)
(Change tool to Default tool)

G00 Z5.000000
G00 X45.734163 Y23.347322

G01 Z-0.125000 F100.0(Penetrate)
G01 X45.701253 Y21.982017 Z-0.125000 F400.000000
G01 X45.602233 Y20.507464 Z-0.125000
G01 X45.428444 Y19.051152 Z-0.125000
G01 X45.171225 Y17.691894 Z-0.125000
G01 X44.832018 Y16.508703 Z-0.125000
G01 X44.399278 Y15.531715 Z-0.125000
G01 X43.874446 Y14.876425 Z-0.125000
G01 X43.245110 Y14.657927 Z-0.125000
G01 X39.984400 Y14.657927 Z-0.125000
G01 X39.984400 Y20.653095 Z-0.125000
G01 X43.245110 Y20.653095 Z-0.125000
G01 X43.571903 Y20.847303 Z-0.125000
G01 X43.815266 Y21.429828 Z-0.125000
G01 X43.966537 Y22.321857 Z-0.125000
G01 X44.017057 Y23.395899 Z-0.125000
G01 X43.959607 Y24.500278 Z-0.125000
G01 X43.787550 Y25.337682 Z-0.125000
G01 X43.540723 Y25.865582 Z-0.125000
G01 X43.245108 Y26.041549 Z-0.125000
G01 X39.984400 Y26.041549 Z-0.125000
G01 X39.657607 Y25.841294 Z-0.125000
G01 X39.414244 Y25.240527 Z-0.125000
G01 X39.263262 Y24.366740 Z-0.125000
G01 X39.212742 Y23.298745 Z-0.125000
G01 X39.212742 Y14.488008 Z-0.125000
G01 X39.268462 Y13.365489 Z-0.125000
G01 X39.435323 Y12.522037 Z-0.125000
G01 X39.690810 Y11.994036 Z-0.125000
G01 X39.998261 Y11.818069 Z-0.125000
G01 X43.245114 Y11.818069 Z-0.125000
G01 X43.245114 Y5.798613 Z-0.125000
G01 X39.984400 Y5.798613 Z-0.125000
G01 X39.593519 Y5.913909 Z-0.125000
G01 X39.170882 Y6.259795 Z-0.125000
G01 X38.753730 Y6.860562 Z-0.125000
G01 X38.364581 Y7.740396 Z-0.125000
G01 X38.025664 Y8.935781 Z-0.125000
G01 X37.745638 Y10.434623 Z-0.125000
G01 X37.557992 Y12.285298 Z-0.125000
G01 X37.495352 Y14.488008 Z-0.125000
G01 X37.495352 Y23.347322 Z-0.125000
G01 X37.528552 Y24.706580 Z-0.125000
G01 X37.627572 Y26.162892 Z-0.125000
G01 X37.799629 Y27.631398 Z-0.125000
G01 X38.051652 Y28.978462 Z-0.125000
G01 X38.394033 Y30.179894 Z-0.125000
G01 X38.823310 Y31.162929 Z-0.125000
G01 X39.353626 Y31.818320 Z-0.125000
G01 X39.984406 Y32.036716 Z-0.125000
G01 X43.245116 Y32.036716 Z-0.125000
G01 X43.634554 Y31.921421 Z-0.125000
G01 X44.051706 Y31.575534 Z-0.125000
G01 X44.472321 Y30.968721 Z-0.125000
G01 X44.858295 Y30.070746 Z-0.125000
G01 X45.202409 Y28.887455 Z-0.125000
G01 X45.483878 Y27.376519 Z-0.125000
G01 X45.671813 Y25.543984 Z-0.125000
G01 X45.734173 Y23.347322 Z-0.125000
G01 X45.734173 Y23.347322 Z-0.125000
G00 Z5.000000

(End cutting path id: text2697)


(Start cutting path id: text2697)
(Change tool to Default tool)

G00 Z5.000000
G00 X54.205669 Y14.657927

G01 Z-0.125000 F100.0(Penetrate)
G01 X54.176219 Y13.110609 Z-0.125000 F400.000000
G01 X54.087589 Y11.721015 Z-0.125000
G01 X53.950174 Y10.507388 Z-0.125000
G01 X53.774653 Y9.439393 Z-0.125000
G01 X53.564489 Y8.535270 Z-0.125000
G01 X53.322859 Y7.764685 Z-0.125000
G01 X52.780418 Y6.648112 Z-0.125000
G01 X52.210262 Y5.992822 Z-0.125000
G01 X51.668110 Y5.798613 Z-0.125000
G01 X46.773435 Y5.798613 Z-0.125000
G01 X46.773435 Y12.109331 Z-0.125000
G01 X51.654253 Y12.109331 Z-0.125000
G01 X51.977293 Y12.273204 Z-0.125000
G01 X52.210262 Y12.764722 Z-0.125000
G01 X52.351141 Y13.565643 Z-0.125000
G01 X52.398201 Y14.657927 Z-0.125000
G01 X52.339311 Y15.762306 Z-0.125000
G01 X52.198143 Y16.551133 Z-0.125000
G01 X51.974412 Y17.024409 Z-0.125000
G01 X51.668116 Y17.182235 Z-0.125000
G01 X48.866127 Y17.182235 Z-0.125000
G01 X48.313293 Y17.364249 Z-0.125000
G01 X47.851107 Y17.910391 Z-0.125000
G01 X47.472062 Y18.729554 Z-0.125000
G01 X47.169807 Y19.730831 Z-0.125000
G01 X46.947230 Y20.865545 Z-0.125000
G01 X46.794226 Y22.085219 Z-0.125000
G01 X46.710796 Y23.304892 Z-0.125000
G01 X46.683086 Y24.439606 Z-0.125000
G01 X46.736786 Y26.381389 Z-0.125000
G01 X46.898450 Y27.983332 Z-0.125000
G01 X47.141813 Y29.300060 Z-0.125000
G01 X47.440892 Y30.337720 Z-0.125000
G01 X47.781541 Y31.108305 Z-0.125000
G01 X48.149905 Y31.624112 Z-0.125000
G01 X48.520289 Y31.933616 Z-0.125000
G01 X48.866135 Y32.036716 Z-0.125000
G01 X53.308727 Y32.036716 Z-0.125000
G01 X53.308727 Y25.725998 Z-0.125000
G01 X48.879992 Y25.725998 Z-0.125000
G01 X48.657704 Y25.604656 Z-0.125000
G01 X48.539343 Y25.313393 Z-0.125000
G01 X48.497773 Y24.924976 Z-0.125000
G01 X48.490873 Y24.536660 Z-0.125000
G01 X48.532443 Y23.929847 Z-0.125000
G01 X48.615873 Y23.614296 Z-0.125000
G01 X48.733946 Y23.492953 Z-0.125000
G01 X48.866164 Y23.492953 Z-0.125000
G01 X51.668153 Y23.492953 Z-0.125000
G01 X52.311057 Y23.274557 Z-0.125000
G01 X52.850034 Y22.619166 Z-0.125000
G01 X53.289703 Y21.630083 Z-0.125000
G01 X53.635549 Y20.410410 Z-0.125000
G01 X53.892768 Y19.039058 Z-0.125000
G01 X54.066846 Y17.546263 Z-0.125000
G01 X54.171062 Y16.047521 Z-0.125000
G01 X54.205702 Y14.657927 Z-0.125000
G01 X54.205702 Y14.657927 Z-0.125000
G00 Z5.000000

(End cutting path id: text2697)


(Start cutting path id: text2697)
(Change tool to Default tool)

G00 Z5.000000
G00 X69.660807 Y28.954173

G01 Z-0.125000 F100.0(Penetrate)
G01 X69.620967 Y26.909289 Z-0.125000 F400.000000
G01 X69.500874 Y25.094896 Z-0.125000
G01 X69.321888 Y23.492953 Z-0.125000
G01 X69.090651 Y22.085219 Z-0.125000
G01 X68.810914 Y20.889834 Z-0.125000
G01 X68.485853 Y19.876462 Z-0.125000
G01 X68.138275 Y19.033011 Z-0.125000
G01 X67.776840 Y18.347284 Z-0.125000
G01 X67.404723 Y17.843673 Z-0.125000
G01 X67.025967 Y17.497786 Z-0.125000
G01 X66.316665 Y17.230812 Z-0.125000
G01 X65.586535 Y17.230812 Z-0.125000
G01 X65.586535 Y5.798613 Z-0.125000
G01 X63.764926 Y5.798613 Z-0.125000
G01 X63.764926 Y17.230812 Z-0.125000
G01 X63.042055 Y17.230812 Z-0.125000
G01 X62.325825 Y17.497786 Z-0.125000
G01 X61.574952 Y18.347284 Z-0.125000
G01 X61.213517 Y19.033011 Z-0.125000
G01 X60.865939 Y19.876462 Z-0.125000
G01 X60.544342 Y20.889834 Z-0.125000
G01 X60.260852 Y22.085219 Z-0.125000
G01 X60.027883 Y23.492953 Z-0.125000
G01 X59.843701 Y25.094896 Z-0.125000
G01 X59.729092 Y26.921383 Z-0.125000
G01 X59.690692 Y28.954173 Z-0.125000
G01 X59.690692 Y40.604768 Z-0.125000
G01 X61.498445 Y40.604768 Z-0.125000
G01 X61.498445 Y28.954173 Z-0.125000
G01 X61.526155 Y27.777030 Z-0.125000
G01 X61.609585 Y26.721128 Z-0.125000
G01 X61.743536 Y25.817005 Z-0.125000
G01 X61.922521 Y25.046420 Z-0.125000
G01 X62.145098 Y24.421365 Z-0.125000
G01 X62.409246 Y23.954135 Z-0.125000
G01 X62.716986 Y23.681115 Z-0.125000
G01 X63.055903 Y23.590005 Z-0.125000
G01 X66.316614 Y23.590005 Z-0.125000
G01 X66.844910 Y23.954133 Z-0.125000
G01 X67.104150 Y24.275731 Z-0.125000
G01 X67.338563 Y24.755155 Z-0.125000
G01 X67.542087 Y25.422640 Z-0.125000
G01 X67.707215 Y26.308521 Z-0.125000
G01 X67.816627 Y27.467524 Z-0.125000
G01 X67.853287 Y28.954171 Z-0.125000
G01 X67.853287 Y40.604768 Z-0.125000
G01 X69.660752 Y40.604768 Z-0.125000
G01 X69.660752 Y28.954173 Z-0.125000
G00 Z5.000000

(End cutting path id: text2697)


(Start cutting path id: text2697)
(Change tool to Default tool)

G00 Z5.000000
G00 X77.360580 Y23.153113

G01 Z-0.125000 F100.0(Penetrate)
G01 X77.313520 Y24.293975 Z-0.125000 F400.000000
G01 X77.172930 Y25.094896 Z-0.125000
G01 X76.943425 Y25.568273 Z-0.125000
G01 X76.630489 Y25.725998 Z-0.125000
G01 X73.383635 Y25.725998 Z-0.125000
G01 X73.065503 Y25.562125 Z-0.125000
G01 X72.834554 Y25.070608 Z-0.125000
G01 X72.693675 Y24.287827 Z-0.125000
G01 X72.646615 Y23.201691 Z-0.125000
G01 X72.646615 Y14.657927 Z-0.125000
G01 X72.693675 Y13.565643 Z-0.125000
G01 X72.834554 Y12.764722 Z-0.125000
G01 X73.065503 Y12.273204 Z-0.125000
G01 X73.383635 Y12.109331 Z-0.125000
G01 X76.630489 Y12.109331 Z-0.125000
G01 X76.952085 Y12.273204 Z-0.125000
G01 X77.179859 Y12.764722 Z-0.125000
G01 X77.315252 Y13.565643 Z-0.125000
G01 X77.360572 Y14.657927 Z-0.125000
G01 X77.360572 Y23.153113 Z-0.125000
G00 Z5.000000

(End cutting path id: text2697)


(Start cutting path id: text2697)
(Change tool to Default tool)

G00 Z5.000000
G00 X79.168343 Y14.657927

G01 Z-0.125000 F100.0(Penetrate)
G01 X79.138603 Y13.110609 Z-0.125000 F400.000000
G01 X79.049973 Y11.721015 Z-0.125000
G01 X78.912847 Y10.507388 Z-0.125000
G01 X78.737037 Y9.439393 Z-0.125000
G01 X78.526873 Y8.535270 Z-0.125000
G01 X78.285243 Y7.764685 Z-0.125000
G01 X77.742802 Y6.648112 Z-0.125000
G01 X77.172935 Y5.992822 Z-0.125000
G01 X76.630494 Y5.798613 Z-0.125000
G01 X73.369783 Y5.798613 Z-0.125000
G01 X72.976881 Y5.913909 Z-0.125000
G01 X72.549337 Y6.259795 Z-0.125000
G01 X72.120061 Y6.866609 Z-0.125000
G01 X71.721962 Y7.764685 Z-0.125000
G01 X71.376116 Y8.984358 Z-0.125000
G01 X71.089451 Y10.507388 Z-0.125000
G01 X70.901516 Y12.394547 Z-0.125000
G01 X70.839156 Y14.657927 Z-0.125000
G01 X70.839156 Y23.201691 Z-0.125000
G01 X70.901516 Y25.440783 Z-0.125000
G01 X71.089451 Y27.303653 Z-0.125000
G01 X71.376116 Y28.838877 Z-0.125000
G01 X71.721962 Y30.046457 Z-0.125000
G01 X72.120061 Y30.962674 Z-0.125000
G01 X72.549337 Y31.575534 Z-0.125000
G01 X72.976881 Y31.921421 Z-0.125000
G01 X73.369783 Y32.036716 Z-0.125000
G01 X76.630494 Y32.036716 Z-0.125000
G01 X77.273687 Y31.818320 Z-0.125000
G01 X77.812375 Y31.162929 Z-0.125000
G01 X78.252333 Y30.173847 Z-0.125000
G01 X78.598179 Y28.954173 Z-0.125000
G01 X78.855398 Y27.582821 Z-0.125000
G01 X79.029187 Y26.090127 Z-0.125000
G01 X79.133403 Y24.591284 Z-0.125000
G01 X79.168333 Y23.201691 Z-0.125000
G01 X79.168333 Y14.657927 Z-0.125000
G00 Z5.000000

(End cutting path id: text2697)


(Start cutting path id: text2697)
(Change tool to Default tool)

G00 Z5.000000
G00 X88.912062 Y8.978311

G01 Z-0.125000 F100.0(Penetrate)
G01 X88.842492 Y7.716107 Z-0.125000 F400.000000
G01 X88.647918 Y6.696689 Z-0.125000
G01 X88.362696 Y6.041298 Z-0.125000
G01 X88.015118 Y5.798613 Z-0.125000
G01 X83.927032 Y5.798613 Z-0.125000
G01 X83.210802 Y6.065587 Z-0.125000
G01 X82.837242 Y6.411474 Z-0.125000
G01 X82.466858 Y6.915186 Z-0.125000
G01 X81.750916 Y8.419974 Z-0.125000
G01 X81.431052 Y9.433346 Z-0.125000
G01 X81.153047 Y10.628731 Z-0.125000
G01 X80.920077 Y12.036566 Z-0.125000
G01 X80.735895 Y13.638509 Z-0.125000
G01 X80.620998 Y15.446755 Z-0.125000
G01 X80.582888 Y17.473497 Z-0.125000
G01 X80.582888 Y32.036716 Z-0.125000
G01 X82.390352 Y32.036716 Z-0.125000
G01 X82.390352 Y17.473497 Z-0.125000
G01 X82.420082 Y16.296253 Z-0.125000
G01 X82.508712 Y15.240452 Z-0.125000
G01 X82.654787 Y14.336329 Z-0.125000
G01 X82.842433 Y13.565643 Z-0.125000
G01 X83.068475 Y12.940689 Z-0.125000
G01 X83.329158 Y12.473460 Z-0.125000
G01 X83.624484 Y12.200338 Z-0.125000
G01 X83.940884 Y12.109328 Z-0.125000
G01 X87.104308 Y12.109328 Z-0.125000
G01 X87.104308 Y32.036716 Z-0.125000
G01 X88.912061 Y32.036716 Z-0.125000
G01 X88.912061 Y8.978311 Z-0.125000
G00 Z5.000000

(End cutting path id: text2697)


(Footer)
M5
G00 X0.0000 Y0.0000
M2
(Using default footer. To add your own footer create file "footer" in the output dir.)
(end)
%