%
(Header)
(Generated by gcodetools from Inkscape.)
(Using default header. To add your own header create file "header" in the output dir.)
M3
(Header end.)
G21 (All units in mm)

(Start cutting path id: path10414)
(Change tool to Default tool)

G00 Z5.000000
G00 X13.601245 Y39.081125

G01 Z-0.125000 F100.0(Penetrate)
G01 X8.910397 Y39.081125 Z-0.125000 F400.000000
G01 X8.910397 Y5.438041 Z-0.125000
G01 X6.781886 Y5.438041 Z-0.125000
G01 X6.781886 Y39.081125 Z-0.125000
G01 X2.082836 Y39.081125 Z-0.125000
G01 X2.082836 Y46.531867 Z-0.125000
G01 X13.601245 Y46.531867 Z-0.125000
G01 X13.601245 Y39.081125 Z-0.125000
G00 Z5.000000

(End cutting path id: path10414)


(Start cutting path id: path10414)
(Change tool to Default tool)

G00 Z5.000000
G00 X21.480466 Y25.927653

G01 Z-0.125000 F100.0(Penetrate)
G01 X21.425216 Y27.274526 Z-0.125000 F400.000000
G01 X21.259436 Y28.220178 Z-0.125000
G01 X20.989287 Y28.779024 Z-0.125000
G01 X20.620874 Y28.965272 Z-0.125000
G01 X16.797795 Y28.965272 Z-0.125000
G01 X16.423250 Y28.771767 Z-0.125000
G01 X16.151057 Y28.191556 Z-0.125000
G01 X15.985277 Y27.267370 Z-0.125000
G01 X15.930027 Y25.984898 Z-0.125000
G01 X15.930027 Y15.897768 Z-0.125000
G01 X15.985277 Y14.608141 Z-0.125000
G01 X16.151057 Y13.662488 Z-0.125000
G01 X16.423250 Y13.082176 Z-0.125000
G01 X16.797795 Y12.888772 Z-0.125000
G01 X20.620874 Y12.888772 Z-0.125000
G01 X20.999508 Y13.082176 Z-0.125000
G01 X21.267613 Y13.662488 Z-0.125000
G01 X21.427260 Y14.608141 Z-0.125000
G01 X21.480470 Y15.897768 Z-0.125000
G01 X21.480470 Y25.927653 Z-0.125000
G00 Z5.000000

(End cutting path id: path10414)


(Start cutting path id: path10414)
(Change tool to Default tool)

G00 Z5.000000
G00 X23.608949 Y15.897768

G01 Z-0.125000 F100.0(Penetrate)
G01 X23.574169 Y14.070863 Z-0.125000 F400.000000
G01 X23.469801 Y12.430308 Z-0.125000
G01 X23.308109 Y10.997467 Z-0.125000
G01 X23.101388 Y9.736563 Z-0.125000
G01 X22.853754 Y8.669063 Z-0.125000
G01 X22.569267 Y7.759188 Z-0.125000
G01 X22.258178 Y7.028507 Z-0.125000
G01 X21.930734 Y6.441039 Z-0.125000
G01 X21.259437 Y5.667223 Z-0.125000
G01 X20.620875 Y5.438041 Z-0.125000
G01 X16.781414 Y5.438041 Z-0.125000
G01 X16.318882 Y5.574099 Z-0.125000
G01 X15.815409 Y5.982474 Z-0.125000
G01 X15.309892 Y6.698945 Z-0.125000
G01 X14.841227 Y7.759188 Z-0.125000
G01 X14.433946 Y9.199185 Z-0.125000
G01 X14.096253 Y10.997467 Z-0.125000
G01 X13.967297 Y12.055896 Z-0.125000
G01 X13.875197 Y13.225490 Z-0.125000
G01 X13.801517 Y15.897768 Z-0.125000
G01 X13.801517 Y25.984898 Z-0.125000
G01 X13.875197 Y28.628554 Z-0.125000
G01 X13.967297 Y29.783735 Z-0.125000
G01 X14.096253 Y30.827955 Z-0.125000
G01 X14.433946 Y32.640447 Z-0.125000
G01 X14.841227 Y34.066132 Z-0.125000
G01 X15.309892 Y35.147944 Z-0.125000
G01 X15.815409 Y35.871570 Z-0.125000
G01 X16.318882 Y36.279844 Z-0.125000
G01 X16.781414 Y36.416003 Z-0.125000
G01 X20.620875 Y36.416003 Z-0.125000
G01 X21.378143 Y36.158098 Z-0.125000
G01 X21.710711 Y35.835691 Z-0.125000
G01 X22.012588 Y35.384382 Z-0.125000
G01 X22.530399 Y34.216602 Z-0.125000
G01 X22.937681 Y32.776606 Z-0.125000
G01 X23.240565 Y31.157517 Z-0.125000
G01 X23.445242 Y29.395114 Z-0.125000
G01 X23.568037 Y27.625555 Z-0.125000
G01 X23.608947 Y25.984898 Z-0.125000
G01 X23.608947 Y15.897768 Z-0.125000
G00 Z5.000000

(End cutting path id: path10414)


(Start cutting path id: path10414)
(Change tool to Default tool)

G00 Z5.000000
G00 X35.163928 Y15.897768

G01 Z-0.125000 F100.0(Penetrate)
G01 X35.090218 Y13.662488 Z-0.125000 F400.000000
G01 X34.877451 Y11.312617 Z-0.125000
G01 X34.707582 Y10.187872 Z-0.125000
G01 X34.492511 Y9.106061 Z-0.125000
G01 X34.236845 Y8.103062 Z-0.125000
G01 X33.927626 Y7.214755 Z-0.125000
G01 X33.573782 Y6.491129 Z-0.125000
G01 X33.166385 Y5.925229 Z-0.125000
G01 X32.703997 Y5.559787 Z-0.125000
G01 X32.184027 Y5.438041 Z-0.125000
G01 X28.344566 Y5.438041 Z-0.125000
G01 X27.706004 Y5.667223 Z-0.125000
G01 X27.034706 Y6.441039 Z-0.125000
G01 X26.404350 Y7.759188 Z-0.125000
G01 X26.117819 Y8.669063 Z-0.125000
G01 X25.864053 Y9.736563 Z-0.125000
G01 X25.657332 Y10.997467 Z-0.125000
G01 X25.495669 Y12.430308 Z-0.125000
G01 X25.391271 Y14.070863 Z-0.125000
G01 X25.356491 Y15.897768 Z-0.125000
G01 X25.356491 Y49.512170 Z-0.125000
G01 X27.484973 Y49.512170 Z-0.125000
G01 X27.484973 Y15.897768 Z-0.125000
G01 X27.546383 Y14.658331 Z-0.125000
G01 X27.730561 Y13.691212 Z-0.125000
G01 X28.006871 Y13.089332 Z-0.125000
G01 X28.344564 Y12.888772 Z-0.125000
G01 X32.184025 Y12.888772 Z-0.125000
G01 X32.540173 Y13.096588 Z-0.125000
G01 X32.806204 Y13.719834 Z-0.125000
G01 X32.978088 Y14.679798 Z-0.125000
G01 X33.035388 Y15.897768 Z-0.125000
G01 X33.035388 Y25.984898 Z-0.125000
G01 X32.976078 Y27.231491 Z-0.125000
G01 X32.798148 Y28.162832 Z-0.125000
G01 X32.525782 Y28.764611 Z-0.125000
G01 X32.184030 Y28.965272 Z-0.125000
G01 X28.344569 Y28.965272 Z-0.125000
G01 X28.344569 Y36.416003 Z-0.125000
G01 X32.184030 Y36.416003 Z-0.125000
G01 X32.822620 Y36.158098 Z-0.125000
G01 X33.485683 Y35.413005 Z-0.125000
G01 X33.813040 Y34.818381 Z-0.125000
G01 X34.124274 Y34.066132 Z-0.125000
G01 X34.408732 Y33.170670 Z-0.125000
G01 X34.656337 Y32.088858 Z-0.125000
G01 X34.863058 Y30.849421 Z-0.125000
G01 X35.024865 Y29.423736 Z-0.125000
G01 X35.129089 Y27.804647 Z-0.125000
G01 X35.163929 Y25.984898 Z-0.125000
G01 X35.163929 Y15.897768 Z-0.125000
G00 Z5.000000

(End cutting path id: path10414)


(Start cutting path id: path10414)
(Change tool to Default tool)

G00 Z5.000000
G00 X46.596082 Y15.897768

G01 Z-0.125000 F100.0(Penetrate)
G01 X46.561242 Y14.070863 Z-0.125000 F400.000000
G01 X46.457017 Y12.430308 Z-0.125000
G01 X46.295210 Y10.997467 Z-0.125000
G01 X46.088489 Y9.736563 Z-0.125000
G01 X45.840884 Y8.669063 Z-0.125000
G01 X45.556426 Y7.759188 Z-0.125000
G01 X45.245192 Y7.028507 Z-0.125000
G01 X44.917835 Y6.441039 Z-0.125000
G01 X44.246423 Y5.667223 Z-0.125000
G01 X43.608120 Y5.438041 Z-0.125000
G01 X39.768515 Y5.438041 Z-0.125000
G01 X39.306127 Y5.574099 Z-0.125000
G01 X38.802568 Y5.982474 Z-0.125000
G01 X38.296993 Y6.698945 Z-0.125000
G01 X37.828271 Y7.759188 Z-0.125000
G01 X37.421162 Y9.199185 Z-0.125000
G01 X37.083440 Y10.997467 Z-0.125000
G01 X36.954456 Y12.055896 Z-0.125000
G01 X36.862326 Y13.225490 Z-0.125000
G01 X36.788616 Y15.897768 Z-0.125000
G01 X36.788616 Y25.984898 Z-0.125000
G01 X36.862326 Y28.628554 Z-0.125000
G01 X36.954456 Y29.783735 Z-0.125000
G01 X37.083440 Y30.827955 Z-0.125000
G01 X37.421162 Y32.640447 Z-0.125000
G01 X37.828271 Y34.066132 Z-0.125000
G01 X38.296993 Y35.147944 Z-0.125000
G01 X38.802568 Y35.871570 Z-0.125000
G01 X39.306127 Y36.279844 Z-0.125000
G01 X39.768515 Y36.416003 Z-0.125000
G01 X43.608120 Y36.416003 Z-0.125000
G01 X44.365331 Y36.158098 Z-0.125000
G01 X44.697870 Y35.835691 Z-0.125000
G01 X44.999603 Y35.384382 Z-0.125000
G01 X45.517558 Y34.216602 Z-0.125000
G01 X45.924666 Y32.776606 Z-0.125000
G01 X46.227551 Y31.157517 Z-0.125000
G01 X46.432257 Y29.395114 Z-0.125000
G01 X46.555195 Y27.625555 Z-0.125000
G01 X46.596075 Y25.984898 Z-0.125000
G01 X46.596075 Y15.897768 Z-0.125000
G00 Z5.000000

(End cutting path id: path10414)


(Start cutting path id: path10414)
(Change tool to Default tool)

G00 Z5.000000
G00 X44.467540 Y25.927653

G01 Z-0.125000 F100.0(Penetrate)
G01 X44.412260 Y27.274526 Z-0.125000 F400.000000
G01 X44.246423 Y28.220178 Z-0.125000
G01 X43.976361 Y28.779024 Z-0.125000
G01 X43.608120 Y28.965272 Z-0.125000
G01 X39.784926 Y28.965272 Z-0.125000
G01 X39.410352 Y28.771767 Z-0.125000
G01 X39.138274 Y28.191556 Z-0.125000
G01 X38.972436 Y27.267370 Z-0.125000
G01 X38.917156 Y25.984898 Z-0.125000
G01 X38.917156 Y15.897768 Z-0.125000
G01 X38.972436 Y14.608141 Z-0.125000
G01 X39.138274 Y13.662488 Z-0.125000
G01 X39.410352 Y13.082176 Z-0.125000
G01 X39.784926 Y12.888772 Z-0.125000
G01 X43.608120 Y12.888772 Z-0.125000
G01 X43.986725 Y13.082176 Z-0.125000
G01 X44.254772 Y13.662488 Z-0.125000
G01 X44.414276 Y14.608141 Z-0.125000
G01 X44.467536 Y15.897768 Z-0.125000
G01 X44.467536 Y25.927653 Z-0.125000
G00 Z5.000000

(End cutting path id: path10414)


(Start cutting path id: path10414)
(Change tool to Default tool)

G00 Z5.000000
G00 X56.137221 Y28.965272

G01 Z-0.125000 F100.0(Penetrate)
G01 X51.348080 Y28.965272 Z-0.125000 F400.000000
G01 X50.967459 Y28.771767 Z-0.125000
G01 X50.693078 Y28.191556 Z-0.125000
G01 X50.527240 Y27.267370 Z-0.125000
G01 X50.471960 Y25.984898 Z-0.125000
G01 X50.471960 Y5.438041 Z-0.125000
G01 X48.343710 Y5.438041 Z-0.125000
G01 X48.343710 Y25.984898 Z-0.125000
G01 X48.378550 Y27.804647 Z-0.125000
G01 X48.482774 Y29.423736 Z-0.125000
G01 X48.644581 Y30.849421 Z-0.125000
G01 X48.851303 Y32.088858 Z-0.125000
G01 X49.104954 Y33.170670 Z-0.125000
G01 X49.391427 Y34.066132 Z-0.125000
G01 X49.700646 Y34.818381 Z-0.125000
G01 X50.021956 Y35.413005 Z-0.125000
G01 X50.693081 Y36.158098 Z-0.125000
G01 X51.331671 Y36.416003 Z-0.125000
G01 X56.137224 Y36.416003 Z-0.125000
G01 X56.137224 Y28.965272 Z-0.125000
G00 Z5.000000

(End cutting path id: path10414)


(Footer)
M5
G00 X0.0000 Y0.0000
M2
(Using default footer. To add your own footer create file "footer" in the output dir.)
(end)
%