%
(Header)
(Generated by gcodetools from Inkscape.)
(Using default header. To add your own header create file "header" in the output dir.)
M3
(Header end.)
G21 (All units in mm)

(Start cutting path id: text2696)
(Change tool to Default tool)

G00 Z5.000000
G00 X65.703699 Y18.607134

G01 Z-0.125000 F100.0(Penetrate)
G01 X65.683549 Y17.532781 Z-0.125000 F400.000000
G01 X65.623379 Y16.579670 Z-0.125000
G01 X65.404854 Y14.998476 Z-0.125000
G01 X65.091604 Y13.838154 Z-0.125000
G01 X64.716454 Y13.034808 Z-0.125000
G01 X64.323165 Y12.588538 Z-0.125000
G01 X63.951470 Y12.448247 Z-0.125000
G01 X65.929431 Y6.467949 Z-0.125000
G01 X64.465098 Y6.467949 Z-0.125000
G01 X62.490880 Y12.448247 Z-0.125000
G01 X61.809679 Y12.448247 Z-0.125000
G01 X61.809679 Y15.763524 Z-0.125000
G01 X63.951462 Y15.763524 Z-0.125000
G01 X64.275652 Y16.018608 Z-0.125000
G01 X64.530742 Y16.592369 Z-0.125000
G01 X64.698308 Y17.446712 Z-0.125000
G01 X64.756468 Y18.607134 Z-0.125000
G01 X64.756468 Y20.698294 Z-0.125000
G01 X64.734588 Y21.119065 Z-0.125000
G01 X64.683628 Y21.335851 Z-0.125000
G01 X64.617988 Y21.425141 Z-0.125000
G01 X64.556088 Y21.437841 Z-0.125000
G01 X61.430785 Y21.437841 Z-0.125000
G01 X61.430785 Y6.467949 Z-0.125000
G01 X60.483552 Y6.467949 Z-0.125000
G01 X60.483552 Y23.082733 Z-0.125000
G01 X60.520112 Y23.733090 Z-0.125000
G01 X60.618292 Y24.268654 Z-0.125000
G01 X60.771462 Y24.625730 Z-0.125000
G01 X60.960909 Y24.753222 Z-0.125000
G01 X64.556076 Y24.753222 Z-0.125000
G01 X64.848595 Y24.651229 Z-0.125000
G01 X65.091593 Y24.345149 Z-0.125000
G01 X65.289390 Y23.895654 Z-0.125000
G01 X65.445150 Y23.337817 Z-0.125000
G01 X65.641795 Y22.037204 Z-0.125000
G01 X65.703695 Y20.723792 Z-0.125000
G01 X65.703695 Y18.607134 Z-0.125000
G00 Z5.000000

(End cutting path id: text2696)


(Start cutting path id: text2696)
(Change tool to Default tool)

G00 Z5.000000
G00 X69.839849 Y15.585037

G01 Z-0.125000 F100.0(Penetrate)
G01 X69.815089 Y16.184397 Z-0.125000 F400.000000
G01 X69.741379 Y16.605168 Z-0.125000
G01 X69.621319 Y16.853802 Z-0.125000
G01 X69.457209 Y16.936642 Z-0.125000
G01 X67.756220 Y16.936642 Z-0.125000
G01 X67.589519 Y16.850572 Z-0.125000
G01 X67.468307 Y16.592365 Z-0.125000
G01 X67.394597 Y16.181168 Z-0.125000
G01 X67.370127 Y15.610531 Z-0.125000
G01 X67.370127 Y11.122132 Z-0.125000
G01 X67.394597 Y10.548270 Z-0.125000
G01 X67.468307 Y10.127499 Z-0.125000
G01 X67.589519 Y9.869291 Z-0.125000
G01 X67.756220 Y9.783221 Z-0.125000
G01 X69.457209 Y9.783221 Z-0.125000
G01 X69.625638 Y9.869291 Z-0.125000
G01 X69.745122 Y10.127499 Z-0.125000
G01 X69.816232 Y10.548270 Z-0.125000
G01 X69.839842 Y11.122132 Z-0.125000
G01 X69.839842 Y15.585033 Z-0.125000
G00 Z5.000000

(End cutting path id: text2696)


(Start cutting path id: text2696)
(Change tool to Default tool)

G00 Z5.000000
G00 X70.786795 Y11.122136

G01 Z-0.125000 F100.0(Penetrate)
G01 X70.724895 Y9.579240 Z-0.125000 F400.000000
G01 X70.561073 Y8.380620 Z-0.125000
G01 X70.324408 Y7.500779 Z-0.125000
G01 X70.040238 Y6.914218 Z-0.125000
G01 X69.741385 Y6.569942 Z-0.125000
G01 X69.457215 Y6.467949 Z-0.125000
G01 X67.748741 Y6.467949 Z-0.125000
G01 X67.319175 Y6.710232 Z-0.125000
G01 X67.094027 Y7.029011 Z-0.125000
G01 X66.885578 Y7.500779 Z-0.125000
G01 X66.704193 Y8.141561 Z-0.125000
G01 X66.554190 Y8.941683 Z-0.125000
G01 X66.455720 Y9.933091 Z-0.125000
G01 X66.422900 Y11.122136 Z-0.125000
G01 X66.422900 Y15.610535 Z-0.125000
G01 X66.455720 Y16.786881 Z-0.125000
G01 X66.554190 Y17.765490 Z-0.125000
G01 X66.704193 Y18.572061 Z-0.125000
G01 X66.885578 Y19.206394 Z-0.125000
G01 X67.094027 Y19.687736 Z-0.125000
G01 X67.319175 Y20.009740 Z-0.125000
G01 X67.748741 Y20.252024 Z-0.125000
G01 X69.457215 Y20.252024 Z-0.125000
G01 X69.794361 Y20.137231 Z-0.125000
G01 X70.076515 Y19.792954 Z-0.125000
G01 X70.306846 Y19.273314 Z-0.125000
G01 X70.488231 Y18.632632 Z-0.125000
G01 X70.622974 Y17.912130 Z-0.125000
G01 X70.713954 Y17.127933 Z-0.125000
G01 X70.786794 Y15.610535 Z-0.125000
G01 X70.786794 Y11.122136 Z-0.125000
G00 Z5.000000

(End cutting path id: text2696)


(Start cutting path id: text2696)
(Change tool to Default tool)

G00 Z5.000000
G00 X75.928334 Y11.122132

G01 Z-0.125000 F100.0(Penetrate)
G01 X75.895514 Y10.127499 Z-0.125000 F400.000000
G01 X75.800794 Y9.081869 Z-0.125000
G01 X75.629774 Y8.100035 Z-0.125000
G01 X75.378426 Y7.258491 Z-0.125000
G01 X75.039553 Y6.684629 Z-0.125000
G01 X74.602501 Y6.467945 Z-0.125000
G01 X72.894027 Y6.467945 Z-0.125000
G01 X72.609857 Y6.569938 Z-0.125000
G01 X72.311291 Y6.914214 Z-0.125000
G01 X72.030864 Y7.500775 Z-0.125000
G01 X71.790457 Y8.380616 Z-0.125000
G01 X71.626347 Y9.579236 Z-0.125000
G01 X71.564447 Y11.122132 Z-0.125000
G01 X71.564447 Y26.079333 Z-0.125000
G01 X72.511680 Y26.079333 Z-0.125000
G01 X72.511680 Y11.122136 Z-0.125000
G01 X72.539030 Y10.570648 Z-0.125000
G01 X72.620800 Y10.140302 Z-0.125000
G01 X72.743739 Y9.872520 Z-0.125000
G01 X72.894029 Y9.783230 Z-0.125000
G01 X74.602503 Y9.783230 Z-0.125000
G01 X74.760855 Y9.875650 Z-0.125000
G01 X74.879476 Y10.153007 Z-0.125000
G01 X74.955776 Y10.580229 Z-0.125000
G01 X74.981406 Y11.122142 Z-0.125000
G01 X74.981406 Y15.610541 Z-0.125000
G01 X74.954916 Y16.165254 Z-0.125000
G01 X74.875736 Y16.579676 Z-0.125000
G01 X74.754524 Y16.847458 Z-0.125000
G01 X74.602506 Y16.936648 Z-0.125000
G01 X72.894032 Y16.936648 Z-0.125000
G01 X72.894032 Y20.252026 Z-0.125000
G01 X74.602506 Y20.252026 Z-0.125000
G01 X74.886676 Y20.137233 Z-0.125000
G01 X75.181787 Y19.805756 Z-0.125000
G01 X75.465957 Y19.206396 Z-0.125000
G01 X75.702621 Y18.326555 Z-0.125000
G01 X75.866444 Y17.140735 Z-0.125000
G01 X75.928344 Y15.610537 Z-0.125000
G01 X75.928344 Y11.122138 Z-0.125000
G00 Z5.000000

(End cutting path id: text2696)


(Start cutting path id: text2696)
(Change tool to Default tool)

G00 Z5.000000
G00 X81.015475 Y11.122138

G01 Z-0.125000 F100.0(Penetrate)
G01 X80.953285 Y9.579242 Z-0.125000 F400.000000
G01 X80.789462 Y8.380622 Z-0.125000
G01 X80.552798 Y7.500781 Z-0.125000
G01 X80.268628 Y6.914220 Z-0.125000
G01 X79.969775 Y6.569944 Z-0.125000
G01 X79.685893 Y6.467951 Z-0.125000
G01 X77.977418 Y6.467951 Z-0.125000
G01 X77.547564 Y6.710234 Z-0.125000
G01 X77.322417 Y7.029013 Z-0.125000
G01 X77.113968 Y7.500781 Z-0.125000
G01 X76.932871 Y8.141563 Z-0.125000
G01 X76.782580 Y8.941685 Z-0.125000
G01 X76.684110 Y9.933093 Z-0.125000
G01 X76.651290 Y11.122138 Z-0.125000
G01 X76.651290 Y15.610537 Z-0.125000
G01 X76.684110 Y16.786883 Z-0.125000
G01 X76.782580 Y17.765492 Z-0.125000
G01 X76.932871 Y18.572063 Z-0.125000
G01 X77.113968 Y19.206396 Z-0.125000
G01 X77.322417 Y19.687738 Z-0.125000
G01 X77.547564 Y20.009742 Z-0.125000
G01 X77.977418 Y20.252026 Z-0.125000
G01 X79.685893 Y20.252026 Z-0.125000
G01 X80.022751 Y20.137233 Z-0.125000
G01 X80.304905 Y19.792956 Z-0.125000
G01 X80.535523 Y19.273316 Z-0.125000
G01 X80.716620 Y18.632634 Z-0.125000
G01 X80.851364 Y17.912132 Z-0.125000
G01 X80.942344 Y17.127935 Z-0.125000
G01 X81.015474 Y15.610537 Z-0.125000
G01 X81.015474 Y11.122138 Z-0.125000
G00 Z5.000000

(End cutting path id: text2696)


(Start cutting path id: text2696)
(Change tool to Default tool)

G00 Z5.000000
G00 X80.068241 Y15.585039

G01 Z-0.125000 F100.0(Penetrate)
G01 X80.043771 Y16.184399 Z-0.125000 F400.000000
G01 X79.969781 Y16.605170 Z-0.125000
G01 X79.849721 Y16.853804 Z-0.125000
G01 X79.685899 Y16.936644 Z-0.125000
G01 X77.984622 Y16.936644 Z-0.125000
G01 X77.817920 Y16.850574 Z-0.125000
G01 X77.696709 Y16.592367 Z-0.125000
G01 X77.622999 Y16.181170 Z-0.125000
G01 X77.598529 Y15.610533 Z-0.125000
G01 X77.598529 Y11.122134 Z-0.125000
G01 X77.622999 Y10.548272 Z-0.125000
G01 X77.696709 Y10.127501 Z-0.125000
G01 X77.817920 Y9.869293 Z-0.125000
G01 X77.984622 Y9.783223 Z-0.125000
G01 X79.685899 Y9.783223 Z-0.125000
G01 X79.854328 Y9.869293 Z-0.125000
G01 X79.973524 Y10.127501 Z-0.125000
G01 X80.044634 Y10.548272 Z-0.125000
G01 X80.068244 Y11.122134 Z-0.125000
G01 X80.068244 Y15.585035 Z-0.125000
G00 Z5.000000

(End cutting path id: text2696)


(Start cutting path id: text2696)
(Change tool to Default tool)

G00 Z5.000000
G00 X85.377356 Y16.936644

G01 Z-0.125000 F100.0(Penetrate)
G01 X83.723585 Y16.936644 Z-0.125000 F400.000000
G01 X83.723585 Y6.467949 Z-0.125000
G01 X82.765411 Y6.467949 Z-0.125000
G01 X82.765411 Y16.936646 Z-0.125000
G01 X81.534296 Y16.936646 Z-0.125000
G01 X81.534296 Y20.252024 Z-0.125000
G01 X82.765411 Y20.252024 Z-0.125000
G01 X82.765411 Y24.753222 Z-0.125000
G01 X83.723585 Y24.753222 Z-0.125000
G01 X83.723585 Y20.252024 Z-0.125000
G01 X85.377356 Y20.252024 Z-0.125000
G01 X85.377356 Y16.936646 Z-0.125000
G00 Z5.000000

(End cutting path id: text2696)


(Start cutting path id: text2696)
(Change tool to Default tool)

G00 Z5.000000
G00 X74.711338 Y28.527568

G01 Z-0.125000 F100.0(Penetrate)
G01 X73.764393 Y28.527568 Z-0.125000 F400.000000
G01 X73.764393 Y37.670255 Z-0.125000
G01 X73.740493 Y38.240892 Z-0.125000
G01 X73.669663 Y38.652089 Z-0.125000
G01 X73.551331 Y38.910297 Z-0.125000
G01 X73.385493 Y38.996367 Z-0.125000
G01 X71.677026 Y38.996367 Z-0.125000
G01 X71.677026 Y42.311643 Z-0.125000
G01 X73.385500 Y42.311643 Z-0.125000
G01 X73.669670 Y42.196952 Z-0.125000
G01 X73.964781 Y41.865374 Z-0.125000
G01 X74.248663 Y41.266114 Z-0.125000
G01 X74.485615 Y40.386273 Z-0.125000
G01 X74.649437 Y39.200352 Z-0.125000
G01 X74.711337 Y37.670255 Z-0.125000
G01 X74.711337 Y28.527568 Z-0.125000
G00 Z5.000000

(End cutting path id: text2696)


(Start cutting path id: text2696)
(Change tool to Default tool)

G00 Z5.000000
G00 X71.294676 Y28.527568

G01 Z-0.125000 F100.0(Penetrate)
G01 X70.347444 Y28.527568 Z-0.125000 F400.000000
G01 X70.347444 Y48.139003 Z-0.125000
G01 X71.294677 Y48.139003 Z-0.125000
G01 X71.294677 Y28.527568 Z-0.125000
G00 Z5.000000

(End cutting path id: text2696)


(Start cutting path id: text2696)
(Change tool to Default tool)

G00 Z5.000000
G00 X79.809122 Y37.746750

G01 Z-0.125000 F100.0(Penetrate)
G01 X79.740022 Y36.254850 Z-0.125000 F400.000000
G01 X79.649042 Y35.489802 Z-0.125000
G01 X79.514299 Y34.775750 Z-0.125000
G01 X79.336656 Y34.154116 Z-0.125000
G01 X79.109781 Y33.640825 Z-0.125000
G01 X78.834824 Y33.296549 Z-0.125000
G01 X78.505164 Y33.181756 Z-0.125000
G01 X76.796690 Y33.181756 Z-0.125000
G01 X76.796690 Y36.331345 Z-0.125000
G01 X78.505164 Y36.331345 Z-0.125000
G01 X78.676472 Y36.433338 Z-0.125000
G01 X78.803730 Y36.739418 Z-0.125000
G01 X78.883190 Y37.207961 Z-0.125000
G01 X78.909390 Y37.772248 Z-0.125000
G01 X78.879450 Y38.352460 Z-0.125000
G01 X78.789330 Y38.792380 Z-0.125000
G01 X78.660057 Y39.069636 Z-0.125000
G01 X78.505160 Y39.162156 Z-0.125000
G01 X76.796686 Y39.162156 Z-0.125000
G01 X76.625378 Y39.056938 Z-0.125000
G01 X76.498120 Y38.741385 Z-0.125000
G01 X76.418660 Y38.282315 Z-0.125000
G01 X76.392460 Y37.721253 Z-0.125000
G01 X76.392460 Y33.092563 Z-0.125000
G01 X76.421540 Y32.502778 Z-0.125000
G01 X76.509070 Y32.059733 Z-0.125000
G01 X76.642949 Y31.782376 Z-0.125000
G01 X76.803893 Y31.689856 Z-0.125000
G01 X78.505169 Y31.689856 Z-0.125000
G01 X78.505169 Y28.527568 Z-0.125000
G01 X76.796695 Y28.527568 Z-0.125000
G01 X76.370584 Y28.769852 Z-0.125000
G01 X76.152058 Y29.085506 Z-0.125000
G01 X75.947928 Y29.547700 Z-0.125000
G01 X75.770286 Y30.175683 Z-0.125000
G01 X75.623738 Y30.963105 Z-0.125000
G01 X75.525558 Y31.935365 Z-0.125000
G01 X75.492738 Y33.092562 Z-0.125000
G01 X75.492738 Y37.746750 Z-0.125000
G01 X75.561838 Y39.225851 Z-0.125000
G01 X75.651958 Y39.997349 Z-0.125000
G01 X75.784110 Y40.705052 Z-0.125000
G01 X75.963479 Y41.336260 Z-0.125000
G01 X76.188339 Y41.852675 Z-0.125000
G01 X76.466175 Y42.196952 Z-0.125000
G01 X76.796699 Y42.311643 Z-0.125000
G01 X78.505173 Y42.311643 Z-0.125000
G01 X78.927829 Y42.069460 Z-0.125000
G01 X79.148083 Y41.750682 Z-0.125000
G01 X79.350197 Y41.278813 Z-0.125000
G01 X79.530431 Y40.657180 Z-0.125000
G01 X79.678130 Y39.863408 Z-0.125000
G01 X79.776310 Y38.900723 Z-0.125000
G01 X79.809130 Y37.746750 Z-0.125000
G01 X79.809130 Y37.746750 Z-0.125000
G00 Z5.000000

(End cutting path id: text2696)


(Start cutting path id: text2696)
(Change tool to Default tool)

G00 Z5.000000
G00 X69.748298 Y43.497564

G01 Z-0.125000 F100.0(Penetrate)
G01 X67.661218 Y43.497564 Z-0.125000 F400.000000
G01 X67.661218 Y28.527568 Z-0.125000
G01 X66.713985 Y28.527568 Z-0.125000
G01 X66.713985 Y43.497564 Z-0.125000
G01 X64.623162 Y43.497564 Z-0.125000
G01 X64.623162 Y46.812872 Z-0.125000
G01 X69.748298 Y46.812872 Z-0.125000
G01 X69.748298 Y43.497564 Z-0.125000
G00 Z5.000000

(End cutting path id: text2696)


(Footer)
M5
G00 X0.0000 Y0.0000
M2
(Using default footer. To add your own footer create file "footer" in the output dir.)
(end)
%